#DEBUG: Format Typ    -> comma
#DEBUG: Time Period   -> 2020-01-01 00:00:00+00:00 2020-01-03 00:00:00+00:00
#DEBUG: Time Zone     -> Etc/UTC
#DEBUG: Data Contact   -> daryl herzmann akrherz@iastate.edu 515-294-5978
#DEBUG: Entries Found -> -1
station,valid,lon,lat,tmpf,dwpf,relh,drct,sknt,p01i,alti,mslp,vsby,gust,skyc1,skyc2,skyc3,skyc4,skyl1,skyl2,skyl3,skyl4,wxcodes,ice_accretion_1hr,ice_accretion_3hr,ice_accretion_6hr,peak_wind_gust,peak_wind_drct,peak_wind_time,feel,metar
JFK,2020-01-01 00:00,-73.7622,40.6386,M,M,M,210.00,7.00,M,29.65,M,10.00,M,BKN,OVC,M,M,6500.00,7500.00,M,M,M,M,M,M,M,M,M,M,KJFK 010000Z AUTO 21007KT 10SM BKN065 OVC075 06/04 A2964 RMK T00600040 MADISHF
JFK,2020-01-01 00:05,-73.7622,40.6386,M,M,M,220.00,8.00,M,29.65,M,10.00,M,BKN,OVC,M,M,6500.00,7500.00,M,M,M,M,M,M,M,M,M,M,KJFK 010005Z AUTO 22008KT 10SM BKN065 OVC075 06/04 A2964 RMK T00600040 MADISHF
JFK,2020-01-01 00:10,-73.7622,40.6386,M,M,M,210.00,8.00,M,29.65,M,10.00,M,BKN,OVC,M,M,6500.00,7500.00,M,M,M,M,M,M,M,M,M,M,KJFK 010010Z AUTO 21008KT 10SM BKN065 OVC075 06/04 A2964 RMK T00600040 MADISHF
JFK,2020-01-01 00:15,-73.7622,40.6386,M,M,M,210.00,7.00,M,29.64,M,10.00,M,OVC,M,M,M,7000.00,M,M,M,M,M,M,M,M,M,M,M,KJFK 010015Z AUTO 21007KT 10SM OVC070 06/04 A2963 RMK T00600040 MADISHF
JFK,2020-01-01 00:20,-73.7622,40.6386,M,M,M,210.00,8.00,M,29.64,M,10.00,M,OVC,M,M,M,6500.00,M,M,M,M,M,M,M,M,M,M,M,KJFK 010020Z AUTO 21008KT 10SM OVC065 06/04 A2963 RMK T00600040 MADISHF
JFK,2020-01-01 00:25,-73.7622,40.6386,M,M,M,210.00,7.00,M,29.64,M,10.00,M,OVC,M,M,M,6500.00,M,M,M,M,M,M,M,M,M,M,M,KJFK 010025Z AUTO 21007KT 10SM OVC065 06/04 A2963 RMK T00600040 MADISHF
JFK,2020-01-01 00:30,-73.7622,40.6386,M,M,M,210.00,8.00,M,29.64,M,10.00,M,OVC,M,M,M,6500.00,M,M,M,M,M,M,M,M,M,M,M,KJFK 010030Z AUTO 21008KT 10SM OVC065 06/04 A2963 RMK T00600040 MADISHF
JFK,2020-01-01 00:35,-73.7622,40.6386,M,M,M,210.00,8.00,M,29.64,M,10.00,M,OVC,M,M,M,6500.00,M,M,M,M,M,M,M,M,M,M,M,KJFK 010035Z AUTO 21008KT 10SM OVC065 06/04 A2963 RMK T00600040 MADISHF
JFK,2020-01-01 00:40,-73.7622,40.6386,M,M,M,210.00,9.00,M,29.64,M,10.00,M,OVC,M,M,M,6500.00,M,M,M,M,M,M,M,M,M,M,M,KJFK 010040Z AUTO 21009KT 10SM OVC065 06/04 A2963 RMK T00600040 MADISHF
JFK,2020-01-01 00:45,-73.7622,40.6386,M,M,M,210.00,9.00,M,29.64,M,10.00,M,OVC,M,M,M,6000.00,M,M,M,M,M,M,M,M,M,M,M,KJFK 010045Z AUTO 21009KT 10SM OVC060 06/04 A2963 RMK T00600040 MADISHF
JFK,2020-01-01 00:50,-73.7622,40.6386,M,M,M,210.00,9.00,M,29.64,M,10.00,M,OVC,M,M,M,6000.00,M,M,M,M,M,M,M,M,M,M,M,KJFK 010050Z AUTO 21009KT 10SM OVC060 06/04 A2963 RMK T00600040 MADISHF
JFK,2020-01-01 00:51,-73.7622,40.6386,43.00,39.00,85.66,210.00,9.00,0.00,29.64,1003.70,10.00,M,OVC,M,M,M,6000.00,M,M,M,M,M,M,M,M,M,M,37.19,KJFK 010051Z 21009KT 10SM OVC060 06/04 A2964 RMK AO2 CIG 050 W SLP037 T00610039 $
JFK,2020-01-01 00:55,-73.7622,40.6386,M,M,M,220.00,10.00,M,29.64,M,10.00,M,BKN,OVC,M,M,5500.00,7000.00,M,M,M,M,M,M,M,M,M,M,KJFK 010055Z AUTO 22010KT 10SM BKN055 OVC070 06/04 A2963 RMK T00600040 MADISHF
JFK,2020-01-01 01:00,-73.7622,40.6386,M,M,M,210.00,11.00,M,29.64,M,10.00,M,BKN,OVC,M,M,5000.00,6500.00,M,M,M,M,M,M,M,M,M,M,KJFK 010100Z AUTO 21011KT 10SM BKN050 OVC065 06/04 A2963 RMK T00600040 MADISHF
JFK,2020-01-01 01:05,-73.7622,40.6386,M,M,M,220.00,11.00,M,29.64,M,10.00,M,BKN,OVC,M,M,5000.00,6500.00,M,M,M,M,M,M,M,M,M,M,KJFK 010105Z AUTO 22011KT 10SM BKN050 OVC065 06/04 A2963 RMK T00600040 MADISHF
JFK,2020-01-01 01:10,-73.7622,40.6386,M,M,M,220.00,13.00,M,29.64,M,10.00,M,OVC,M,M,M,5000.00,M,M,M,M,M,M,M,M,M,M,M,KJFK 010110Z AUTO 22013KT 10SM OVC050 07/04 A2963 RMK T00700040 MADISHF
JFK,2020-01-01 01:15,-73.7622,40.6386,M,M,M,220.00,11.00,M,29.64,M,10.00,M,BKN,OVC,M,M,5000.00,7000.00,M,M,M,M,M,M,M,M,M,M,KJFK 010115Z AUTO 22011KT 10SM BKN050 OVC070 06/04 A2963 RMK T00600040 MADISHF
JFK,2020-01-01 01:20,-73.7622,40.6386,M,M,M,220.00,11.00,M,29.64,M,10.00,M,BKN,OVC,M,M,5000.00,7000.00,M,M,M,M,M,M,M,M,M,M,KJFK 010120Z AUTO 22011KT 10SM BKN050 OVC070 06/04 A2963 RMK T00600040 MADISHF
JFK,2020-01-01 01:25,-73.7622,40.6386,M,M,M,220.00,14.00,M,29.64,M,10.00,M,BKN,OVC,M,M,5000.00,7000.00,M,M,M,M,M,M,M,M,M,M,KJFK 010125Z AUTO 22014KT 10SM BKN050 OVC070 07/04 A2963 RMK T00700040 MADISHF
JFK,2020-01-01 01:30,-73.7622,40.6386,M,M,M,220.00,11.00,M,29.64,M,10.00,M,BKN,OVC,M,M,5000.00,6000.00,M,M,M,M,M,M,M,M,M,M,KJFK 010130Z AUTO 22011KT 10SM BKN050 OVC060 06/04 A2963 RMK T00600040 MADISHF
JFK,2020-01-01 01:35,-73.7622,40.6386,M,M,M,220.00,18.00,M,29.65,M,10.00,M,OVC,M,M,M,5500.00,M,M,M,M,M,M,M,M,M,M,M,KJFK 010135Z AUTO 22018KT 10SM OVC055 06/04 A2964 RMK T00600040 MADISHF
JFK,2020-01-01 01:40,-73.7622,40.6386,M,M,M,230.00,13.00,M,29.65,M,10.00,M,BKN,OVC,M,M,5000.00,6000.00,M,M,M,M,M,M,M,M,M,M,KJFK 010140Z AUTO 23013KT 10SM BKN050 OVC060 06/04 A2964 RMK T00600040 MADISHF
JFK,2020-01-01 01:45,-73.7622,40.6386,M,M,M,230.00,16.00,M,29.65,M,10.00,M,BKN,OVC,M,M,4700.00,5500.00,M,M,M,M,M,M,M,M,M,M,KJFK 010145Z AUTO 23016KT 10SM BKN047 OVC055 07/04 A2964 RMK T00700040 MADISHF
JFK,2020-01-01 01:50,-73.7622,40.6386,M,M,M,M,17.00,M,29.66,M,10.00,M,FEW,BKN,OVC,M,2300.00,4700.00,5500.00,M,M,M,M,M,M,M,M,M,KJFK 010150Z AUTO ///17KT 10SM FEW023 BKN047 OVC055 07/04 A2965 RMK T00700040 MADISHF
JFK,2020-01-01 01:51,-73.7622,40.6386,44.10,39.90,85.06,250.00,15.00,0.00,29.66,1004.20,10.00,M,FEW,BKN,OVC,M,2300.00,4700.00,5500.00,M,M,M,M,M,M,M,M,36.47,KJFK 010151Z 25015KT 10SM FEW023 BKN047 OVC055 07/04 A2966 RMK AO2 SLP042 T00670044 $
JFK,2020-01-01 01:55,-73.7622,40.6386,M,M,M,M,20.00,M,29.66,M,10.00,M,FEW,BKN,OVC,M,2900.00,4100.00,5500.00,M,-RA,M,M,M,M,M,M,M,KJFK 010155Z AUTO ///20KT 10SM -RA FEW029 BKN041 OVC055 07/04 A2965 RMK T00700040 CIG 032 W  MADISHF
JFK,2020-01-01 02:00,-73.7622,40.6386,M,M,M,260.00,16.00,M,29.66,M,10.00,M,FEW,BKN,OVC,M,2800.00,4100.00,5000.00,M,-RA,M,M,M,M,M,M,M,KJFK 010200Z AUTO 26016KT 10SM -RA FEW028 BKN041 OVC050 07/04 A2965 RMK T00700040 MADISHF
JFK,2020-01-01 02:05,-73.7622,40.6386,M,M,M,M,18.00,M,29.66,M,10.00,M,FEW,BKN,OVC,M,2600.00,4100.00,5000.00,M,-RA,M,M,M,M,M,M,M,KJFK 010205Z AUTO ///18KT 10SM -RA FEW026 BKN041 OVC050 06/04 A2965 RMK T00600040 MADISHF
JFK,2020-01-01 02:10,-73.7622,40.6386,M,M,M,280.00,16.00,M,29.66,M,10.00,M,FEW,SCT,OVC,M,2600.00,3399.00,4100.00,M,-RA,M,M,M,M,M,M,M,KJFK 010210Z AUTO 28016KT 10SM -RA FEW026 SCT033 OVC041 07/03 A2965 RMK T00700030 MADISHF
JFK,2020-01-01 02:15,-73.7622,40.6386,M,M,M,M,17.00,M,29.66,M,10.00,M,FEW,SCT,OVC,M,2600.00,3399.00,4100.00,M,-RA,M,M,M,M,M,M,M,KJFK 010215Z AUTO ///17KT 10SM -RA FEW026 SCT033 OVC041 06/03 A2965 RMK T00600030 MADISHF
JFK,2020-01-01 02:20,-73.7622,40.6386,M,M,M,280.00,15.00,M,29.66,M,10.00,M,FEW,BKN,OVC,M,2600.00,4100.00,5000.00,M,M,M,M,M,M,M,M,M,KJFK 010220Z AUTO 28015KT 10SM FEW026 BKN041 OVC050 06/02 A2965 RMK T00600020 MADISHF
JFK,2020-01-01 02:25,-73.7622,40.6386,M,M,M,280.00,15.00,M,29.65,M,10.00,M,BKN,OVC,M,M,4300.00,5000.00,M,M,M,M,M,M,M,M,M,M,KJFK 010225Z AUTO 28015KT 10SM BKN043 OVC050 06/02 A2964 RMK T00600020 MADISHF
JFK,2020-01-01 02:30,-73.7622,40.6386,M,M,M,280.00,14.00,M,29.65,M,10.00,M,OVC,M,M,M,4500.00,M,M,M,M,M,M,M,M,M,M,M,KJFK 010230Z AUTO 28014KT 10SM OVC045 06/02 A2964 RMK T00600020 MADISHF
JFK,2020-01-01 02:35,-73.7622,40.6386,M,M,M,280.00,11.00,M,29.65,M,10.00,M,OVC,M,M,M,4500.00,M,M,M,M,M,M,M,M,M,M,M,KJFK 010235Z AUTO 28011KT 10SM OVC045 06/02 A2964 RMK T00600020 MADISHF
JFK,2020-01-01 02:40,-73.7622,40.6386,M,M,M,270.00,11.00,M,29.65,M,10.00,M,OVC,M,M,M,4700.00,M,M,M,M,M,M,M,M,M,M,M,KJFK 010240Z AUTO 27011KT 10SM OVC047 06/02 A2964 RMK T00600020 MADISHF
JFK,2020-01-01 02:45,-73.7622,40.6386,M,M,M,270.00,14.00,M,29.65,M,10.00,M,BKN,OVC,M,M,4700.00,6000.00,M,M,M,M,M,M,M,M,M,M,KJFK 010245Z AUTO 27014KT 10SM BKN047 OVC060 06/02 A2964 RMK T00600020 MADISHF
JFK,2020-01-01 02:50,-73.7622,40.6386,M,M,M,270.00,13.00,M,29.65,M,10.00,M,BKN,OVC,M,M,4900.00,6000.00,M,M,M,M,M,M,M,M,M,M,KJFK 010250Z AUTO 27013KT 10SM BKN049 OVC060 06/02 A2964 RMK T00600020 MADISHF
JFK,2020-01-01 02:51,-73.7622,40.6386,43.00,35.10,73.45,270.00,13.00,0.0001,29.65,1003.90,10.00,M,BKN,OVC,M,M,4900.00,6000.00,M,M,M,M,M,M,29.00,250.00,2020-01-01 01:55,35.66,KJFK 010251Z 27013KT 10SM BKN049 OVC060 06/02 A2965 RMK AO2 PK WND 25029/0155 RAB0152E17 SLP039 P0000 60000 T00610017 56001 $
JFK,2020-01-01 02:55,-73.7622,40.6386,M,M,M,280.00,14.00,M,29.65,M,10.00,M,OVC,M,M,M,5000.00,M,M,M,M,M,M,M,M,M,M,M,KJFK 010255Z AUTO 28014KT 10SM OVC050 06/02 A2964 RMK T00600020 MADISHF
JFK,2020-01-01 03:00,-73.7622,40.6386,M,M,M,270.00,13.00,M,29.65,M,10.00,M,BKN,OVC,M,M,5000.00,6000.00,M,M,M,M,M,M,M,M,M,M,KJFK 010300Z AUTO 27013KT 10SM BKN050 OVC060 06/02 A2964 RMK T00600020 MADISHF
JFK,2020-01-01 03:05,-73.7622,40.6386,M,M,M,270.00,14.00,M,29.65,M,10.00,M,BKN,OVC,M,M,5000.00,6000.00,M,M,M,M,M,M,M,M,M,M,KJFK 010305Z AUTO 27014KT 10SM BKN050 OVC060 06/02 A2964 RMK T00600020 MADISHF
JFK,2020-01-01 03:10,-73.7622,40.6386,M,M,M,270.00,14.00,M,29.65,M,10.00,M,BKN,OVC,M,M,5000.00,6000.00,M,M,M,M,M,M,M,M,M,M,KJFK 010310Z AUTO 27014KT 10SM BKN050 OVC060 06/01 A2964 RMK T00600010 MADISHF
JFK,2020-01-01 03:15,-73.7622,40.6386,M,M,M,280.00,11.00,M,29.65,M,10.00,M,OVC,M,M,M,5000.00,M,M,M,M,M,M,M,M,M,M,M,KJFK 010315Z AUTO 28011KT 10SM OVC050 06/01 A2964 RMK T00600010 MADISHF
JFK,2020-01-01 03:20,-73.7622,40.6386,M,M,M,280.00,11.00,M,29.65,M,10.00,M,OVC,M,M,M,5000.00,M,M,M,M,M,M,M,M,M,M,M,KJFK 010320Z AUTO 28011KT 10SM OVC050 06/01 A2964 RMK T00600010 MADISHF
JFK,2020-01-01 03:25,-73.7622,40.6386,M,M,M,270.00,14.00,M,29.65,M,10.00,M,OVC,M,M,M,5500.00,M,M,M,M,M,M,M,M,M,M,M,KJFK 010325Z AUTO 27014KT 10SM OVC055 06/01 A2964 RMK T00600010 MADISHF
JFK,2020-01-01 03:30,-73.7622,40.6386,M,M,M,280.00,13.00,M,29.65,M,10.00,M,OVC,M,M,M,5500.00,M,M,M,M,M,M,M,M,M,M,M,KJFK 010330Z AUTO 28013KT 10SM OVC055 06/01 A2964 RMK T00600010 MADISHF
JFK,2020-01-01 03:35,-73.7622,40.6386,M,M,M,280.00,13.00,M,29.65,M,10.00,M,OVC,M,M,M,6000.00,M,M,M,M,M,M,M,M,M,M,M,KJFK 010335Z AUTO 28013KT 10SM OVC060 06/01 A2964 RMK T00600010 MADISHF
JFK,2020-01-01 03:40,-73.7622,40.6386,M,M,M,280.00,11.00,M,29.65,M,10.00,M,OVC,M,M,M,6000.00,M,M,M,M,M,M,M,M,M,M,M,KJFK 010340Z AUTO 28011KT 10SM OVC060 06/01 A2964 RMK T00600010 MADISHF
JFK,2020-01-01 03:45,-73.7622,40.6386,M,M,M,280.00,13.00,M,29.65,M,10.00,M,OVC,M,M,M,6500.00,M,M,M,M,M,M,M,M,M,M,M,KJFK 010345Z AUTO 28013KT 10SM OVC065 06/01 A2964 RMK T00600010 MADISHF
JFK,2020-01-01 03:50,-73.7622,40.6386,M,M,M,270.00,14.00,M,29.65,M,10.00,M,OVC,M,M,M,6500.00,M,M,M,M,M,M,M,M,M,M,M,KJFK 010350Z AUTO 27014KT 10SM OVC065 06/01 A2964 RMK T00600010 MADISHF
JFK,2020-01-01 03:51,-73.7622,40.6386,43.00,34.00,70.30,270.00,15.00,0.00,29.65,1004.00,10.00,18.00,OVC,M,M,M,6500.00,M,M,M,M,M,M,M,M,M,M,35.04,KJFK 010351Z 27015G18KT 10SM OVC065 06/01 A2965 RMK AO2 SLP040 T00610011 $
JFK,2020-01-01 03:55,-73.7622,40.6386,M,M,M,270.00,11.00,M,29.65,M,10.00,M,OVC,M,M,M,6500.00,M,M,M,M,M,M,M,M,M,M,M,KJFK 010355Z AUTO 27011KT 10SM OVC065 06/01 A2964 RMK T00600010 MADISHF
JFK,2020-01-01 04:00,-73.7622,40.6386,M,M,M,270.00,14.00,M,29.65,M,10.00,M,OVC,M,M,M,6500.00,M,M,M,M,M,M,M,M,M,M,M,KJFK 010400Z AUTO 27014KT 10SM OVC065 06/01 A2964 RMK T00600010 MADISHF
JFK,2020-01-01 04:05,-73.7622,40.6386,M,M,M,260.00,13.00,M,29.65,M,10.00,M,OVC,M,M,M,6500.00,M,M,M,M,M,M,M,M,M,M,M,KJFK 010405Z AUTO 26013KT 10SM OVC065 06/01 A2964 RMK T00600010 MADISHF
JFK,2020-01-01 04:10,-73.7622,40.6386,M,M,M,270.00,15.00,M,29.66,M,10.00,M,OVC,M,M,M,6500.00,M,M,M,M,M,M,M,M,M,M,M,KJFK 010410Z AUTO 27015KT 10SM OVC065 06/01 A2965 RMK T00600010 MADISHF
JFK,2020-01-01 04:15,-73.7622,40.6386,M,M,M,270.00,15.00,M,29.66,M,10.00,M,OVC,M,M,M,6000.00,M,M,M,M,M,M,M,M,M,M,M,KJFK 010415Z AUTO 27015KT 10SM OVC060 06/01 A2965 RMK T00600010 MADISHF
JFK,2020-01-01 04:20,-73.7622,40.6386,M,M,M,270.00,16.00,M,29.66,M,10.00,M,OVC,M,M,M,6000.00,M,M,M,M,M,M,M,M,M,M,M,KJFK 010420Z AUTO 27016KT 10SM OVC060 06/01 A2965 RMK T00600010 MADISHF
JFK,2020-01-01 04:25,-73.7622,40.6386,M,M,M,270.00,13.00,M,29.66,M,10.00,M,FEW,OVC,M,M,4800.00,6000.00,M,M,M,M,M,M,M,M,M,M,KJFK 010425Z AUTO 27013KT 10SM FEW048 OVC060 06/01 A2965 RMK T00600010 MADISHF
JFK,2020-01-01 04:30,-73.7622,40.6386,M,M,M,270.00,11.00,M,29.66,M,10.00,M,FEW,SCT,OVC,M,3900.00,4800.00,6000.00,M,M,M,M,M,M,M,M,M,KJFK 010430Z AUTO 27011KT 10SM FEW039 SCT048 OVC060 06/01 A2965 RMK T00600010 MADISHF
JFK,2020-01-01 04:35,-73.7622,40.6386,M,M,M,270.00,13.00,M,29.66,M,10.00,M,FEW,SCT,OVC,M,3700.00,4900.00,6000.00,M,M,M,M,M,M,M,M,M,KJFK 010435Z AUTO 27013KT 10SM FEW037 SCT049 OVC060 06/01 A2965 RMK T00600010 MADISHF
JFK,2020-01-01 04:40,-73.7622,40.6386,M,M,M,280.00,11.00,M,29.66,M,10.00,M,SCT,SCT,OVC,M,3700.00,4900.00,6000.00,M,M,M,M,M,M,M,M,M,KJFK 010440Z AUTO 28011KT 10SM SCT037 SCT049 OVC060 06/01 A2965 RMK T00600010 MADISHF
JFK,2020-01-01 04:45,-73.7622,40.6386,M,M,M,280.00,11.00,M,29.66,M,10.00,M,SCT,BKN,OVC,M,3700.00,4900.00,5500.00,M,M,M,M,M,M,M,M,M,KJFK 010445Z AUTO 28011KT 10SM SCT037 BKN049 OVC055 06/01 A2965 RMK T00600010 MADISHF
JFK,2020-01-01 04:50,-73.7622,40.6386,M,M,M,270.00,11.00,M,29.66,M,10.00,M,SCT,BKN,OVC,M,3700.00,4900.00,5500.00,M,M,M,M,M,M,M,M,M,KJFK 010450Z AUTO 27011KT 10SM SCT037 BKN049 OVC055 06/00 A2965 RMK T00600000 MADISHF
JFK,2020-01-01 04:51,-73.7622,40.6386,42.10,32.00,67.17,270.00,13.00,0.00,29.66,1004.40,10.00,M,SCT,BKN,OVC,M,3700.00,4900.00,5500.00,M,M,M,M,M,M,M,M,34.51,KJFK 010451Z 27013KT 10SM SCT037 BKN049 OVC055 06/00 A2966 RMK AO2 SLP044 T00560000 400670033 $
JFK,2020-01-01 04:55,-73.7622,40.6386,M,M,M,290.00,18.00,M,29.66,M,10.00,M,SCT,OVC,M,M,3700.00,5500.00,M,M,M,M,M,M,M,M,M,M,KJFK 010455Z AUTO 29018KT 10SM SCT037 OVC055 06/M01 A2965 RMK T00601010 MADISHF
JFK,2020-01-01 05:00,-73.7622,40.6386,M,M,M,280.00,13.00,M,29.66,M,10.00,M,FEW,OVC,M,M,3700.00,6000.00,M,M,M,M,M,M,M,M,M,M,KJFK 010500Z AUTO 28013KT 10SM FEW037 OVC060 06/M01 A2965 RMK T00601010 MADISHF
JFK,2020-01-01 05:05,-73.7622,40.6386,M,M,M,270.00,13.00,M,29.66,M,10.00,M,FEW,OVC,M,M,3700.00,5500.00,M,M,M,M,M,M,M,M,M,M,KJFK 010505Z AUTO 27013KT 10SM FEW037 OVC055 06/M01 A2965 RMK T00601010 MADISHF
JFK,2020-01-01 05:10,-73.7622,40.6386,M,M,M,270.00,16.00,M,29.66,M,10.00,M,FEW,OVC,M,M,3700.00,6000.00,M,M,M,M,M,M,M,M,M,M,KJFK 010510Z AUTO 27016KT 10SM FEW037 OVC060 06/M01 A2965 RMK T00601010 MADISHF
JFK,2020-01-01 05:15,-73.7622,40.6386,M,M,M,270.00,15.00,M,29.66,M,10.00,M,OVC,M,M,M,6000.00,M,M,M,M,M,M,M,M,M,M,M,KJFK 010515Z AUTO 27015KT 10SM OVC060 06/M02 A2965 RMK T00601020 MADISHF
JFK,2020-01-01 05:20,-73.7622,40.6386,M,M,M,280.00,16.00,M,29.66,M,10.00,M,OVC,M,M,M,6000.00,M,M,M,M,M,M,M,M,M,M,M,KJFK 010520Z AUTO 28016KT 10SM OVC060 05/M02 A2965 RMK T00501020 MADISHF
JFK,2020-01-01 05:25,-73.7622,40.6386,M,M,M,280.00,15.00,M,29.66,M,10.00,M,OVC,M,M,M,6000.00,M,M,M,M,M,M,M,M,M,M,M,KJFK 010525Z AUTO 28015KT 10SM OVC060 05/M02 A2965 RMK T00501020 MADISHF
JFK,2020-01-01 05:30,-73.7622,40.6386,M,M,M,280.00,15.00,M,29.66,M,10.00,20.00,OVC,M,M,M,6000.00,M,M,M,M,M,M,M,M,M,M,M,KJFK 010530Z AUTO 28015G20KT 10SM OVC060 05/M02 A2965 RMK T00501020 MADISHF
JFK,2020-01-01 05:35,-73.7622,40.6386,M,M,M,290.00,15.00,M,29.66,M,10.00,M,OVC,M,M,M,6500.00,M,M,M,M,M,M,M,M,M,M,M,KJFK 010535Z AUTO 29015KT 10SM OVC065 05/M02 A2965 RMK T00501020 MADISHF
JFK,2020-01-01 05:40,-73.7622,40.6386,M,M,M,280.00,13.00,M,29.66,M,10.00,M,OVC,M,M,M,6500.00,M,M,M,M,M,M,M,M,M,M,M,KJFK 010540Z AUTO 28013KT 10SM OVC065 05/M02 A2965 RMK T00501020 MADISHF
JFK,2020-01-01 05:45,-73.7622,40.6386,M,M,M,280.00,14.00,M,29.66,M,10.00,20.00,OVC,M,M,M,6500.00,M,M,M,M,M,M,M,M,M,M,M,KJFK 010545Z AUTO 28014G20KT 10SM OVC065 05/M02 A2965 RMK T00501020 MADISHF
JFK,2020-01-01 05:50,-73.7622,40.6386,M,M,M,280.00,17.00,M,29.66,M,10.00,M,OVC,M,M,M,6500.00,M,M,M,M,M,M,M,M,M,M,M,KJFK 010550Z AUTO 28017KT 10SM OVC065 05/M03 A2965 RMK T00501030 MADISHF
JFK,2020-01-01 05:51,-73.7622,40.6386,41.00,27.00,57.15,280.00,16.00,0.00,29.66,1004.30,10.00,24.00,OVC,M,M,M,6500.00,M,M,M,M,M,M,M,M,M,M,32.15,KJFK 010551Z 28016G24KT 10SM OVC065 05/M03 A2966 RMK AO2 SLP043 60000 T00501028 10067 20050 50004 $
JFK,2020-01-01 05:55,-73.7622,40.6386,M,M,M,270.00,13.00,M,29.66,M,10.00,M,OVC,M,M,M,6500.00,M,M,M,M,M,M,M,M,M,M,M,KJFK 010555Z AUTO 27013KT 10SM OVC065 05/M02 A2965 RMK T00501020 MADISHF
JFK,2020-01-01 06:00,-73.7622,40.6386,M,M,M,280.00,16.00,M,29.66,M,10.00,M,BKN,OVC,M,M,6500.00,7999.00,M,M,M,M,M,M,M,M,M,M,KJFK 010600Z AUTO 28016KT 10SM BKN065 OVC079 05/M02 A2965 RMK T00501020 MADISHF
JFK,2020-01-01 06:05,-73.7622,40.6386,M,M,M,270.00,14.00,M,29.66,M,10.00,M,BKN,OVC,M,M,6500.00,7500.00,M,M,M,M,M,M,M,M,M,M,KJFK 010605Z AUTO 27014KT 10SM BKN065 OVC075 04/M03 A2965 RMK T00401030 MADISHF
JFK,2020-01-01 06:10,-73.7622,40.6386,M,M,M,270.00,15.00,M,29.66,M,10.00,M,OVC,M,M,M,7000.00,M,M,M,M,M,M,M,M,M,M,M,KJFK 010610Z AUTO 27015KT 10SM OVC070 04/M02 A2965 RMK T00401020 MADISHF
JFK,2020-01-01 06:15,-73.7622,40.6386,M,M,M,270.00,14.00,M,29.66,M,10.00,M,SCT,OVC,M,M,6000.00,7500.00,M,M,M,M,M,M,M,M,M,M,KJFK 010615Z AUTO 27014KT 10SM SCT060 OVC075 04/M02 A2965 RMK T00401020 MADISHF
JFK,2020-01-01 06:20,-73.7622,40.6386,M,M,M,280.00,17.00,M,29.67,M,10.00,M,FEW,OVC,M,M,6000.00,7500.00,M,M,M,M,M,M,M,M,M,M,KJFK 010620Z AUTO 28017KT 10SM FEW060 OVC075 04/M02 A2967 RMK T00401020 MADISHF
JFK,2020-01-01 06:25,-73.7622,40.6386,M,M,M,280.00,15.00,M,29.67,M,10.00,M,BKN,OVC,M,M,7500.00,10000.00,M,M,M,M,M,M,M,M,M,M,KJFK 010625Z AUTO 28015KT 10SM BKN075 OVC100 04/M02 A2967 RMK T00401020 MADISHF
JFK,2020-01-01 06:30,-73.7622,40.6386,M,M,M,280.00,11.00,M,29.67,M,10.00,M,BKN,OVC,M,M,7500.00,10000.00,M,M,M,M,M,M,M,M,M,M,KJFK 010630Z AUTO 28011KT 10SM BKN075 OVC100 04/M02 A2967 RMK T00401020 MADISHF
JFK,2020-01-01 06:35,-73.7622,40.6386,M,M,M,270.00,15.00,M,29.67,M,10.00,M,SCT,OVC,M,M,7500.00,10000.00,M,M,M,M,M,M,M,M,M,M,KJFK 010635Z AUTO 27015KT 10SM SCT075 OVC100 04/M02 A2967 RMK T00401020 MADISHF
JFK,2020-01-01 06:40,-73.7622,40.6386,M,M,M,270.00,11.00,M,29.67,M,10.00,M,SCT,OVC,M,M,7500.00,10000.00,M,M,M,M,M,M,M,M,M,M,KJFK 010640Z AUTO 27011KT 10SM SCT075 OVC100 04/M02 A2967 RMK T00401020 MADISHF
JFK,2020-01-01 06:45,-73.7622,40.6386,M,M,M,260.00,15.00,M,29.67,M,10.00,M,FEW,OVC,M,M,7999.00,10000.00,M,M,M,M,M,M,M,M,M,M,KJFK 010645Z AUTO 26015KT 10SM FEW079 OVC100 04/M01 A2967 RMK T00401010 MADISHF
JFK,2020-01-01 06:50,-73.7622,40.6386,M,M,M,270.00,15.00,M,29.67,M,10.00,M,OVC,M,M,M,10000.00,M,M,M,M,M,M,M,M,M,M,M,KJFK 010650Z AUTO 27015KT 10SM OVC100 04/M01 A2967 RMK T00401010 MADISHF
JFK,2020-01-01 06:51,-73.7622,40.6386,39.90,30.00,67.45,270.00,15.00,0.00,29.67,1004.70,10.00,21.00,OVC,M,M,M,10000.00,M,M,M,M,M,M,M,M,M,M,31.02,KJFK 010651Z 27015G21KT 10SM OVC100 04/M01 A2967 RMK AO2 SLP047 T00441011 $
JFK,2020-01-01 06:55,-73.7622,40.6386,M,M,M,270.00,14.00,M,29.67,M,10.00,M,OVC,M,M,M,10000.00,M,M,M,M,M,M,M,M,M,M,M,KJFK 010655Z AUTO 27014KT 10SM OVC100 04/M01 A2967 RMK T00401010 MADISHF
JFK,2020-01-01 07:00,-73.7622,40.6386,M,M,M,270.00,14.00,M,29.67,M,10.00,M,OVC,M,M,M,10000.00,M,M,M,M,M,M,M,M,M,M,M,KJFK 010700Z AUTO 27014KT 10SM OVC100 04/M01 A2967 RMK T00401010 MADISHF
JFK,2020-01-01 07:05,-73.7622,40.6386,M,M,M,290.00,13.00,M,29.67,M,10.00,M,OVC,M,M,M,10000.00,M,M,M,M,M,M,M,M,M,M,M,KJFK 010705Z AUTO 29013KT 10SM OVC100 04/M01 A2967 RMK T00401010 MADISHF
JFK,2020-01-01 07:10,-73.7622,40.6386,M,M,M,280.00,13.00,M,29.67,M,10.00,M,OVC,M,M,M,10000.00,M,M,M,M,M,M,M,M,M,M,M,KJFK 010710Z AUTO 28013KT 10SM OVC100 04/M01 A2967 RMK T00401010 MADISHF
JFK,2020-01-01 07:15,-73.7622,40.6386,M,M,M,280.00,13.00,M,29.67,M,10.00,M,OVC,M,M,M,9500.00,M,M,M,M,M,M,M,M,M,M,M,KJFK 010715Z AUTO 28013KT 10SM OVC095 04/M02 A2967 RMK T00401020 MADISHF
JFK,2020-01-01 07:20,-73.7622,40.6386,M,M,M,280.00,11.00,M,29.67,M,10.00,M,OVC,M,M,M,9500.00,M,M,M,M,M,M,M,M,M,M,M,KJFK 010720Z AUTO 28011KT 10SM OVC095 04/M02 A2967 RMK T00401020 MADISHF
JFK,2020-01-01 07:25,-73.7622,40.6386,M,M,M,280.00,17.00,M,29.68,M,10.00,M,OVC,M,M,M,9500.00,M,M,M,M,M,M,M,M,M,M,M,KJFK 010725Z AUTO 28017KT 10SM OVC095 04/M02 A2968 RMK T00401020 MADISHF
JFK,2020-01-01 07:30,-73.7622,40.6386,M,M,M,280.00,15.00,M,29.68,M,10.00,M,OVC,M,M,M,9500.00,M,M,M,M,M,M,M,M,M,M,M,KJFK 010730Z AUTO 28015KT 10SM OVC095 04/M02 A2968 RMK T00401020 MADISHF
JFK,2020-01-01 07:35,-73.7622,40.6386,M,M,M,280.00,16.00,M,29.68,M,10.00,M,OVC,M,M,M,9500.00,M,M,M,M,M,M,M,M,M,M,M,KJFK 010735Z AUTO 28016KT 10SM OVC095 04/M02 A2968 RMK T00401020 MADISHF
JFK,2020-01-01 07:40,-73.7622,40.6386,M,M,M,280.00,18.00,M,29.68,M,10.00,M,OVC,M,M,M,9500.00,M,M,M,M,M,M,M,M,M,M,M,KJFK 010740Z AUTO 28018KT 10SM OVC095 04/M02 A2968 RMK T00401020 MADISHF
JFK,2020-01-01 07:45,-73.7622,40.6386,M,M,M,270.00,14.00,M,29.68,M,10.00,M,FEW,OVC,M,M,6500.00,9500.00,M,M,M,M,M,M,M,M,M,M,KJFK 010745Z AUTO 27014KT 10SM FEW065 OVC095 04/M02 A2968 RMK T00401020 CIG 070 W  MADISHF
JFK,2020-01-01 07:50,-73.7622,40.6386,M,M,M,280.00,17.00,M,29.68,M,10.00,M,SCT,OVC,M,M,7000.00,9500.00,M,M,M,M,M,M,M,M,M,M,KJFK 010750Z AUTO 28017KT 10SM SCT070 OVC095 04/M02 A2968 RMK T00401020 CIG 070 W  MADISHF
JFK,2020-01-01 07:51,-73.7622,40.6386,39.00,28.00,64.37,280.00,15.00,0.00,29.68,1005.10,10.00,M,SCT,OVC,M,M,7000.00,9500.00,M,M,M,M,M,M,M,M,M,29.85,KJFK 010751Z 28015KT 10SM SCT070 OVC095 04/M02 A2968 RMK AO2 SLP051 T00391022 $
JFK,2020-01-01 07:55,-73.7622,40.6386,M,M,M,270.00,15.00,M,29.68,M,10.00,M,FEW,OVC,M,M,7000.00,9500.00,M,M,M,M,M,M,M,M,M,M,KJFK 010755Z AUTO 27015KT 10SM FEW070 OVC095 04/M02 A2968 RMK T00401020 MADISHF
JFK,2020-01-01 08:00,-73.7622,40.6386,M,M,M,270.00,16.00,M,29.68,M,10.00,M,FEW,OVC,M,M,6500.00,9500.00,M,M,M,M,M,M,M,M,M,M,KJFK 010800Z AUTO 27016KT 10SM FEW065 OVC095 04/M02 A2968 RMK T00401020 MADISHF
JFK,2020-01-01 08:05,-73.7622,40.6386,M,M,M,M,17.00,M,29.68,M,10.00,M,FEW,OVC,M,M,7000.00,9500.00,M,M,M,M,M,M,M,M,M,M,KJFK 010805Z AUTO ///17KT 10SM FEW070 OVC095 04/M02 A2968 RMK T00401020 MADISHF
JFK,2020-01-01 08:10,-73.7622,40.6386,M,M,M,260.00,16.00,M,29.69,M,10.00,M,FEW,OVC,M,M,7000.00,9500.00,M,M,M,M,M,M,M,M,M,M,KJFK 010810Z AUTO 26016KT 10SM FEW070 OVC095 04/M02 A2969 RMK T00401020 MADISHF
JFK,2020-01-01 08:15,-73.7622,40.6386,M,M,M,270.00,17.00,M,29.69,M,10.00,M,FEW,OVC,M,M,7000.00,9500.00,M,M,M,M,M,M,M,M,M,M,KJFK 010815Z AUTO 27017KT 10SM FEW070 OVC095 04/M02 A2969 RMK T00401020 MADISHF
JFK,2020-01-01 08:20,-73.7622,40.6386,M,M,M,270.00,20.00,M,29.69,M,10.00,M,OVC,M,M,M,9000.00,M,M,M,M,M,M,M,M,M,M,M,KJFK 010820Z AUTO 27020KT 10SM OVC090 04/M02 A2969 RMK T00401020 MADISHF
JFK,2020-01-01 08:25,-73.7622,40.6386,M,M,M,270.00,16.00,M,29.69,M,10.00,M,OVC,M,M,M,9000.00,M,M,M,M,M,M,M,M,M,M,M,KJFK 010825Z AUTO 27016KT 10SM OVC090 04/M02 A2969 RMK T00401020 MADISHF
JFK,2020-01-01 08:30,-73.7622,40.6386,M,M,M,270.00,16.00,M,29.69,M,10.00,M,BKN,M,M,M,9500.00,M,M,M,M,M,M,M,M,M,M,M,KJFK 010830Z AUTO 27016KT 10SM BKN095 04/M02 A2969 RMK T00401020 MADISHF
JFK,2020-01-01 08:35,-73.7622,40.6386,M,M,M,270.00,16.00,M,29.69,M,10.00,M,BKN,M,M,M,9500.00,M,M,M,M,M,M,M,M,M,M,M,KJFK 010835Z AUTO 27016KT 10SM BKN095 04/M02 A2969 RMK T00401020 MADISHF
JFK,2020-01-01 08:40,-73.7622,40.6386,M,M,M,270.00,16.00,M,29.69,M,10.00,M,SCT,M,M,M,9500.00,M,M,M,M,M,M,M,M,M,M,M,KJFK 010840Z AUTO 27016KT 10SM SCT095 04/M02 A2969 RMK T00401020 MADISHF
JFK,2020-01-01 08:45,-73.7622,40.6386,M,M,M,270.00,19.00,M,29.69,M,10.00,M,SCT,M,M,M,9500.00,M,M,M,M,M,M,M,M,M,M,M,KJFK 010845Z AUTO 27019KT 10SM SCT095 04/M02 A2969 RMK T00401020 MADISHF
JFK,2020-01-01 08:50,-73.7622,40.6386,M,M,M,280.00,14.00,M,29.69,M,10.00,M,FEW,M,M,M,9000.00,M,M,M,M,M,M,M,M,M,M,M,KJFK 010850Z AUTO 28014KT 10SM FEW090 04/M02 A2969 RMK T00401020 MADISHF
JFK,2020-01-01 08:51,-73.7622,40.6386,37.90,28.00,67.20,280.00,13.00,0.00,29.69,1005.40,10.00,25.00,FEW,BKN,M,M,9500.00,21000.00,M,M,M,M,M,M,27.00,270.00,2020-01-01 08:18,29.13,KJFK 010851Z 28013G25KT 10SM FEW095 BKN210 03/M02 A2969 RMK AO2 PK WND 27027/0818 SLP054 T00331022 51012 $
JFK,2020-01-01 08:55,-73.7622,40.6386,M,M,M,280.00,17.00,M,29.69,M,10.00,M,FEW,SCT,M,M,7000.00,9000.00,M,M,M,M,M,M,M,M,M,M,KJFK 010855Z AUTO 28017KT 10SM FEW070 SCT090 04/M02 A2969 RMK T00401020 MADISHF
JFK,2020-01-01 09:00,-73.7622,40.6386,M,M,M,280.00,17.00,M,29.69,M,10.00,M,SCT,M,M,M,7000.00,M,M,M,M,M,M,M,M,M,M,M,KJFK 010900Z AUTO 28017KT 10SM SCT070 04/M03 A2969 RMK T00401030 MADISHF
JFK,2020-01-01 09:05,-73.7622,40.6386,M,M,M,280.00,16.00,M,29.70,M,10.00,M,BKN,M,M,M,7000.00,M,M,M,M,M,M,M,M,M,M,M,KJFK 010905Z AUTO 28016KT 10SM BKN070 04/M03 A2970 RMK T00401030 MADISHF
JFK,2020-01-01 09:10,-73.7622,40.6386,M,M,M,290.00,21.00,M,29.70,M,10.00,M,BKN,M,M,M,7000.00,M,M,M,M,M,M,M,M,M,M,M,KJFK 010910Z AUTO 29021KT 10SM BKN070 04/M03 A2970 RMK T00401030 MADISHF
JFK,2020-01-01 09:15,-73.7622,40.6386,M,M,M,280.00,19.00,M,29.70,M,10.00,M,BKN,M,M,M,7000.00,M,M,M,M,M,M,M,M,M,M,M,KJFK 010915Z AUTO 28019KT 10SM BKN070 04/M03 A2970 RMK T00401030 MADISHF
JFK,2020-01-01 09:20,-73.7622,40.6386,M,M,M,280.00,18.00,M,29.70,M,10.00,M,OVC,M,M,M,6500.00,M,M,M,M,M,M,M,M,M,M,M,KJFK 010920Z AUTO 28018KT 10SM OVC065 04/M03 A2970 RMK T00401030 MADISHF
JFK,2020-01-01 09:25,-73.7622,40.6386,M,M,M,280.00,19.00,M,29.70,M,10.00,M,OVC,M,M,M,6500.00,M,M,M,M,M,M,M,M,M,M,M,KJFK 010925Z AUTO 28019KT 10SM OVC065 04/M03 A2970 RMK T00401030 MADISHF
JFK,2020-01-01 09:30,-73.7622,40.6386,M,M,M,280.00,16.00,M,29.70,M,10.00,M,OVC,M,M,M,6500.00,M,M,M,M,M,M,M,M,M,M,M,KJFK 010930Z AUTO 28016KT 10SM OVC065 04/M03 A2970 RMK T00401030 MADISHF
JFK,2020-01-01 09:35,-73.7622,40.6386,M,M,M,280.00,14.00,M,29.70,M,10.00,M,OVC,M,M,M,6500.00,M,M,M,M,M,M,M,M,M,M,M,KJFK 010935Z AUTO 28014KT 10SM OVC065 04/M03 A2970 RMK T00401030 MADISHF
JFK,2020-01-01 09:40,-73.7622,40.6386,M,M,M,270.00,15.00,M,29.70,M,10.00,M,FEW,OVC,M,M,3900.00,6500.00,M,M,M,M,M,M,M,M,M,M,KJFK 010940Z AUTO 27015KT 10SM FEW039 OVC065 04/M03 A2970 RMK T00401030 MADISHF
JFK,2020-01-01 09:45,-73.7622,40.6386,M,M,M,280.00,13.00,M,29.70,M,10.00,20.00,FEW,OVC,M,M,3900.00,6500.00,M,M,M,M,M,M,M,M,M,M,KJFK 010945Z AUTO 28013G20KT 10SM FEW039 OVC065 04/M03 A2970 RMK T00401030 MADISHF
JFK,2020-01-01 09:50,-73.7622,40.6386,M,M,M,M,20.00,M,29.70,M,10.00,M,FEW,BKN,M,M,3900.00,6500.00,M,M,M,M,M,M,M,M,M,M,KJFK 010950Z AUTO ///20KT 10SM FEW039 BKN065 04/M03 A2970 RMK T00401030 MADISHF
JFK,2020-01-01 09:51,-73.7622,40.6386,39.00,26.10,59.52,270.00,18.00,0.00,29.70,1005.70,10.00,24.00,FEW,BKN,BKN,M,3900.00,6500.00,21000.00,M,M,M,M,M,28.00,290.00,2020-01-01 09:10,28.96,KJFK 010951Z 27018G24KT 10SM FEW039 BKN065 BKN210 04/M03 A2970 RMK AO2 PK WND 29028/0910 SLP057 T00391033 $
JFK,2020-01-01 09:55,-73.7622,40.6386,M,M,M,280.00,17.00,M,29.70,M,10.00,M,FEW,OVC,M,M,3900.00,6500.00,M,M,M,M,M,M,M,M,M,M,KJFK 010955Z AUTO 28017KT 10SM FEW039 OVC065 04/M03 A2970 RMK T00401030 MADISHF
JFK,2020-01-01 10:00,-73.7622,40.6386,M,M,M,280.00,19.00,M,29.70,M,10.00,M,FEW,OVC,M,M,3900.00,6500.00,M,M,M,M,M,M,M,M,M,M,KJFK 011000Z AUTO 28019KT 10SM FEW039 OVC065 04/M03 A2970 RMK T00401030 MADISHF
JFK,2020-01-01 10:05,-73.7622,40.6386,M,M,M,270.00,16.00,M,29.70,M,10.00,M,OVC,M,M,M,6500.00,M,M,M,M,M,M,M,M,M,M,M,KJFK 011005Z AUTO 27016KT 10SM OVC065 04/M04 A2970 RMK T00401040 MADISHF
JFK,2020-01-01 10:10,-73.7622,40.6386,M,M,M,280.00,19.00,M,29.70,M,10.00,M,BKN,OVC,M,M,5500.00,7000.00,M,M,M,M,M,M,M,M,M,M,KJFK 011010Z AUTO 28019KT 10SM BKN055 OVC070 04/M04 A2970 RMK T00401040 MADISHF
JFK,2020-01-01 10:15,-73.7622,40.6386,M,M,M,280.00,17.00,M,29.70,M,10.00,M,BKN,OVC,M,M,5500.00,7000.00,M,M,M,M,M,M,M,M,M,M,KJFK 011015Z AUTO 28017KT 10SM BKN055 OVC070 04/M04 A2970 RMK T00401040 MADISHF
JFK,2020-01-01 10:20,-73.7622,40.6386,M,M,M,280.00,19.00,M,29.71,M,10.00,M,BKN,OVC,M,M,5500.00,7000.00,M,M,M,M,M,M,M,M,M,M,KJFK 011020Z AUTO 28019KT 10SM BKN055 OVC070 03/M04 A2970 RMK T00301040 MADISHF
JFK,2020-01-01 10:25,-73.7622,40.6386,M,M,M,280.00,20.00,M,29.71,M,10.00,M,OVC,M,M,M,5500.00,M,M,M,M,M,M,M,M,M,M,M,KJFK 011025Z AUTO 28020KT 10SM OVC055 03/M04 A2970 RMK T00301040 MADISHF
JFK,2020-01-01 10:30,-73.7622,40.6386,M,M,M,280.00,22.00,M,29.71,M,10.00,M,OVC,M,M,M,5500.00,M,M,M,M,M,M,M,M,M,M,M,KJFK 011030Z AUTO 28022KT 10SM OVC055 03/M04 A2970 RMK T00301040 CIG 047 W  MADISHF
JFK,2020-01-01 10:35,-73.7622,40.6386,M,M,M,270.00,22.00,M,29.71,M,10.00,M,BKN,OVC,M,M,4700.00,5500.00,M,M,M,M,M,M,M,M,M,M,KJFK 011035Z AUTO 27022KT 10SM BKN047 OVC055 03/M04 A2970 RMK T00301040 MADISHF
JFK,2020-01-01 10:40,-73.7622,40.6386,M,M,M,280.00,18.00,M,29.71,M,10.00,M,BKN,OVC,M,M,4500.00,5500.00,M,M,M,M,M,M,M,M,M,M,KJFK 011040Z AUTO 28018KT 10SM BKN045 OVC055 03/M04 A2970 RMK T00301040 MADISHF
JFK,2020-01-01 10:45,-73.7622,40.6386,M,M,M,260.00,21.00,M,29.72,M,10.00,M,BKN,OVC,M,M,4700.00,6000.00,M,M,M,M,M,M,M,M,M,M,KJFK 011045Z AUTO 26021KT 10SM BKN047 OVC060 03/M03 A2971 RMK T00301030 MADISHF
JFK,2020-01-01 10:50,-73.7622,40.6386,M,M,M,260.00,18.00,M,29.72,M,10.00,M,BKN,OVC,M,M,4800.00,6500.00,M,M,M,M,M,M,M,M,M,M,KJFK 011050Z AUTO 26018KT 10SM BKN048 OVC065 03/M03 A2971 RMK T00301030 MADISHF
JFK,2020-01-01 10:51,-73.7622,40.6386,37.00,26.10,64.38,270.00,18.00,0.00,29.72,1006.20,10.00,M,BKN,OVC,M,M,4800.00,6500.00,M,M,M,M,M,M,34.00,290.00,2020-01-01 10:28,26.33,KJFK 011051Z 27018KT 10SM BKN048 OVC065 03/M03 A2972 RMK AO2 PK WND 29034/1028 SLP062 T00281033 $
JFK,2020-01-01 10:55,-73.7622,40.6386,M,M,M,270.00,19.00,M,29.72,M,10.00,M,SCT,OVC,M,M,4600.00,6500.00,M,M,M,M,M,M,M,M,M,M,KJFK 011055Z AUTO 27019KT 10SM SCT046 OVC065 03/M03 A2971 RMK T00301030 MADISHF
JFK,2020-01-01 11:00,-73.7622,40.6386,M,M,M,280.00,15.00,M,29.72,M,10.00,M,SCT,OVC,M,M,4800.00,6500.00,M,M,M,M,M,M,M,M,M,M,KJFK 011100Z AUTO 28015KT 10SM SCT048 OVC065 03/M03 A2971 RMK T00301030 MADISHF
JFK,2020-01-01 11:05,-73.7622,40.6386,M,M,M,M,19.00,M,29.72,M,10.00,M,BKN,OVC,M,M,4800.00,6000.00,M,M,M,M,M,M,M,M,M,M,KJFK 011105Z AUTO ///19KT 10SM BKN048 OVC060 03/M03 A2971 RMK T00301030 MADISHF
JFK,2020-01-01 11:10,-73.7622,40.6386,M,M,M,260.00,15.00,M,29.72,M,10.00,M,BKN,OVC,M,M,5000.00,6500.00,M,M,M,M,M,M,M,M,M,M,KJFK 011110Z AUTO 26015KT 10SM BKN050 OVC065 03/M02 A2971 RMK T00301020 MADISHF
JFK,2020-01-01 11:15,-73.7622,40.6386,M,M,M,270.00,13.00,M,29.72,M,10.00,M,SCT,OVC,M,M,5000.00,6500.00,M,M,M,M,M,M,M,M,M,M,KJFK 011115Z AUTO 27013KT 10SM SCT050 OVC065 03/M02 A2971 RMK T00301020 MADISHF
JFK,2020-01-01 11:20,-73.7622,40.6386,M,M,M,260.00,10.00,M,29.72,M,10.00,M,BKN,OVC,M,M,4800.00,6000.00,M,M,M,M,M,M,M,M,M,M,KJFK 011120Z AUTO 26010KT 10SM BKN048 OVC060 03/M02 A2971 RMK T00301020 MADISHF
JFK,2020-01-01 11:25,-73.7622,40.6386,M,M,M,260.00,11.00,M,29.72,M,10.00,M,SCT,OVC,M,M,4500.00,6000.00,M,M,M,M,M,M,M,M,M,M,KJFK 011125Z AUTO 26011KT 10SM SCT045 OVC060 02/M02 A2971 RMK T00201020 MADISHF
JFK,2020-01-01 11:30,-73.7622,40.6386,M,M,M,270.00,11.00,M,29.72,M,10.00,M,SCT,OVC,M,M,4800.00,6000.00,M,M,M,M,M,M,M,M,M,M,KJFK 011130Z AUTO 27011KT 10SM SCT048 OVC060 03/M02 A2971 RMK T00301020 MADISHF
JFK,2020-01-01 11:35,-73.7622,40.6386,M,M,M,270.00,14.00,M,29.72,M,10.00,M,FEW,OVC,M,M,4600.00,6000.00,M,M,M,M,M,M,M,M,M,M,KJFK 011135Z AUTO 27014KT 10SM FEW046 OVC060 03/M02 A2971 RMK T00301020 MADISHF
JFK,2020-01-01 11:40,-73.7622,40.6386,M,M,M,270.00,16.00,M,29.72,M,10.00,M,FEW,OVC,M,M,4600.00,6000.00,M,M,M,M,M,M,M,M,M,M,KJFK 011140Z AUTO 27016KT 10SM FEW046 OVC060 03/M02 A2971 RMK T00301020 MADISHF
JFK,2020-01-01 11:45,-73.7622,40.6386,M,M,M,270.00,16.00,M,29.72,M,10.00,M,FEW,OVC,M,M,4600.00,6000.00,M,M,M,M,M,M,M,M,M,M,KJFK 011145Z AUTO 27016KT 10SM FEW046 OVC060 03/M02 A2971 RMK T00301020 MADISHF
JFK,2020-01-01 11:50,-73.7622,40.6386,M,M,M,270.00,14.00,M,29.72,M,10.00,19.00,FEW,SCT,BKN,M,3000.00,4200.00,6000.00,M,M,M,M,M,M,M,M,M,KJFK 011150Z AUTO 27014G19KT 10SM FEW030 SCT042 BKN060 03/M02 A2971 RMK T00301020 MADISHF
JFK,2020-01-01 11:51,-73.7622,40.6386,37.00,28.00,69.63,280.00,15.00,0.00,29.72,1006.30,10.00,21.00,FEW,SCT,BKN,M,3000.00,4200.00,6000.00,M,M,M,M,M,26.00,260.00,2020-01-01 10:53,27.26,KJFK 011151Z 28015G21KT 10SM FEW030 SCT042 BKN060 03/M02 A2972 RMK AO2 PK WND 26026/1053 SLP063 T00281022 10050 20022 51009 $
JFK,2020-01-01 11:55,-73.7622,40.6386,M,M,M,270.00,15.00,M,29.72,M,10.00,M,OVC,M,M,M,6000.00,M,M,M,M,M,M,M,M,M,M,M,KJFK 011155Z AUTO 27015KT 10SM OVC060 03/M02 A2971 RMK T00301020 MADISHF
JFK,2020-01-01 12:00,-73.7622,40.6386,M,M,M,270.00,17.00,M,29.72,M,10.00,M,OVC,M,M,M,6000.00,M,M,M,M,M,M,M,M,M,M,M,KJFK 011200Z AUTO 27017KT 10SM OVC060 03/M02 A2971 RMK T00301020 MADISHF
JFK,2020-01-01 12:05,-73.7622,40.6386,M,M,M,270.00,18.00,M,29.72,M,10.00,M,OVC,M,M,M,6000.00,M,M,M,M,M,M,M,M,M,M,M,KJFK 011205Z AUTO 27018KT 10SM OVC060 03/M02 A2971 RMK T00301020 MADISHF
JFK,2020-01-01 12:10,-73.7622,40.6386,M,M,M,280.00,18.00,M,29.72,M,10.00,M,OVC,M,M,M,6000.00,M,M,M,M,M,M,M,M,M,M,M,KJFK 011210Z AUTO 28018KT 10SM OVC060 03/M03 A2971 RMK T00301030 MADISHF
JFK,2020-01-01 12:15,-73.7622,40.6386,M,M,M,270.00,20.00,M,29.72,M,10.00,M,OVC,M,M,M,6000.00,M,M,M,M,M,M,M,M,M,M,M,KJFK 011215Z AUTO 27020KT 10SM OVC060 03/M03 A2971 RMK T00301030 MADISHF
JFK,2020-01-01 12:20,-73.7622,40.6386,M,M,M,280.00,20.00,M,29.72,M,10.00,M,OVC,M,M,M,6000.00,M,M,M,M,M,M,M,M,M,M,M,KJFK 011220Z AUTO 28020KT 10SM OVC060 03/M03 A2971 RMK T00301030 MADISHF
JFK,2020-01-01 12:25,-73.7622,40.6386,M,M,M,270.00,16.00,M,29.73,M,10.00,M,OVC,M,M,M,6000.00,M,M,M,M,M,M,M,M,M,M,M,KJFK 011225Z AUTO 27016KT 10SM OVC060 03/M03 A2972 RMK T00301030 MADISHF
JFK,2020-01-01 12:30,-73.7622,40.6386,M,M,M,270.00,16.00,M,29.73,M,10.00,M,OVC,M,M,M,6000.00,M,M,M,M,M,M,M,M,M,M,M,KJFK 011230Z AUTO 27016KT 10SM OVC060 03/M03 A2972 RMK T00301030 MADISHF
JFK,2020-01-01 12:35,-73.7622,40.6386,M,M,M,270.00,16.00,M,29.73,M,10.00,M,OVC,M,M,M,6000.00,M,M,M,M,M,M,M,M,M,M,M,KJFK 011235Z AUTO 27016KT 10SM OVC060 03/M03 A2972 RMK T00301030 MADISHF
JFK,2020-01-01 12:40,-73.7622,40.6386,M,M,M,270.00,15.00,M,29.73,M,10.00,20.00,OVC,M,M,M,6500.00,M,M,M,M,M,M,M,M,M,M,M,KJFK 011240Z AUTO 27015G20KT 10SM OVC065 03/M03 A2972 RMK T00301030 MADISHF
JFK,2020-01-01 12:45,-73.7622,40.6386,M,M,M,260.00,18.00,M,29.73,M,10.00,M,OVC,M,M,M,6500.00,M,M,M,M,M,M,M,M,M,M,M,KJFK 011245Z AUTO 26018KT 10SM OVC065 03/M03 A2972 RMK T00301030 MADISHF
JFK,2020-01-01 12:50,-73.7622,40.6386,M,M,M,260.00,11.00,M,29.73,M,10.00,M,SCT,BKN,M,M,3300.00,6500.00,M,M,M,M,M,M,M,M,M,M,KJFK 011250Z AUTO 26011KT 10SM SCT033 BKN065 03/M03 A2972 RMK T00301030 MADISHF
JFK,2020-01-01 12:51,-73.7622,40.6386,37.90,26.10,62.14,260.00,12.00,0.00,29.73,1006.70,10.00,23.00,SCT,BKN,M,M,3300.00,6500.00,M,M,M,M,M,M,26.00,270.00,2020-01-01 12:20,29.51,KJFK 011251Z 26012G23KT 10SM SCT033 BKN065 03/M03 A2973 RMK AO2 PK WND 27026/1220 SLP067 T00331033 $
JFK,2020-01-01 12:55,-73.7622,40.6386,M,M,M,250.00,15.00,M,29.73,M,10.00,M,FEW,OVC,M,M,3600.00,6500.00,M,M,M,M,M,M,M,M,M,M,KJFK 011255Z AUTO 25015KT 10SM FEW036 OVC065 03/M03 A2972 RMK T00301030 MADISHF
JFK,2020-01-01 13:00,-73.7622,40.6386,M,M,M,260.00,15.00,M,29.73,M,10.00,M,SCT,OVC,M,M,3800.00,6000.00,M,M,M,M,M,M,M,M,M,M,KJFK 011300Z AUTO 26015KT 10SM SCT038 OVC060 03/M03 A2972 RMK T00301030 MADISHF
JFK,2020-01-01 13:05,-73.7622,40.6386,M,M,M,250.00,15.00,M,29.74,M,10.00,M,FEW,OVC,M,M,3900.00,6000.00,M,M,M,M,M,M,M,M,M,M,KJFK 011305Z AUTO 25015KT 10SM FEW039 OVC060 03/M03 A2973 RMK T00301030 MADISHF
JFK,2020-01-01 13:10,-73.7622,40.6386,M,M,M,260.00,14.00,M,29.74,M,10.00,M,FEW,OVC,M,M,3900.00,6000.00,M,M,M,M,M,M,M,M,M,M,KJFK 011310Z AUTO 26014KT 10SM FEW039 OVC060 03/M03 A2973 RMK T00301030 MADISHF
JFK,2020-01-01 13:15,-73.7622,40.6386,M,M,M,260.00,17.00,M,29.74,M,10.00,M,FEW,OVC,M,M,3900.00,6000.00,M,M,M,M,M,M,M,M,M,M,KJFK 011315Z AUTO 26017KT 10SM FEW039 OVC060 03/M03 A2973 RMK T00301030 MADISHF
JFK,2020-01-01 13:20,-73.7622,40.6386,M,M,M,270.00,19.00,M,29.74,M,10.00,M,FEW,OVC,M,M,3800.00,6000.00,M,M,M,M,M,M,M,M,M,M,KJFK 011320Z AUTO 27019KT 10SM FEW038 OVC060 03/M03 A2973 RMK T00301030 MADISHF
JFK,2020-01-01 13:25,-73.7622,40.6386,M,M,M,270.00,17.00,M,29.75,M,10.00,M,FEW,FEW,OVC,M,3800.00,4800.00,6000.00,M,M,M,M,M,M,M,M,M,KJFK 011325Z AUTO 27017KT 10SM FEW038 FEW048 OVC060 03/M03 A2975 RMK T00301030 MADISHF
JFK,2020-01-01 13:30,-73.7622,40.6386,M,M,M,280.00,18.00,M,29.75,M,10.00,M,FEW,OVC,M,M,4800.00,6500.00,M,M,M,M,M,M,M,M,M,M,KJFK 011330Z AUTO 28018KT 10SM FEW048 OVC065 03/M03 A2975 RMK T00301030 MADISHF
JFK,2020-01-01 13:35,-73.7622,40.6386,M,M,M,270.00,17.00,M,29.75,M,10.00,M,OVC,M,M,M,6500.00,M,M,M,M,M,M,M,M,M,M,M,KJFK 011335Z AUTO 27017KT 10SM OVC065 03/M03 A2975 RMK T00301030 MADISHF
JFK,2020-01-01 13:40,-73.7622,40.6386,M,M,M,280.00,15.00,M,29.75,M,10.00,M,FEW,OVC,M,M,4700.00,6500.00,M,M,M,M,M,M,M,M,M,M,KJFK 011340Z AUTO 28015KT 10SM FEW047 OVC065 03/M03 A2975 RMK T00301030 MADISHF
JFK,2020-01-01 13:45,-73.7622,40.6386,M,M,M,270.00,14.00,M,29.75,M,10.00,M,FEW,SCT,BKN,M,3300.00,4500.00,6500.00,M,M,M,M,M,M,M,M,M,KJFK 011345Z AUTO 27014KT 10SM FEW033 SCT045 BKN065 03/M03 A2975 RMK T00301030 MADISHF
JFK,2020-01-01 13:50,-73.7622,40.6386,M,M,M,270.00,19.00,M,29.76,M,10.00,M,FEW,SCT,BKN,M,3300.00,4500.00,6500.00,M,M,M,M,M,M,M,M,M,KJFK 011350Z AUTO 27019KT 10SM FEW033 SCT045 BKN065 03/M04 A2976 RMK T00301040  VIRGA S MADISHF
JFK,2020-01-01 13:51,-73.7622,40.6386,37.90,25.00,59.36,270.00,20.00,0.00,29.76,1007.70,10.00,25.00,FEW,SCT,BKN,M,3300.00,4500.00,6500.00,M,M,M,M,M,M,M,M,26.98,KJFK 011351Z 27020G25KT 10SM FEW033 SCT045 BKN065 03/M04 A2976 RMK AO2 SLP077 VIRGA S T00331039 $
JFK,2020-01-01 13:55,-73.7622,40.6386,M,M,M,260.00,16.00,M,29.76,M,10.00,M,OVC,M,M,M,6000.00,M,M,M,M,M,M,M,M,M,M,M,KJFK 011355Z AUTO 26016KT 10SM OVC060 03/M04 A2976 RMK T00301040 MADISHF
JFK,2020-01-01 14:00,-73.7622,40.6386,M,M,M,270.00,18.00,M,29.76,M,10.00,M,OVC,M,M,M,6000.00,M,M,M,M,M,M,M,M,M,M,M,KJFK 011400Z AUTO 27018KT 10SM OVC060 03/M04 A2976 RMK T00301040 MADISHF
JFK,2020-01-01 14:05,-73.7622,40.6386,M,M,M,260.00,19.00,M,29.76,M,10.00,M,FEW,OVC,M,M,5000.00,6000.00,M,M,M,M,M,M,M,M,M,M,KJFK 011405Z AUTO 26019KT 10SM FEW050 OVC060 03/M04 A2976 RMK T00301040 MADISHF
JFK,2020-01-01 14:10,-73.7622,40.6386,M,M,M,260.00,19.00,M,29.77,M,10.00,M,FEW,OVC,M,M,5000.00,6000.00,M,M,M,M,M,M,M,M,M,M,KJFK 011410Z AUTO 26019KT 10SM FEW050 OVC060 03/M04 A2977 RMK T00301040 MADISHF
JFK,2020-01-01 14:15,-73.7622,40.6386,M,M,M,270.00,14.00,M,29.77,M,10.00,M,FEW,OVC,M,M,4600.00,6000.00,M,M,M,M,M,M,M,M,M,M,KJFK 011415Z AUTO 27014KT 10SM FEW046 OVC060 03/M04 A2977 RMK T00301040 MADISHF
JFK,2020-01-01 14:20,-73.7622,40.6386,M,M,M,280.00,16.00,M,29.77,M,10.00,M,FEW,OVC,M,M,4600.00,6000.00,M,M,M,M,M,M,M,M,M,M,KJFK 011420Z AUTO 28016KT 10SM FEW046 OVC060 03/M04 A2977 RMK T00301040 MADISHF
JFK,2020-01-01 14:25,-73.7622,40.6386,M,M,M,270.00,19.00,M,29.77,M,10.00,M,FEW,OVC,M,M,4500.00,6000.00,M,M,M,M,M,M,M,M,M,M,KJFK 011425Z AUTO 27019KT 10SM FEW045 OVC060 03/M04 A2977 RMK T00301040 MADISHF
JFK,2020-01-01 14:30,-73.7622,40.6386,M,M,M,270.00,15.00,M,29.77,M,10.00,M,FEW,OVC,M,M,4300.00,5500.00,M,M,M,M,M,M,M,M,M,M,KJFK 011430Z AUTO 27015KT 10SM FEW043 OVC055 03/M05 A2977 RMK T00301050 MADISHF
JFK,2020-01-01 14:35,-73.7622,40.6386,M,M,M,270.00,21.00,M,29.77,M,10.00,M,FEW,OVC,M,M,4300.00,5500.00,M,M,M,M,M,M,M,M,M,M,KJFK 011435Z AUTO 27021KT 10SM FEW043 OVC055 03/M05 A2977 RMK T00301050 MADISHF
JFK,2020-01-01 14:40,-73.7622,40.6386,M,M,M,270.00,18.00,M,29.77,M,10.00,M,FEW,OVC,M,M,4400.00,6000.00,M,M,M,M,M,M,M,M,M,M,KJFK 011440Z AUTO 27018KT 10SM FEW044 OVC060 03/M05 A2977 RMK T00301050 MADISHF
JFK,2020-01-01 14:45,-73.7622,40.6386,M,M,M,280.00,16.00,M,29.77,M,10.00,M,FEW,SCT,BKN,M,3600.00,4400.00,6000.00,M,M,M,M,M,M,M,M,M,KJFK 011445Z AUTO 28016KT 10SM FEW036 SCT044 BKN060 04/M05 A2977 RMK T00401050 MADISHF
JFK,2020-01-01 14:50,-73.7622,40.6386,M,M,M,280.00,16.00,M,29.78,M,10.00,M,FEW,SCT,BKN,M,3600.00,4400.00,6000.00,M,M,M,M,M,M,M,M,M,KJFK 011450Z AUTO 28016KT 10SM FEW036 SCT044 BKN060 04/M05 A2978 RMK T00401050  VIRGA SE-SW MADISHF
JFK,2020-01-01 14:51,-73.7622,40.6386,39.00,21.90,49.93,270.00,15.00,0.00,29.78,1008.20,10.00,25.00,FEW,SCT,BKN,M,3600.00,4400.00,6000.00,M,M,M,M,M,M,M,M,29.85,KJFK 011451Z 27015G25KT 10SM FEW036 SCT044 BKN060 04/M06 A2978 RMK AO2 SLP082 VIRGA SE-SW T00391056 53019 $
JFK,2020-01-01 14:55,-73.7622,40.6386,M,M,M,270.00,17.00,M,29.78,M,10.00,M,FEW,OVC,M,M,4400.00,6000.00,M,M,M,M,M,M,M,M,M,M,KJFK 011455Z AUTO 27017KT 10SM FEW044 OVC060 04/M06 A2978 RMK T00401060 MADISHF
JFK,2020-01-01 15:00,-73.7622,40.6386,M,M,M,270.00,18.00,M,29.78,M,10.00,M,FEW,OVC,M,M,4600.00,6000.00,M,M,M,M,M,M,M,M,M,M,KJFK 011500Z AUTO 27018KT 10SM FEW046 OVC060 04/M06 A2978 RMK T00401060 MADISHF
JFK,2020-01-01 15:05,-73.7622,40.6386,M,M,M,270.00,16.00,M,29.78,M,10.00,M,OVC,M,M,M,6000.00,M,M,M,M,M,M,M,M,M,M,M,KJFK 011505Z AUTO 27016KT 10SM OVC060 04/M06 A2978 RMK T00401060 MADISHF
JFK,2020-01-01 15:10,-73.7622,40.6386,M,M,M,M,18.00,M,29.78,M,10.00,M,OVC,M,M,M,6000.00,M,M,M,M,M,M,M,M,M,M,M,KJFK 011510Z AUTO ///18KT 10SM OVC060 04/M06 A2978 RMK T00401060 MADISHF
JFK,2020-01-01 15:15,-73.7622,40.6386,M,M,M,270.00,17.00,M,29.78,M,10.00,M,OVC,M,M,M,6500.00,M,M,M,M,M,M,M,M,M,M,M,KJFK 011515Z AUTO 27017KT 10SM OVC065 04/M06 A2978 RMK T00401060 MADISHF
JFK,2020-01-01 15:20,-73.7622,40.6386,M,M,M,270.00,18.00,M,29.78,M,10.00,M,OVC,M,M,M,6500.00,M,M,M,M,M,M,M,M,M,M,M,KJFK 011520Z AUTO 27018KT 10SM OVC065 04/M06 A2978 RMK T00401060 MADISHF
JFK,2020-01-01 15:25,-73.7622,40.6386,M,M,M,280.00,16.00,M,29.77,M,10.00,M,OVC,M,M,M,6000.00,M,M,M,M,M,M,M,M,M,M,M,KJFK 011525Z AUTO 28016KT 10SM OVC060 05/M06 A2977 RMK T00501060 MADISHF
JFK,2020-01-01 15:30,-73.7622,40.6386,M,M,M,M,18.00,M,29.77,M,10.00,M,FEW,OVC,M,M,5000.00,6500.00,M,M,M,M,M,M,M,M,M,M,KJFK 011530Z AUTO ///18KT 10SM FEW050 OVC065 04/M06 A2977 RMK T00401060 MADISHF
JFK,2020-01-01 15:35,-73.7622,40.6386,M,M,M,270.00,17.00,M,29.77,M,10.00,M,FEW,OVC,M,M,5000.00,6500.00,M,M,M,M,M,M,M,M,M,M,KJFK 011535Z AUTO 27017KT 10SM FEW050 OVC065 04/M06 A2977 RMK T00401060 MADISHF
JFK,2020-01-01 15:40,-73.7622,40.6386,M,M,M,270.00,18.00,M,29.77,M,10.00,M,FEW,OVC,M,M,5000.00,6500.00,M,M,M,M,M,M,M,M,M,M,KJFK 011540Z AUTO 27018KT 10SM FEW050 OVC065 05/M06 A2977 RMK T00501060 MADISHF
JFK,2020-01-01 15:45,-73.7622,40.6386,M,M,M,270.00,20.00,M,29.77,M,10.00,M,FEW,OVC,M,M,5000.00,6500.00,M,M,M,M,M,M,M,M,M,M,KJFK 011545Z AUTO 27020KT 10SM FEW050 OVC065 04/M06 A2977 RMK T00401060 MADISHF
JFK,2020-01-01 15:50,-73.7622,40.6386,M,M,M,280.00,21.00,M,29.77,M,10.00,M,FEW,SCT,BKN,M,4100.00,5000.00,6500.00,M,M,M,M,M,M,M,M,M,KJFK 011550Z AUTO 28021KT 10SM FEW041 SCT050 BKN065 04/M06 A2977 RMK T00401060 MADISHF
JFK,2020-01-01 15:51,-73.7622,40.6386,39.00,21.00,48.06,280.00,20.00,0.00,29.77,1008.00,10.00,M,FEW,SCT,BKN,M,4100.00,5000.00,6500.00,M,M,M,M,M,27.00,270.00,2020-01-01 15:47,28.44,KJFK 011551Z 28020KT 10SM FEW041 SCT050 BKN065 04/M06 A2977 RMK AO2 PK WND 27027/1547 SLP080 T00391061 $
JFK,2020-01-01 15:55,-73.7622,40.6386,M,M,M,280.00,15.00,M,29.77,M,10.00,M,OVC,M,M,M,6000.00,M,M,M,M,M,M,M,M,M,M,M,KJFK 011555Z AUTO 28015KT 10SM OVC060 04/M06 A2977 RMK T00401060 MADISHF
JFK,2020-01-01 16:00,-73.7622,40.6386,M,M,M,270.00,16.00,M,29.77,M,10.00,M,OVC,M,M,M,6000.00,M,M,M,M,M,M,M,M,M,M,M,KJFK 011600Z AUTO 27016KT 10SM OVC060 04/M06 A2977 RMK T00401060 MADISHF
JFK,2020-01-01 16:05,-73.7622,40.6386,M,M,M,280.00,15.00,M,29.77,M,10.00,M,OVC,M,M,M,6000.00,M,M,M,M,M,M,M,M,M,M,M,KJFK 011605Z AUTO 28015KT 10SM OVC060 04/M06 A2977 RMK T00401060 MADISHF
JFK,2020-01-01 16:10,-73.7622,40.6386,M,M,M,270.00,16.00,M,29.77,M,10.00,M,OVC,M,M,M,6000.00,M,M,M,M,M,M,M,M,M,M,M,KJFK 011610Z AUTO 27016KT 10SM OVC060 04/M06 A2977 RMK T00401060 MADISHF
JFK,2020-01-01 16:15,-73.7622,40.6386,M,M,M,270.00,19.00,M,29.76,M,10.00,M,SCT,OVC,M,M,5000.00,6000.00,M,M,M,M,M,M,M,M,M,M,KJFK 011615Z AUTO 27019KT 10SM SCT050 OVC060 04/M06 A2976 RMK T00401060 MADISHF
JFK,2020-01-01 16:20,-73.7622,40.6386,M,M,M,270.00,22.00,M,29.76,M,10.00,M,OVC,M,M,M,6000.00,M,M,M,M,M,M,M,M,M,M,M,KJFK 011620Z AUTO 27022KT 10SM OVC060 04/M06 A2976 RMK T00401060 MADISHF
JFK,2020-01-01 16:25,-73.7622,40.6386,M,M,M,M,21.00,M,29.76,M,10.00,M,OVC,M,M,M,6000.00,M,M,M,M,M,M,M,M,M,M,M,KJFK 011625Z AUTO ///21KT 10SM OVC060 04/M06 A2976 RMK T00401060 MADISHF
JFK,2020-01-01 16:30,-73.7622,40.6386,M,M,M,M,21.00,M,29.76,M,10.00,M,OVC,M,M,M,6000.00,M,M,M,M,M,M,M,M,M,M,M,KJFK 011630Z AUTO ///21KT 10SM OVC060 04/M06 A2976 RMK T00401060 MADISHF
JFK,2020-01-01 16:35,-73.7622,40.6386,M,M,M,270.00,20.00,M,29.76,M,10.00,M,OVC,M,M,M,5500.00,M,M,M,M,M,M,M,M,M,M,M,KJFK 011635Z AUTO 27020KT 10SM OVC055 04/M06 A2976 RMK T00401060 MADISHF
JFK,2020-01-01 16:40,-73.7622,40.6386,M,M,M,270.00,14.00,M,29.76,M,10.00,M,OVC,M,M,M,5500.00,M,M,M,M,M,M,M,M,M,M,M,KJFK 011640Z AUTO 27014KT 10SM OVC055 04/M06 A2976 RMK T00401060 MADISHF
JFK,2020-01-01 16:45,-73.7622,40.6386,M,M,M,280.00,18.00,M,29.76,M,10.00,M,BKN,M,M,M,6000.00,M,M,M,M,M,M,M,M,M,M,M,KJFK 011645Z AUTO 28018KT 10SM BKN060 05/M06 A2976 RMK T00501060 MADISHF
JFK,2020-01-01 16:50,-73.7622,40.6386,M,M,M,270.00,19.00,M,29.75,M,10.00,M,BKN,BKN,M,M,4900.00,6500.00,M,M,M,M,M,M,M,M,M,M,KJFK 011650Z AUTO 27019KT 10SM BKN049 BKN065 06/M06 A2975 RMK T00601060 MADISHF
JFK,2020-01-01 16:51,-73.7622,40.6386,42.10,21.00,42.62,270.00,18.00,0.00,29.75,1007.50,10.00,26.00,BKN,BKN,M,M,4900.00,6500.00,M,M,M,M,M,M,27.00,270.00,2020-01-01 16:19,33.04,KJFK 011651Z 27018G26KT 10SM BKN049 BKN065 06/M06 A2975 RMK AO2 PK WND 27027/1619 SLP075 T00561061 $
JFK,2020-01-01 16:55,-73.7622,40.6386,M,M,M,270.00,18.00,M,29.75,M,10.00,M,OVC,M,M,M,6000.00,M,M,M,M,M,M,M,M,M,M,M,KJFK 011655Z AUTO 27018KT 10SM OVC060 06/M06 A2975 RMK T00601060 MADISHF
JFK,2020-01-01 17:00,-73.7622,40.6386,M,M,M,270.00,18.00,M,29.76,M,10.00,M,OVC,M,M,M,6000.00,M,M,M,M,M,M,M,M,M,M,M,KJFK 011700Z AUTO 27018KT 10SM OVC060 05/M06 A2976 RMK T00501060 MADISHF
JFK,2020-01-01 17:05,-73.7622,40.6386,M,M,M,280.00,17.00,M,29.75,M,10.00,M,OVC,M,M,M,6000.00,M,M,M,M,M,M,M,M,M,M,M,KJFK 011705Z AUTO 28017KT 10SM OVC060 05/M06 A2975 RMK T00501060 MADISHF
JFK,2020-01-01 17:10,-73.7622,40.6386,M,M,M,290.00,17.00,M,29.75,M,10.00,M,OVC,M,M,M,6000.00,M,M,M,M,M,M,M,M,M,M,M,KJFK 011710Z AUTO 29017KT 10SM OVC060 04/M06 A2975 RMK T00401060 CIG 050 W  MADISHF
JFK,2020-01-01 17:15,-73.7622,40.6386,M,M,M,280.00,18.00,M,29.75,M,10.00,M,OVC,M,M,M,5500.00,M,M,M,M,M,M,M,M,M,M,M,KJFK 011715Z AUTO 28018KT 10SM OVC055 04/M06 A2975 RMK T00401060 MADISHF
JFK,2020-01-01 17:20,-73.7622,40.6386,M,M,M,290.00,20.00,M,29.75,M,10.00,M,BKN,OVC,M,M,5000.00,6000.00,M,M,M,M,M,M,M,M,M,M,KJFK 011720Z AUTO 29020KT 10SM BKN050 OVC060 04/M06 A2975 RMK T00401060 MADISHF
JFK,2020-01-01 17:25,-73.7622,40.6386,M,M,M,300.00,18.00,M,29.75,M,10.00,M,OVC,M,M,M,5000.00,M,M,M,M,M,M,M,M,M,M,M,KJFK 011725Z AUTO 30018KT 10SM OVC050 04/M06 A2975 RMK T00401060 MADISHF
JFK,2020-01-01 17:30,-73.7622,40.6386,M,M,M,290.00,19.00,M,29.75,M,10.00,M,OVC,M,M,M,5000.00,M,M,M,M,M,M,M,M,M,M,M,KJFK 011730Z AUTO 29019KT 10SM OVC050 04/M07 A2975 RMK T00401070 MADISHF
JFK,2020-01-01 17:35,-73.7622,40.6386,M,M,M,280.00,16.00,M,29.75,M,10.00,M,OVC,M,M,M,5000.00,M,M,M,M,M,M,M,M,M,M,M,KJFK 011735Z AUTO 28016KT 10SM OVC050 04/M07 A2975 RMK T00401070 MADISHF
JFK,2020-01-01 17:40,-73.7622,40.6386,M,M,M,310.00,16.00,M,29.75,M,10.00,M,OVC,M,M,M,5000.00,M,M,M,M,M,M,M,M,M,M,M,KJFK 011740Z AUTO 31016KT 10SM OVC050 04/M07 A2975 RMK T00401070 MADISHF
JFK,2020-01-01 17:45,-73.7622,40.6386,M,M,M,280.00,17.00,M,29.75,M,10.00,M,OVC,M,M,M,5000.00,M,M,M,M,M,M,M,M,M,M,M,KJFK 011745Z AUTO 28017KT 10SM OVC050 04/M07 A2975 RMK T00401070 MADISHF
JFK,2020-01-01 17:50,-73.7622,40.6386,M,M,M,310.00,19.00,M,29.74,M,10.00,M,FEW,BKN,BKN,M,4300.00,5000.00,6500.00,M,M,M,M,M,M,M,M,M,KJFK 011750Z AUTO 31019KT 10SM FEW043 BKN050 BKN065 04/M07 A2973 RMK T00401070  VIRGA S MADISHF
JFK,2020-01-01 17:51,-73.7622,40.6386,39.00,19.90,45.87,310.00,20.00,0.00,29.74,1007.20,10.00,M,FEW,BKN,BKN,M,4300.00,5000.00,6500.00,M,M,M,M,M,26.00,260.00,2020-01-01 16:56,28.44,KJFK 011751Z 31020KT 10SM FEW043 BKN050 BKN065 04/M07 A2974 RMK AO2 PK WND 26026/1656 SLP072 VIRGA S T00391067 10056 20028 58010 $
JFK,2020-01-01 17:55,-73.7622,40.6386,M,M,M,290.00,18.00,M,29.75,M,10.00,M,OVC,M,M,M,5000.00,M,M,M,M,M,M,M,M,M,M,M,KJFK 011755Z AUTO 29018KT 10SM OVC050 04/M07 A2975 RMK T00401070 MADISHF
JFK,2020-01-01 18:00,-73.7622,40.6386,M,M,M,300.00,18.00,M,29.75,M,10.00,M,OVC,M,M,M,5000.00,M,M,M,M,M,M,M,M,M,M,M,KJFK 011800Z AUTO 30018KT 10SM OVC050 04/M07 A2975 RMK T00401070 MADISHF
JFK,2020-01-01 18:05,-73.7622,40.6386,M,M,M,300.00,17.00,M,29.75,M,10.00,M,OVC,M,M,M,5000.00,M,M,M,M,M,M,M,M,M,M,M,KJFK 011805Z AUTO 30017KT 10SM OVC050 04/M07 A2975 RMK T00401070 MADISHF
JFK,2020-01-01 18:10,-73.7622,40.6386,M,M,M,300.00,19.00,M,29.75,M,10.00,M,OVC,M,M,M,5000.00,M,M,M,M,M,M,M,M,M,M,M,KJFK 011810Z AUTO 30019KT 10SM OVC050 04/M07 A2975 RMK T00401070 MADISHF
JFK,2020-01-01 18:15,-73.7622,40.6386,M,M,M,290.00,16.00,M,29.75,M,10.00,M,OVC,M,M,M,5000.00,M,M,M,M,M,M,M,M,M,M,M,KJFK 011815Z AUTO 29016KT 10SM OVC050 04/M07 A2975 RMK T00401070 MADISHF
JFK,2020-01-01 18:20,-73.7622,40.6386,M,M,M,280.00,17.00,M,29.75,M,10.00,M,OVC,M,M,M,5000.00,M,M,M,M,M,M,M,M,M,M,M,KJFK 011820Z AUTO 28017KT 10SM OVC050 04/M07 A2975 RMK T00401070 MADISHF
JFK,2020-01-01 18:25,-73.7622,40.6386,M,M,M,280.00,19.00,M,29.75,M,10.00,M,OVC,M,M,M,5000.00,M,M,M,M,M,M,M,M,M,M,M,KJFK 011825Z AUTO 28019KT 10SM OVC050 04/M07 A2975 RMK T00401070 MADISHF
JFK,2020-01-01 18:30,-73.7622,40.6386,M,M,M,280.00,18.00,M,29.75,M,10.00,M,OVC,M,M,M,5000.00,M,M,M,M,M,M,M,M,M,M,M,KJFK 011830Z AUTO 28018KT 10SM OVC050 04/M07 A2975 RMK T00401070 MADISHF
JFK,2020-01-01 18:35,-73.7622,40.6386,M,M,M,280.00,18.00,M,29.75,M,10.00,M,OVC,M,M,M,5000.00,M,M,M,M,M,M,M,M,M,M,M,KJFK 011835Z AUTO 28018KT 10SM OVC050 04/M07 A2975 RMK T00401070 MADISHF
JFK,2020-01-01 18:40,-73.7622,40.6386,M,M,M,280.00,17.00,M,29.75,M,10.00,M,OVC,M,M,M,5000.00,M,M,M,M,M,M,M,M,M,M,M,KJFK 011840Z AUTO 28017KT 10SM OVC050 04/M07 A2975 RMK T00401070 MADISHF
JFK,2020-01-01 18:45,-73.7622,40.6386,M,M,M,300.00,15.00,M,29.75,M,10.00,M,OVC,M,M,M,5000.00,M,M,M,M,M,M,M,M,M,M,M,KJFK 011845Z AUTO 30015KT 10SM OVC050 04/M07 A2975 RMK T00401070 MADISHF
JFK,2020-01-01 18:50,-73.7622,40.6386,M,M,M,290.00,13.00,M,29.75,M,10.00,M,FEW,OVC,M,M,4200.00,5000.00,M,M,M,M,M,M,M,M,M,M,KJFK 011850Z AUTO 29013KT 10SM FEW042 OVC050 04/M06 A2975 RMK T00401060  VIRGA DSNT SW MADISHF
JFK,2020-01-01 18:51,-73.7622,40.6386,39.00,19.90,45.87,290.00,13.00,0.00,29.75,1007.50,10.00,M,FEW,OVC,M,M,4200.00,5000.00,M,M,M,M,M,M,28.00,290.00,2020-01-01 18:24,30.54,KJFK 011851Z 29013KT 10SM FEW042 OVC050 04/M07 A2975 RMK AO2 PK WND 29028/1824 SLP075 VIRGA DSNT SW T00391067 $
JFK,2020-01-01 18:55,-73.7622,40.6386,M,M,M,290.00,17.00,M,29.76,M,10.00,M,OVC,M,M,M,5000.00,M,M,M,M,M,M,M,M,M,M,M,KJFK 011855Z AUTO 29017KT 10SM OVC050 04/M07 A2976 RMK T00401070 MADISHF
JFK,2020-01-01 19:00,-73.7622,40.6386,M,M,M,290.00,14.00,M,29.76,M,10.00,19.00,OVC,M,M,M,5000.00,M,M,M,M,M,M,M,M,M,M,M,KJFK 011900Z AUTO 29014G19KT 10SM OVC050 04/M07 A2976 RMK T00401070 MADISHF
JFK,2020-01-01 19:05,-73.7622,40.6386,M,M,M,M,20.00,M,29.76,M,10.00,M,OVC,M,M,M,5000.00,M,M,M,M,M,M,M,M,M,M,M,KJFK 011905Z AUTO ///20KT 10SM OVC050 04/M07 A2976 RMK T00401070 MADISHF
JFK,2020-01-01 19:10,-73.7622,40.6386,M,M,M,300.00,14.00,M,29.76,M,10.00,M,OVC,M,M,M,5000.00,M,M,M,M,M,M,M,M,M,M,M,KJFK 011910Z AUTO 30014KT 10SM OVC050 04/M07 A2976 RMK T00401070 MADISHF
JFK,2020-01-01 19:15,-73.7622,40.6386,M,M,M,280.00,16.00,M,29.76,M,10.00,M,OVC,M,M,M,5000.00,M,M,M,M,M,M,M,M,M,M,M,KJFK 011915Z AUTO 28016KT 10SM OVC050 04/M07 A2976 RMK T00401070 MADISHF
JFK,2020-01-01 19:20,-73.7622,40.6386,M,M,M,290.00,17.00,M,29.76,M,10.00,M,OVC,M,M,M,5000.00,M,M,M,M,M,M,M,M,M,M,M,KJFK 011920Z AUTO 29017KT 10SM OVC050 04/M07 A2976 RMK T00401070 MADISHF
JFK,2020-01-01 19:25,-73.7622,40.6386,M,M,M,290.00,18.00,M,29.76,M,10.00,M,OVC,M,M,M,5000.00,M,M,M,M,M,M,M,M,M,M,M,KJFK 011925Z AUTO 29018KT 10SM OVC050 04/M07 A2976 RMK T00401070 MADISHF
JFK,2020-01-01 19:30,-73.7622,40.6386,M,M,M,300.00,18.00,M,29.76,M,10.00,M,OVC,M,M,M,5000.00,M,M,M,M,M,M,M,M,M,M,M,KJFK 011930Z AUTO 30018KT 10SM OVC050 04/M07 A2976 RMK T00401070 MADISHF
JFK,2020-01-01 19:35,-73.7622,40.6386,M,M,M,290.00,15.00,M,29.76,M,10.00,M,OVC,M,M,M,5000.00,M,M,M,M,M,M,M,M,M,M,M,KJFK 011935Z AUTO 29015KT 10SM OVC050 04/M07 A2976 RMK T00401070 MADISHF
JFK,2020-01-01 19:40,-73.7622,40.6386,M,M,M,300.00,17.00,M,29.77,M,10.00,M,OVC,M,M,M,5000.00,M,M,M,M,M,M,M,M,M,M,M,KJFK 011940Z AUTO 30017KT 10SM OVC050 04/M07 A2977 RMK T00401070 MADISHF
JFK,2020-01-01 19:45,-73.7622,40.6386,M,M,M,290.00,15.00,M,29.77,M,10.00,M,OVC,M,M,M,5000.00,M,M,M,M,M,M,M,M,M,M,M,KJFK 011945Z AUTO 29015KT 10SM OVC050 04/M07 A2977 RMK T00401070 MADISHF
JFK,2020-01-01 19:50,-73.7622,40.6386,M,M,M,280.00,13.00,M,29.78,M,10.00,19.00,OVC,M,M,M,5000.00,M,M,M,M,M,M,M,M,M,M,M,KJFK 011950Z AUTO 28013G19KT 10SM OVC050 04/M07 A2978 RMK T00401070  VIRGA SE MADISHF
JFK,2020-01-01 19:51,-73.7622,40.6386,39.00,19.90,45.87,280.00,14.00,0.00,29.78,1008.20,10.00,20.00,OVC,M,M,M,5000.00,M,M,M,M,M,M,M,M,M,M,30.19,KJFK 011951Z 28014G20KT 10SM OVC050 04/M07 A2978 RMK AO2 SLP082 VIRGA SE T00391067 $
JFK,2020-01-01 19:55,-73.7622,40.6386,M,M,M,280.00,17.00,M,29.78,M,10.00,M,OVC,M,M,M,5000.00,M,M,M,M,M,M,M,M,M,M,M,KJFK 011955Z AUTO 28017KT 10SM OVC050 04/M07 A2978 RMK T00401070 MADISHF
JFK,2020-01-01 20:00,-73.7622,40.6386,M,M,M,280.00,15.00,M,29.78,M,10.00,M,OVC,M,M,M,5000.00,M,M,M,M,M,M,M,M,M,M,M,KJFK 012000Z AUTO 28015KT 10SM OVC050 04/M06 A2978 RMK T00401060 MADISHF
JFK,2020-01-01 20:05,-73.7622,40.6386,M,M,M,280.00,15.00,M,29.78,M,10.00,M,OVC,M,M,M,5000.00,M,M,M,M,M,M,M,M,M,M,M,KJFK 012005Z AUTO 28015KT 10SM OVC050 04/M07 A2978 RMK T00401070 MADISHF
JFK,2020-01-01 20:10,-73.7622,40.6386,M,M,M,280.00,14.00,M,29.78,M,10.00,M,OVC,M,M,M,5000.00,M,M,M,M,M,M,M,M,M,M,M,KJFK 012010Z AUTO 28014KT 10SM OVC050 04/M06 A2978 RMK T00401060 MADISHF
JFK,2020-01-01 20:15,-73.7622,40.6386,M,M,M,280.00,18.00,M,29.78,M,10.00,M,OVC,M,M,M,5000.00,M,M,M,M,M,M,M,M,M,M,M,KJFK 012015Z AUTO 28018KT 10SM OVC050 04/M06 A2978 RMK T00401060 MADISHF
JFK,2020-01-01 20:20,-73.7622,40.6386,M,M,M,280.00,17.00,M,29.79,M,10.00,M,OVC,M,M,M,5000.00,M,M,M,M,M,M,M,M,M,M,M,KJFK 012020Z AUTO 28017KT 10SM OVC050 04/M07 A2979 RMK T00401070 MADISHF
JFK,2020-01-01 20:25,-73.7622,40.6386,M,M,M,270.00,18.00,M,29.79,M,10.00,M,OVC,M,M,M,5000.00,M,M,M,M,M,M,M,M,M,M,M,KJFK 012025Z AUTO 27018KT 10SM OVC050 04/M07 A2979 RMK T00401070 MADISHF
JFK,2020-01-01 20:30,-73.7622,40.6386,M,M,M,280.00,17.00,M,29.79,M,10.00,M,OVC,M,M,M,5000.00,M,M,M,M,M,M,M,M,M,M,M,KJFK 012030Z AUTO 28017KT 10SM OVC050 03/M07 A2979 RMK T00301070 MADISHF
JFK,2020-01-01 20:35,-73.7622,40.6386,M,M,M,280.00,15.00,M,29.79,M,10.00,M,OVC,M,M,M,5000.00,M,M,M,M,M,M,M,M,M,M,M,KJFK 012035Z AUTO 28015KT 10SM OVC050 03/M07 A2979 RMK T00301070 MADISHF
JFK,2020-01-01 20:40,-73.7622,40.6386,M,M,M,280.00,16.00,M,29.79,M,10.00,M,OVC,M,M,M,5000.00,M,M,M,M,M,M,M,M,M,M,M,KJFK 012040Z AUTO 28016KT 10SM OVC050 03/M06 A2979 RMK T00301060 MADISHF
JFK,2020-01-01 20:45,-73.7622,40.6386,M,M,M,280.00,13.00,M,29.80,M,10.00,M,OVC,M,M,M,5000.00,M,M,M,M,M,M,M,M,M,M,M,KJFK 012045Z AUTO 28013KT 10SM OVC050 04/M07 A2979 RMK T00401070 MADISHF
JFK,2020-01-01 20:50,-73.7622,40.6386,M,M,M,290.00,16.00,M,29.80,M,10.00,M,OVC,M,M,M,5000.00,M,M,M,M,M,M,M,M,M,M,M,KJFK 012050Z AUTO 29016KT 10SM OVC050 04/M07 A2979 RMK T00401070 MADISHF
JFK,2020-01-01 20:51,-73.7622,40.6386,39.00,21.00,48.06,290.00,16.00,0.00,29.80,1009.10,10.00,M,OVC,M,M,M,5000.00,M,M,M,M,M,M,M,M,M,M,29.54,KJFK 012051Z 29016KT 10SM OVC050 04/M06 A2980 RMK AO2 SLP091 T00391061 53019 $
JFK,2020-01-01 20:55,-73.7622,40.6386,M,M,M,300.00,19.00,M,29.80,M,10.00,M,OVC,M,M,M,5000.00,M,M,M,M,M,M,M,M,M,M,M,KJFK 012055Z AUTO 30019KT 10SM OVC050 04/M06 A2979 RMK T00401060 MADISHF
JFK,2020-01-01 21:00,-73.7622,40.6386,M,M,M,290.00,17.00,M,29.81,M,10.00,M,OVC,M,M,M,5000.00,M,M,M,M,M,M,M,M,M,M,M,KJFK 012100Z AUTO 29017KT 10SM OVC050 04/M07 A2980 RMK T00401070 MADISHF
JFK,2020-01-01 21:05,-73.7622,40.6386,M,M,M,280.00,18.00,M,29.81,M,10.00,M,OVC,M,M,M,5000.00,M,M,M,M,M,M,M,M,M,M,M,KJFK 012105Z AUTO 28018KT 10SM OVC050 04/M07 A2980 RMK T00401070 MADISHF
JFK,2020-01-01 21:10,-73.7622,40.6386,M,M,M,280.00,17.00,M,29.81,M,10.00,M,OVC,M,M,M,5000.00,M,M,M,M,M,M,M,M,M,M,M,KJFK 012110Z AUTO 28017KT 10SM OVC050 04/M07 A2980 RMK T00401070 MADISHF
JFK,2020-01-01 21:15,-73.7622,40.6386,M,M,M,280.00,16.00,M,29.81,M,10.00,M,OVC,M,M,M,5000.00,M,M,M,M,M,M,M,M,M,M,M,KJFK 012115Z AUTO 28016KT 10SM OVC050 04/M07 A2980 RMK T00401070 MADISHF
JFK,2020-01-01 21:20,-73.7622,40.6386,M,M,M,300.00,18.00,M,29.81,M,10.00,M,OVC,M,M,M,5000.00,M,M,M,M,M,M,M,M,M,M,M,KJFK 012120Z AUTO 30018KT 10SM OVC050 04/M07 A2980 RMK T00401070 MADISHF
JFK,2020-01-01 21:25,-73.7622,40.6386,M,M,M,280.00,11.00,M,29.82,M,10.00,M,OVC,M,M,M,5000.00,M,M,M,M,M,M,M,M,M,M,M,KJFK 012125Z AUTO 28011KT 10SM OVC050 04/M06 A2981 RMK T00401060 MADISHF
JFK,2020-01-01 21:30,-73.7622,40.6386,M,M,M,270.00,11.00,M,29.82,M,10.00,M,OVC,M,M,M,5000.00,M,M,M,M,M,M,M,M,M,M,M,KJFK 012130Z AUTO 27011KT 10SM OVC050 04/M06 A2981 RMK T00401060 MADISHF
JFK,2020-01-01 21:35,-73.7622,40.6386,M,M,M,280.00,11.00,M,29.82,M,10.00,M,OVC,M,M,M,5000.00,M,M,M,M,M,M,M,M,M,M,M,KJFK 012135Z AUTO 28011KT 10SM OVC050 03/M06 A2981 RMK T00301060 MADISHF
JFK,2020-01-01 21:40,-73.7622,40.6386,M,M,M,280.00,15.00,M,29.82,M,10.00,M,OVC,M,M,M,5000.00,M,M,M,M,M,M,M,M,M,M,M,KJFK 012140Z AUTO 28015KT 10SM OVC050 03/M06 A2981 RMK T00301060 MADISHF
JFK,2020-01-01 21:45,-73.7622,40.6386,M,M,M,270.00,18.00,M,29.83,M,10.00,M,OVC,M,M,M,5000.00,M,M,M,M,M,M,M,M,M,M,M,KJFK 012145Z AUTO 27018KT 10SM OVC050 04/M06 A2982 RMK T00401060 MADISHF
JFK,2020-01-01 21:50,-73.7622,40.6386,M,M,M,270.00,16.00,M,29.83,M,10.00,M,BKN,M,M,M,5000.00,M,M,M,M,M,M,M,M,M,M,M,KJFK 012150Z AUTO 27016KT 10SM BKN050 03/M06 A2982 RMK T00301060 MADISHF
JFK,2020-01-01 21:51,-73.7622,40.6386,37.90,21.90,52.13,270.00,16.00,0.00,29.83,1010.20,10.00,23.00,BKN,M,M,M,5000.00,M,M,M,M,M,M,M,27.00,300.00,2020-01-01 21:17,28.11,KJFK 012151Z 27016G23KT 10SM BKN050 03/M06 A2983 RMK AO2 PK WND 30027/2117 SLP102 T00331056 $
JFK,2020-01-01 21:55,-73.7622,40.6386,M,M,M,270.00,16.00,M,29.83,M,10.00,M,OVC,M,M,M,5000.00,M,M,M,M,M,M,M,M,M,M,M,KJFK 012155Z AUTO 27016KT 10SM OVC050 03/M06 A2982 RMK T00301060 MADISHF
JFK,2020-01-01 22:00,-73.7622,40.6386,M,M,M,260.00,16.00,M,29.84,M,10.00,M,OVC,M,M,M,5000.00,M,M,M,M,M,M,M,M,M,M,M,KJFK 012200Z AUTO 26016KT 10SM OVC050 03/M06 A2984 RMK T00301060 MADISHF
JFK,2020-01-01 22:05,-73.7622,40.6386,M,M,M,270.00,15.00,M,29.84,M,10.00,M,OVC,M,M,M,5000.00,M,M,M,M,M,M,M,M,M,M,M,KJFK 012205Z AUTO 27015KT 10SM OVC050 03/M05 A2984 RMK T00301050 MADISHF
JFK,2020-01-01 22:10,-73.7622,40.6386,M,M,M,260.00,17.00,M,29.84,M,10.00,M,OVC,M,M,M,5000.00,M,M,M,M,M,M,M,M,M,M,M,KJFK 012210Z AUTO 26017KT 10SM OVC050 03/M05 A2984 RMK T00301050 MADISHF
JFK,2020-01-01 22:15,-73.7622,40.6386,M,M,M,270.00,15.00,M,29.84,M,10.00,M,OVC,M,M,M,5000.00,M,M,M,M,M,M,M,M,M,M,M,KJFK 012215Z AUTO 27015KT 10SM OVC050 03/M05 A2984 RMK T00301050 MADISHF
JFK,2020-01-01 22:20,-73.7622,40.6386,M,M,M,280.00,15.00,M,29.84,M,10.00,M,OVC,M,M,M,5000.00,M,M,M,M,M,M,M,M,M,M,M,KJFK 012220Z AUTO 28015KT 10SM OVC050 03/M06 A2984 RMK T00301060 MADISHF
JFK,2020-01-01 22:25,-73.7622,40.6386,M,M,M,260.00,16.00,M,29.84,M,10.00,M,OVC,M,M,M,5000.00,M,M,M,M,M,M,M,M,M,M,M,KJFK 012225Z AUTO 26016KT 10SM OVC050 03/M05 A2984 RMK T00301050 MADISHF
JFK,2020-01-01 22:30,-73.7622,40.6386,M,M,M,M,17.00,M,29.84,M,10.00,M,OVC,M,M,M,5000.00,M,M,M,M,M,M,M,M,M,M,M,KJFK 012230Z AUTO ///17KT 10SM OVC050 03/M06 A2984 RMK T00301060 MADISHF
JFK,2020-01-01 22:35,-73.7622,40.6386,M,M,M,M,18.00,M,29.84,M,10.00,M,OVC,M,M,M,5000.00,M,M,M,M,M,M,M,M,M,M,M,KJFK 012235Z AUTO ///18KT 10SM OVC050 03/M06 A2984 RMK T00301060 MADISHF
JFK,2020-01-01 22:40,-73.7622,40.6386,M,M,M,270.00,15.00,M,29.85,M,10.00,M,OVC,M,M,M,5000.00,M,M,M,M,M,M,M,M,M,M,M,KJFK 012240Z AUTO 27015KT 10SM OVC050 03/M06 A2985 RMK T00301060 MADISHF
JFK,2020-01-01 22:45,-73.7622,40.6386,M,M,M,270.00,16.00,M,29.85,M,10.00,M,OVC,M,M,M,5000.00,M,M,M,M,M,M,M,M,M,M,M,KJFK 012245Z AUTO 27016KT 10SM OVC050 03/M06 A2985 RMK T00301060 MADISHF
JFK,2020-01-01 22:50,-73.7622,40.6386,M,M,M,270.00,16.00,M,29.85,M,10.00,M,OVC,M,M,M,5000.00,M,M,M,M,M,M,M,M,M,M,M,KJFK 012250Z AUTO 27016KT 10SM OVC050 03/M06 A2985 RMK T00301060 MADISHF
JFK,2020-01-01 22:51,-73.7622,40.6386,37.90,21.90,52.13,270.00,16.00,0.00,29.85,1010.70,10.00,21.00,OVC,M,M,M,5000.00,M,M,M,M,M,M,M,M,M,M,28.11,KJFK 012251Z 27016G21KT 10SM OVC050 03/M06 A2985 RMK AO2 SLP107 T00331056 $
JFK,2020-01-01 22:55,-73.7622,40.6386,M,M,M,260.00,18.00,M,29.85,M,10.00,M,OVC,M,M,M,5000.00,M,M,M,M,M,M,M,M,M,M,M,KJFK 012255Z AUTO 26018KT 10SM OVC050 03/M06 A2985 RMK T00301060 MADISHF
JFK,2020-01-01 23:00,-73.7622,40.6386,M,M,M,280.00,13.00,M,29.85,M,10.00,M,OVC,M,M,M,5000.00,M,M,M,M,M,M,M,M,M,M,M,KJFK 012300Z AUTO 28013KT 10SM OVC050 03/M06 A2985 RMK T00301060 MADISHF
JFK,2020-01-01 23:05,-73.7622,40.6386,M,M,M,280.00,14.00,M,29.86,M,10.00,M,OVC,M,M,M,5000.00,M,M,M,M,M,M,M,M,M,M,M,KJFK 012305Z AUTO 28014KT 10SM OVC050 03/M06 A2986 RMK T00301060 MADISHF
JFK,2020-01-01 23:10,-73.7622,40.6386,M,M,M,270.00,13.00,M,29.86,M,10.00,M,OVC,M,M,M,5000.00,M,M,M,M,M,M,M,M,M,M,M,KJFK 012310Z AUTO 27013KT 10SM OVC050 03/M06 A2986 RMK T00301060 MADISHF
JFK,2020-01-01 23:15,-73.7622,40.6386,M,M,M,270.00,17.00,M,29.86,M,10.00,M,OVC,M,M,M,5000.00,M,M,M,M,M,M,M,M,M,M,M,KJFK 012315Z AUTO 27017KT 10SM OVC050 03/M06 A2986 RMK T00301060 MADISHF
JFK,2020-01-01 23:20,-73.7622,40.6386,M,M,M,270.00,16.00,M,29.86,M,10.00,M,OVC,M,M,M,5000.00,M,M,M,M,M,M,M,M,M,M,M,KJFK 012320Z AUTO 27016KT 10SM OVC050 03/M06 A2986 RMK T00301060 MADISHF
JFK,2020-01-01 23:25,-73.7622,40.6386,M,M,M,270.00,15.00,M,29.86,M,10.00,20.00,OVC,M,M,M,5000.00,M,M,M,M,M,M,M,M,M,M,M,KJFK 012325Z AUTO 27015G20KT 10SM OVC050 03/M06 A2986 RMK T00301060 MADISHF
JFK,2020-01-01 23:30,-73.7622,40.6386,M,M,M,270.00,14.00,M,29.86,M,10.00,M,OVC,M,M,M,5000.00,M,M,M,M,M,M,M,M,M,M,M,KJFK 012330Z AUTO 27014KT 10SM OVC050 03/M06 A2986 RMK T00301060 MADISHF
JFK,2020-01-01 23:35,-73.7622,40.6386,M,M,M,270.00,17.00,M,29.87,M,10.00,M,OVC,M,M,M,5000.00,M,M,M,M,M,M,M,M,M,M,M,KJFK 012335Z AUTO 27017KT 10SM OVC050 03/M06 A2987 RMK T00301060 MADISHF
JFK,2020-01-01 23:40,-73.7622,40.6386,M,M,M,270.00,17.00,M,29.87,M,10.00,M,OVC,M,M,M,5000.00,M,M,M,M,M,M,M,M,M,M,M,KJFK 012340Z AUTO 27017KT 10SM OVC050 03/M06 A2987 RMK T00301060 MADISHF
JFK,2020-01-01 23:45,-73.7622,40.6386,M,M,M,270.00,16.00,M,29.87,M,10.00,M,OVC,M,M,M,5000.00,M,M,M,M,M,M,M,M,M,M,M,KJFK 012345Z AUTO 27016KT 10SM OVC050 03/M06 A2987 RMK T00301060 MADISHF
JFK,2020-01-01 23:50,-73.7622,40.6386,M,M,M,270.00,14.00,M,29.87,M,10.00,19.00,BKN,M,M,M,5000.00,M,M,M,M,M,M,M,M,M,M,M,KJFK 012350Z AUTO 27014G19KT 10SM BKN050 03/M06 A2987 RMK T00301060 MADISHF
JFK,2020-01-01 23:51,-73.7622,40.6386,37.00,21.90,54.01,270.00,14.00,0.00,29.87,1011.40,10.00,M,BKN,M,M,M,5000.00,M,M,M,M,M,M,M,M,M,M,27.61,KJFK 012351Z 27014KT 10SM BKN050 03/M06 A2987 RMK AO2 SLP114 T00281056 10039 20028 51024 $
JFK,2020-01-01 23:55,-73.7622,40.6386,M,M,M,280.00,17.00,M,29.87,M,10.00,M,BKN,M,M,M,5000.00,M,M,M,M,M,M,M,M,M,M,M,KJFK 012355Z AUTO 28017KT 10SM BKN050 03/M06 A2987 RMK T00301060 MADISHF
JFK,2020-01-02 00:00,-73.7622,40.6386,M,M,M,270.00,16.00,M,29.87,M,10.00,M,BKN,M,M,M,5000.00,M,M,M,M,M,M,M,M,M,M,M,KJFK 020000Z AUTO 27016KT 10SM BKN050 03/M06 A2987 RMK T00301060 MADISHF
JFK,2020-01-02 00:05,-73.7622,40.6386,M,M,M,270.00,16.00,M,29.88,M,10.00,M,BKN,M,M,M,5000.00,M,M,M,M,M,M,M,M,M,M,M,KJFK 020005Z AUTO 27016KT 10SM BKN050 03/M06 A2987 RMK T00301060 MADISHF
JFK,2020-01-02 00:10,-73.7622,40.6386,M,M,M,270.00,15.00,M,29.88,M,10.00,M,BKN,M,M,M,5000.00,M,M,M,M,M,M,M,M,M,M,M,KJFK 020010Z AUTO 27015KT 10SM BKN050 03/M06 A2987 RMK T00301060 MADISHF
JFK,2020-01-02 00:15,-73.7622,40.6386,M,M,M,280.00,14.00,M,29.88,M,10.00,M,BKN,M,M,M,5000.00,M,M,M,M,M,M,M,M,M,M,M,KJFK 020015Z AUTO 28014KT 10SM BKN050 03/M06 A2987 RMK T00301060 MADISHF
JFK,2020-01-02 00:20,-73.7622,40.6386,M,M,M,280.00,17.00,M,29.88,M,10.00,M,BKN,M,M,M,4900.00,M,M,M,M,M,M,M,M,M,M,M,KJFK 020020Z AUTO 28017KT 10SM BKN049 03/M06 A2987 RMK T00301060 MADISHF
JFK,2020-01-02 00:25,-73.7622,40.6386,M,M,M,270.00,14.00,M,29.88,M,10.00,M,BKN,M,M,M,4900.00,M,M,M,M,M,M,M,M,M,M,M,KJFK 020025Z AUTO 27014KT 10SM BKN049 03/M06 A2987 RMK T00301060 MADISHF
JFK,2020-01-02 00:30,-73.7622,40.6386,M,M,M,270.00,15.00,M,29.89,M,10.00,M,BKN,M,M,M,4800.00,M,M,M,M,M,M,M,M,M,M,M,KJFK 020030Z AUTO 27015KT 10SM BKN048 03/M06 A2988 RMK T00301060 MADISHF
JFK,2020-01-02 00:35,-73.7622,40.6386,M,M,M,270.00,13.00,M,29.88,M,10.00,M,BKN,M,M,M,4800.00,M,M,M,M,M,M,M,M,M,M,M,KJFK 020035Z AUTO 27013KT 10SM BKN048 03/M06 A2987 RMK T00301060 MADISHF
JFK,2020-01-02 00:40,-73.7622,40.6386,M,M,M,270.00,15.00,M,29.88,M,10.00,M,BKN,M,M,M,4800.00,M,M,M,M,M,M,M,M,M,M,M,KJFK 020040Z AUTO 27015KT 10SM BKN048 03/M06 A2987 RMK T00301060 MADISHF
JFK,2020-01-02 00:45,-73.7622,40.6386,M,M,M,280.00,16.00,M,29.89,M,10.00,M,BKN,M,M,M,4700.00,M,M,M,M,M,M,M,M,M,M,M,KJFK 020045Z AUTO 28016KT 10SM BKN047 03/M06 A2988 RMK T00301060 MADISHF
JFK,2020-01-02 00:50,-73.7622,40.6386,M,M,M,270.00,16.00,M,29.89,M,10.00,M,SCT,M,M,M,4700.00,M,M,M,M,M,M,M,M,M,M,M,KJFK 020050Z AUTO 27016KT 10SM SCT047 03/M06 A2988 RMK T00301060 MADISHF
JFK,2020-01-02 00:51,-73.7622,40.6386,37.00,21.90,54.01,280.00,15.00,0.00,29.89,1012.00,10.00,22.00,SCT,M,M,M,4700.00,M,M,M,M,M,M,M,M,M,M,27.26,KJFK 020051Z 28015G22KT 10SM SCT047 03/M06 A2989 RMK AO2 SLP120 T00281056 $
JFK,2020-01-02 00:55,-73.7622,40.6386,M,M,M,270.00,11.00,M,29.89,M,10.00,M,FEW,M,M,M,4700.00,M,M,M,M,M,M,M,M,M,M,M,KJFK 020055Z AUTO 27011KT 10SM FEW047 03/M06 A2988 RMK T00301060 MADISHF
JFK,2020-01-02 01:00,-73.7622,40.6386,M,M,M,270.00,16.00,M,29.89,M,10.00,M,FEW,M,M,M,4700.00,M,M,M,M,M,M,M,M,M,M,M,KJFK 020100Z AUTO 27016KT 10SM FEW047 02/M06 A2988 RMK T00201060 MADISHF
JFK,2020-01-02 01:05,-73.7622,40.6386,M,M,M,270.00,14.00,M,29.89,M,10.00,M,FEW,M,M,M,4700.00,M,M,M,M,M,M,M,M,M,M,M,KJFK 020105Z AUTO 27014KT 10SM FEW047 02/M06 A2988 RMK T00201060 MADISHF
JFK,2020-01-02 01:10,-73.7622,40.6386,M,M,M,280.00,13.00,M,29.89,M,10.00,18.00,CLR,M,M,M,M,M,M,M,M,M,M,M,M,M,M,M,KJFK 020110Z AUTO 28013G18KT 10SM CLR 02/M06 A2988 RMK T00201060 MADISHF
JFK,2020-01-02 01:15,-73.7622,40.6386,M,M,M,270.00,15.00,M,29.89,M,10.00,M,CLR,M,M,M,M,M,M,M,M,M,M,M,M,M,M,M,KJFK 020115Z AUTO 27015KT 10SM CLR 02/M06 A2988 RMK T00201060 MADISHF
JFK,2020-01-02 01:20,-73.7622,40.6386,M,M,M,270.00,16.00,M,29.90,M,10.00,M,CLR,M,M,M,M,M,M,M,M,M,M,M,M,M,M,M,KJFK 020120Z AUTO 27016KT 10SM CLR 02/M06 A2989 RMK T00201060 MADISHF
JFK,2020-01-02 01:25,-73.7622,40.6386,M,M,M,280.00,15.00,M,29.90,M,10.00,M,CLR,M,M,M,M,M,M,M,M,M,M,M,M,M,M,M,KJFK 020125Z AUTO 28015KT 10SM CLR 02/M06 A2989 RMK T00201060 MADISHF
JFK,2020-01-02 01:30,-73.7622,40.6386,M,M,M,280.00,11.00,M,29.90,M,10.00,M,CLR,M,M,M,M,M,M,M,M,M,M,M,M,M,M,M,KJFK 020130Z AUTO 28011KT 10SM CLR 02/M06 A2989 RMK T00201060 MADISHF
JFK,2020-01-02 01:35,-73.7622,40.6386,M,M,M,280.00,11.00,M,29.90,M,10.00,M,CLR,M,M,M,M,M,M,M,M,M,M,M,M,M,M,M,KJFK 020135Z AUTO 28011KT 10SM CLR 02/M06 A2989 RMK T00201060 MADISHF
JFK,2020-01-02 01:40,-73.7622,40.6386,M,M,M,280.00,16.00,M,29.90,M,10.00,M,CLR,M,M,M,M,M,M,M,M,M,M,M,M,M,M,M,KJFK 020140Z AUTO 28016KT 10SM CLR 02/M06 A2989 RMK T00201060 MADISHF
JFK,2020-01-02 01:45,-73.7622,40.6386,M,M,M,290.00,11.00,M,29.90,M,10.00,M,CLR,M,M,M,M,M,M,M,M,M,M,M,M,M,M,M,KJFK 020145Z AUTO 29011KT 10SM CLR 02/M06 A2989 RMK T00201060 MADISHF
JFK,2020-01-02 01:50,-73.7622,40.6386,M,M,M,290.00,14.00,M,29.90,M,10.00,M,FEW,M,M,M,4700.00,M,M,M,M,M,M,M,M,M,M,M,KJFK 020150Z AUTO 29014KT 10SM FEW047 02/M06 A2989 RMK T00201060 MADISHF
JFK,2020-01-02 01:51,-73.7622,40.6386,36.00,21.00,54.08,290.00,15.00,0.00,29.90,1012.40,10.00,M,FEW,M,M,M,4700.00,M,M,M,M,M,M,M,M,M,M,25.97,KJFK 020151Z 29015KT 10SM FEW047 02/M06 A2990 RMK AO2 SLP124 T00221061 $
JFK,2020-01-02 01:55,-73.7622,40.6386,M,M,M,290.00,14.00,M,29.90,M,10.00,M,CLR,M,M,M,M,M,M,M,M,M,M,M,M,M,M,M,KJFK 020155Z AUTO 29014KT 10SM CLR 02/M06 A2989 RMK T00201060 MADISHF
JFK,2020-01-02 02:00,-73.7622,40.6386,M,M,M,290.00,13.00,M,29.90,M,10.00,M,CLR,M,M,M,M,M,M,M,M,M,M,M,M,M,M,M,KJFK 020200Z AUTO 29013KT 10SM CLR 02/M06 A2989 RMK T00201060 MADISHF
JFK,2020-01-02 02:05,-73.7622,40.6386,M,M,M,280.00,11.00,M,29.91,M,10.00,M,CLR,M,M,M,M,M,M,M,M,M,M,M,M,M,M,M,KJFK 020205Z AUTO 28011KT 10SM CLR 02/M06 A2990 RMK T00201060 MADISHF
JFK,2020-01-02 02:10,-73.7622,40.6386,M,M,M,280.00,11.00,M,29.91,M,10.00,M,CLR,M,M,M,M,M,M,M,M,M,M,M,M,M,M,M,KJFK 020210Z AUTO 28011KT 10SM CLR 02/M06 A2990 RMK T00201060 MADISHF
JFK,2020-01-02 02:15,-73.7622,40.6386,M,M,M,280.00,10.00,M,29.91,M,10.00,M,CLR,M,M,M,M,M,M,M,M,M,M,M,M,M,M,M,KJFK 020215Z AUTO 28010KT 10SM CLR 02/M06 A2990 RMK T00201060 MADISHF
JFK,2020-01-02 02:20,-73.7622,40.6386,M,M,M,290.00,11.00,M,29.91,M,10.00,M,CLR,M,M,M,M,M,M,M,M,M,M,M,M,M,M,M,KJFK 020220Z AUTO 29011KT 10SM CLR 02/M06 A2990 RMK T00201060 MADISHF
JFK,2020-01-02 02:25,-73.7622,40.6386,M,M,M,280.00,10.00,M,29.91,M,10.00,M,CLR,M,M,M,M,M,M,M,M,M,M,M,M,M,M,M,KJFK 020225Z AUTO 28010KT 10SM CLR 02/M06 A2990 RMK T00201060 MADISHF
JFK,2020-01-02 02:30,-73.7622,40.6386,M,M,M,280.00,10.00,M,29.91,M,10.00,M,CLR,M,M,M,M,M,M,M,M,M,M,M,M,M,M,M,KJFK 020230Z AUTO 28010KT 10SM CLR 02/M06 A2990 RMK T00201060 MADISHF
JFK,2020-01-02 02:35,-73.7622,40.6386,M,M,M,290.00,10.00,M,29.91,M,10.00,M,CLR,M,M,M,M,M,M,M,M,M,M,M,M,M,M,M,KJFK 020235Z AUTO 29010KT 10SM CLR 02/M06 A2990 RMK T00201060 MADISHF
JFK,2020-01-02 02:40,-73.7622,40.6386,M,M,M,290.00,11.00,M,29.91,M,10.00,M,CLR,M,M,M,M,M,M,M,M,M,M,M,M,M,M,M,KJFK 020240Z AUTO 29011KT 10SM CLR 02/M06 A2990 RMK T00201060 MADISHF
JFK,2020-01-02 02:45,-73.7622,40.6386,M,M,M,300.00,11.00,M,29.91,M,10.00,M,CLR,M,M,M,M,M,M,M,M,M,M,M,M,M,M,M,KJFK 020245Z AUTO 30011KT 10SM CLR 02/M06 A2990 RMK T00201060 MADISHF
JFK,2020-01-02 02:50,-73.7622,40.6386,M,M,M,300.00,10.00,M,29.91,M,10.00,M,FEW,M,M,M,4700.00,M,M,M,M,M,M,M,M,M,M,M,KJFK 020250Z AUTO 30010KT 10SM FEW047 02/M06 A2990 RMK T00201060 MADISHF
JFK,2020-01-02 02:51,-73.7622,40.6386,35.10,21.00,56.05,300.00,12.00,0.00,29.91,1012.90,10.00,M,FEW,M,M,M,4700.00,M,M,M,M,M,M,M,M,M,M,25.95,KJFK 020251Z 30012KT 10SM FEW047 02/M06 A2991 RMK AO2 SLP129 T00171061 51014 $
JFK,2020-01-02 02:55,-73.7622,40.6386,M,M,M,290.00,10.00,M,29.91,M,10.00,M,CLR,M,M,M,M,M,M,M,M,M,M,M,M,M,M,M,KJFK 020255Z AUTO 29010KT 10SM CLR 02/M06 A2990 RMK T00201060 MADISHF
JFK,2020-01-02 03:00,-73.7622,40.6386,M,M,M,290.00,9.00,M,29.92,M,10.00,M,CLR,M,M,M,M,M,M,M,M,M,M,M,M,M,M,M,KJFK 020300Z AUTO 29009KT 10SM CLR 02/M06 A2992 RMK T00201060 MADISHF
JFK,2020-01-02 03:05,-73.7622,40.6386,M,M,M,280.00,9.00,M,29.92,M,10.00,M,CLR,M,M,M,M,M,M,M,M,M,M,M,M,M,M,M,KJFK 020305Z AUTO 28009KT 10SM CLR 02/M06 A2992 RMK T00201060 MADISHF
JFK,2020-01-02 03:10,-73.7622,40.6386,M,M,M,290.00,11.00,M,29.92,M,10.00,M,CLR,M,M,M,M,M,M,M,M,M,M,M,M,M,M,M,KJFK 020310Z AUTO 29011KT 10SM CLR 02/M06 A2992 RMK T00201060 MADISHF
JFK,2020-01-02 03:15,-73.7622,40.6386,M,M,M,290.00,11.00,M,29.92,M,10.00,M,CLR,M,M,M,M,M,M,M,M,M,M,M,M,M,M,M,KJFK 020315Z AUTO 29011KT 10SM CLR 02/M06 A2992 RMK T00201060 MADISHF
JFK,2020-01-02 03:20,-73.7622,40.6386,M,M,M,280.00,11.00,M,29.92,M,10.00,M,CLR,M,M,M,M,M,M,M,M,M,M,M,M,M,M,M,KJFK 020320Z AUTO 28011KT 10SM CLR 02/M06 A2992 RMK T00201060 MADISHF
JFK,2020-01-02 03:25,-73.7622,40.6386,M,M,M,280.00,11.00,M,29.92,M,10.00,M,CLR,M,M,M,M,M,M,M,M,M,M,M,M,M,M,M,KJFK 020325Z AUTO 28011KT 10SM CLR 02/M07 A2992 RMK T00201070 MADISHF
JFK,2020-01-02 03:30,-73.7622,40.6386,M,M,M,290.00,9.00,M,29.92,M,10.00,M,CLR,M,M,M,M,M,M,M,M,M,M,M,M,M,M,M,KJFK 020330Z AUTO 29009KT 10SM CLR 02/M07 A2992 RMK T00201070 MADISHF
JFK,2020-01-02 03:35,-73.7622,40.6386,M,M,M,280.00,9.00,M,29.92,M,10.00,M,CLR,M,M,M,M,M,M,M,M,M,M,M,M,M,M,M,KJFK 020335Z AUTO 28009KT 10SM CLR 02/M07 A2992 RMK T00201070 MADISHF
JFK,2020-01-02 03:40,-73.7622,40.6386,M,M,M,280.00,10.00,M,29.92,M,10.00,M,CLR,M,M,M,M,M,M,M,M,M,M,M,M,M,M,M,KJFK 020340Z AUTO 28010KT 10SM CLR 02/M07 A2992 RMK T00201070 MADISHF
JFK,2020-01-02 03:45,-73.7622,40.6386,M,M,M,300.00,10.00,M,29.92,M,10.00,M,CLR,M,M,M,M,M,M,M,M,M,M,M,M,M,M,M,KJFK 020345Z AUTO 30010KT 10SM CLR 02/M07 A2992 RMK T00201070 MADISHF
JFK,2020-01-02 03:50,-73.7622,40.6386,M,M,M,300.00,11.00,M,29.92,M,10.00,M,CLR,M,M,M,M,M,M,M,M,M,M,M,M,M,M,M,KJFK 020350Z AUTO 30011KT 10SM CLR 02/M07 A2992 RMK T00201070 MADISHF
JFK,2020-01-02 03:51,-73.7622,40.6386,35.10,19.90,53.49,300.00,12.00,0.00,29.92,1013.00,10.00,M,CLR,M,M,M,M,M,M,M,M,M,M,M,M,M,M,25.95,KJFK 020351Z 30012KT 10SM CLR 02/M07 A2992 RMK AO2 SLP130 T00171067 $
JFK,2020-01-02 03:55,-73.7622,40.6386,M,M,M,290.00,8.00,M,29.92,M,10.00,M,CLR,M,M,M,M,M,M,M,M,M,M,M,M,M,M,M,KJFK 020355Z AUTO 29008KT 10SM CLR 02/M07 A2992 RMK T00201070 MADISHF
JFK,2020-01-02 04:00,-73.7622,40.6386,M,M,M,280.00,8.00,M,29.92,M,10.00,M,CLR,M,M,M,M,M,M,M,M,M,M,M,M,M,M,M,KJFK 020400Z AUTO 28008KT 10SM CLR 01/M07 A2992 RMK T00101070 MADISHF
JFK,2020-01-02 04:05,-73.7622,40.6386,M,M,M,280.00,8.00,M,29.92,M,10.00,M,CLR,M,M,M,M,M,M,M,M,M,M,M,M,M,M,M,KJFK 020405Z AUTO 28008KT 10SM CLR 01/M07 A2992 RMK T00101070 MADISHF
JFK,2020-01-02 04:10,-73.7622,40.6386,M,M,M,270.00,10.00,M,29.92,M,10.00,M,CLR,M,M,M,M,M,M,M,M,M,M,M,M,M,M,M,KJFK 020410Z AUTO 27010KT 10SM CLR 02/M07 A2992 RMK T00201070 MADISHF
JFK,2020-01-02 04:15,-73.7622,40.6386,M,M,M,280.00,9.00,M,29.92,M,10.00,M,CLR,M,M,M,M,M,M,M,M,M,M,M,M,M,M,M,KJFK 020415Z AUTO 28009KT 10SM CLR 02/M07 A2992 RMK T00201070 MADISHF
JFK,2020-01-02 04:20,-73.7622,40.6386,M,M,M,280.00,7.00,M,29.92,M,10.00,M,CLR,M,M,M,M,M,M,M,M,M,M,M,M,M,M,M,KJFK 020420Z AUTO 28007KT 10SM CLR 02/M07 A2992 RMK T00201070 MADISHF
JFK,2020-01-02 04:25,-73.7622,40.6386,M,M,M,280.00,8.00,M,29.92,M,10.00,M,CLR,M,M,M,M,M,M,M,M,M,M,M,M,M,M,M,KJFK 020425Z AUTO 28008KT 10SM CLR 01/M06 A2992 RMK T00101060 MADISHF
JFK,2020-01-02 04:30,-73.7622,40.6386,M,M,M,270.00,8.00,M,29.92,M,10.00,M,CLR,M,M,M,M,M,M,M,M,M,M,M,M,M,M,M,KJFK 020430Z AUTO 27008KT 10SM CLR 02/M06 A2992 RMK T00201060 MADISHF
JFK,2020-01-02 04:35,-73.7622,40.6386,M,M,M,260.00,8.00,M,29.93,M,10.00,M,CLR,M,M,M,M,M,M,M,M,M,M,M,M,M,M,M,KJFK 020435Z AUTO 26008KT 10SM CLR 01/M06 A2993 RMK T00101060 MADISHF
JFK,2020-01-02 04:40,-73.7622,40.6386,M,M,M,260.00,9.00,M,29.93,M,10.00,M,CLR,M,M,M,M,M,M,M,M,M,M,M,M,M,M,M,KJFK 020440Z AUTO 26009KT 10SM CLR 01/M06 A2993 RMK T00101060 MADISHF
JFK,2020-01-02 04:45,-73.7622,40.6386,M,M,M,260.00,9.00,M,29.93,M,10.00,M,CLR,M,M,M,M,M,M,M,M,M,M,M,M,M,M,M,KJFK 020445Z AUTO 26009KT 10SM CLR 01/M06 A2993 RMK T00101060 MADISHF
JFK,2020-01-02 04:50,-73.7622,40.6386,M,M,M,270.00,10.00,M,29.93,M,10.00,M,CLR,M,M,M,M,M,M,M,M,M,M,M,M,M,M,M,KJFK 020450Z AUTO 27010KT 10SM CLR 01/M06 A2993 RMK T00101060 MADISHF
JFK,2020-01-02 04:51,-73.7622,40.6386,34.00,21.90,60.83,270.00,10.00,0.00,29.93,1013.40,10.00,M,CLR,M,M,M,M,M,M,M,M,M,M,M,M,M,M,25.48,KJFK 020451Z 27010KT 10SM CLR 01/M06 A2993 RMK AO2 SLP134 T00111056 400560011 $
JFK,2020-01-02 04:55,-73.7622,40.6386,M,M,M,270.00,8.00,M,29.93,M,10.00,M,CLR,M,M,M,M,M,M,M,M,M,M,M,M,M,M,M,KJFK 020455Z AUTO 27008KT 10SM CLR 01/M06 A2993 RMK T00101060 MADISHF
JFK,2020-01-02 05:00,-73.7622,40.6386,M,M,M,270.00,8.00,M,29.93,M,10.00,M,CLR,M,M,M,M,M,M,M,M,M,M,M,M,M,M,M,KJFK 020500Z AUTO 27008KT 10SM CLR 01/M06 A2993 RMK T00101060 MADISHF
JFK,2020-01-02 05:05,-73.7622,40.6386,M,M,M,260.00,9.00,M,29.93,M,10.00,M,CLR,M,M,M,M,M,M,M,M,M,M,M,M,M,M,M,KJFK 020505Z AUTO 26009KT 10SM CLR 01/M06 A2993 RMK T00101060 MADISHF
JFK,2020-01-02 05:10,-73.7622,40.6386,M,M,M,270.00,8.00,M,29.92,M,10.00,M,CLR,M,M,M,M,M,M,M,M,M,M,M,M,M,M,M,KJFK 020510Z AUTO 27008KT 10SM CLR 01/M06 A2992 RMK T00101060 MADISHF
JFK,2020-01-02 05:15,-73.7622,40.6386,M,M,M,280.00,7.00,M,29.92,M,10.00,M,CLR,M,M,M,M,M,M,M,M,M,M,M,M,M,M,M,KJFK 020515Z AUTO 28007KT 10SM CLR 01/M06 A2992 RMK T00101060 MADISHF
JFK,2020-01-02 05:20,-73.7622,40.6386,M,M,M,260.00,8.00,M,29.92,M,10.00,M,CLR,M,M,M,M,M,M,M,M,M,M,M,M,M,M,M,KJFK 020520Z AUTO 26008KT 10SM CLR 01/M06 A2992 RMK T00101060 MADISHF
JFK,2020-01-02 05:25,-73.7622,40.6386,M,M,M,270.00,10.00,M,29.92,M,10.00,M,CLR,M,M,M,M,M,M,M,M,M,M,M,M,M,M,M,KJFK 020525Z AUTO 27010KT 10SM CLR 01/M06 A2992 RMK T00101060 MADISHF
JFK,2020-01-02 05:30,-73.7622,40.6386,M,M,M,270.00,9.00,M,29.92,M,10.00,M,CLR,M,M,M,M,M,M,M,M,M,M,M,M,M,M,M,KJFK 020530Z AUTO 27009KT 10SM CLR 01/M06 A2992 RMK T00101060 MADISHF
JFK,2020-01-02 05:35,-73.7622,40.6386,M,M,M,260.00,10.00,M,29.92,M,10.00,M,CLR,M,M,M,M,M,M,M,M,M,M,M,M,M,M,M,KJFK 020535Z AUTO 26010KT 10SM CLR 01/M06 A2992 RMK T00101060 MADISHF
JFK,2020-01-02 05:40,-73.7622,40.6386,M,M,M,260.00,9.00,M,29.93,M,10.00,M,CLR,M,M,M,M,M,M,M,M,M,M,M,M,M,M,M,KJFK 020540Z AUTO 26009KT 10SM CLR 01/M06 A2993 RMK T00101060 MADISHF
JFK,2020-01-02 05:45,-73.7622,40.6386,M,M,M,240.00,9.00,M,29.93,M,10.00,M,CLR,M,M,M,M,M,M,M,M,M,M,M,M,M,M,M,KJFK 020545Z AUTO 24009KT 10SM CLR 01/M06 A2993 RMK T00101060 MADISHF
JFK,2020-01-02 05:50,-73.7622,40.6386,M,M,M,250.00,10.00,M,29.93,M,10.00,M,CLR,M,M,M,M,M,M,M,M,M,M,M,M,M,M,M,KJFK 020550Z AUTO 25010KT 10SM CLR 01/M05 A2993 RMK T00101050 MADISHF
JFK,2020-01-02 05:51,-73.7622,40.6386,33.10,23.00,66.06,250.00,9.00,0.00,29.93,1013.30,10.00,M,CLR,M,M,M,M,M,M,M,M,M,M,M,M,M,M,24.88,KJFK 020551Z 25009KT 10SM CLR 01/M05 A2993 RMK AO2 SLP133 T00061050 10028 20006 51005 $
JFK,2020-01-02 05:55,-73.7622,40.6386,M,M,M,240.00,9.00,M,29.93,M,10.00,M,CLR,M,M,M,M,M,M,M,M,M,M,M,M,M,M,M,KJFK 020555Z AUTO 24009KT 10SM CLR 01/M05 A2993 RMK T00101050 MADISHF
JFK,2020-01-02 06:00,-73.7622,40.6386,M,M,M,240.00,10.00,M,29.93,M,10.00,M,CLR,M,M,M,M,M,M,M,M,M,M,M,M,M,M,M,KJFK 020600Z AUTO 24010KT 10SM CLR 00/M05 A2993 RMK T00001050 MADISHF
JFK,2020-01-02 06:05,-73.7622,40.6386,M,M,M,240.00,10.00,M,29.93,M,10.00,M,CLR,M,M,M,M,M,M,M,M,M,M,M,M,M,M,M,KJFK 020605Z AUTO 24010KT 10SM CLR 00/M05 A2993 RMK T00001050 MADISHF
JFK,2020-01-02 06:10,-73.7622,40.6386,M,M,M,240.00,11.00,M,29.93,M,10.00,M,CLR,M,M,M,M,M,M,M,M,M,M,M,M,M,M,M,KJFK 020610Z AUTO 24011KT 10SM CLR 00/M04 A2993 RMK T00001040 MADISHF
JFK,2020-01-02 06:15,-73.7622,40.6386,M,M,M,240.00,10.00,M,29.93,M,10.00,M,CLR,M,M,M,M,M,M,M,M,M,M,M,M,M,M,M,KJFK 020615Z AUTO 24010KT 10SM CLR 00/M04 A2993 RMK T00001040 MADISHF
JFK,2020-01-02 06:20,-73.7622,40.6386,M,M,M,250.00,10.00,M,29.93,M,10.00,M,CLR,M,M,M,M,M,M,M,M,M,M,M,M,M,M,M,KJFK 020620Z AUTO 25010KT 10SM CLR 00/M04 A2993 RMK T00001040 MADISHF
JFK,2020-01-02 06:25,-73.7622,40.6386,M,M,M,250.00,13.00,M,29.94,M,10.00,M,CLR,M,M,M,M,M,M,M,M,M,M,M,M,M,M,M,KJFK 020625Z AUTO 25013KT 10SM CLR 01/M04 A2994 RMK T00101040 MADISHF
JFK,2020-01-02 06:30,-73.7622,40.6386,M,M,M,250.00,11.00,M,29.93,M,10.00,M,CLR,M,M,M,M,M,M,M,M,M,M,M,M,M,M,M,KJFK 020630Z AUTO 25011KT 10SM CLR 01/M04 A2993 RMK T00101040 MADISHF
JFK,2020-01-02 06:35,-73.7622,40.6386,M,M,M,250.00,11.00,M,29.94,M,10.00,M,CLR,M,M,M,M,M,M,M,M,M,M,M,M,M,M,M,KJFK 020635Z AUTO 25011KT 10SM CLR 01/M04 A2994 RMK T00101040 MADISHF
JFK,2020-01-02 06:40,-73.7622,40.6386,M,M,M,260.00,10.00,M,29.94,M,10.00,M,CLR,M,M,M,M,M,M,M,M,M,M,M,M,M,M,M,KJFK 020640Z AUTO 26010KT 10SM CLR 01/M04 A2994 RMK T00101040 MADISHF
JFK,2020-01-02 06:45,-73.7622,40.6386,M,M,M,250.00,11.00,M,29.94,M,10.00,M,CLR,M,M,M,M,M,M,M,M,M,M,M,M,M,M,M,KJFK 020645Z AUTO 25011KT 10SM CLR 01/M04 A2994 RMK T00101040 MADISHF
JFK,2020-01-02 06:50,-73.7622,40.6386,M,M,M,250.00,10.00,M,29.95,M,10.00,M,CLR,M,M,M,M,M,M,M,M,M,M,M,M,M,M,M,KJFK 020650Z AUTO 25010KT 10SM CLR 01/M04 A2995 RMK T00101040 MADISHF
JFK,2020-01-02 06:51,-73.7622,40.6386,33.10,24.10,69.17,250.00,10.00,0.00,29.95,1014.10,10.00,M,CLR,M,M,M,M,M,M,M,M,M,M,M,M,M,M,24.35,KJFK 020651Z 25010KT 10SM CLR 01/M04 A2995 RMK AO2 SLP141 T00061044 $
JFK,2020-01-02 06:55,-73.7622,40.6386,M,M,M,250.00,11.00,M,29.95,M,10.00,M,CLR,M,M,M,M,M,M,M,M,M,M,M,M,M,M,M,KJFK 020655Z AUTO 25011KT 10SM CLR 01/M04 A2995 RMK T00101040 MADISHF
JFK,2020-01-02 07:00,-73.7622,40.6386,M,M,M,250.00,11.00,M,29.95,M,10.00,M,CLR,M,M,M,M,M,M,M,M,M,M,M,M,M,M,M,KJFK 020700Z AUTO 25011KT 10SM CLR 01/M04 A2995 RMK T00101040 MADISHF
JFK,2020-01-02 07:05,-73.7622,40.6386,M,M,M,250.00,11.00,M,29.95,M,10.00,M,CLR,M,M,M,M,M,M,M,M,M,M,M,M,M,M,M,KJFK 020705Z AUTO 25011KT 10SM CLR 01/M04 A2995 RMK T00101040 MADISHF
JFK,2020-01-02 07:10,-73.7622,40.6386,M,M,M,250.00,11.00,M,29.95,M,10.00,M,CLR,M,M,M,M,M,M,M,M,M,M,M,M,M,M,M,KJFK 020710Z AUTO 25011KT 10SM CLR 01/M04 A2995 RMK T00101040 MADISHF
JFK,2020-01-02 07:15,-73.7622,40.6386,M,M,M,250.00,11.00,M,29.95,M,10.00,M,CLR,M,M,M,M,M,M,M,M,M,M,M,M,M,M,M,KJFK 020715Z AUTO 25011KT 10SM CLR 01/M04 A2995 RMK T00101040 MADISHF
JFK,2020-01-02 07:20,-73.7622,40.6386,M,M,M,250.00,10.00,M,29.95,M,10.00,M,CLR,M,M,M,M,M,M,M,M,M,M,M,M,M,M,M,KJFK 020720Z AUTO 25010KT 10SM CLR 01/M04 A2995 RMK T00101040 MADISHF
JFK,2020-01-02 07:25,-73.7622,40.6386,M,M,M,250.00,11.00,M,29.95,M,10.00,M,CLR,M,M,M,M,M,M,M,M,M,M,M,M,M,M,M,KJFK 020725Z AUTO 25011KT 10SM CLR 01/M04 A2995 RMK T00101040 MADISHF
JFK,2020-01-02 07:30,-73.7622,40.6386,M,M,M,250.00,10.00,M,29.95,M,10.00,M,CLR,M,M,M,M,M,M,M,M,M,M,M,M,M,M,M,KJFK 020730Z AUTO 25010KT 10SM CLR 01/M04 A2995 RMK T00101040 MADISHF
JFK,2020-01-02 07:35,-73.7622,40.6386,M,M,M,250.00,10.00,M,29.95,M,10.00,M,CLR,M,M,M,M,M,M,M,M,M,M,M,M,M,M,M,KJFK 020735Z AUTO 25010KT 10SM CLR 01/M04 A2995 RMK T00101040 MADISHF
JFK,2020-01-02 07:40,-73.7622,40.6386,M,M,M,250.00,10.00,M,29.95,M,10.00,M,CLR,M,M,M,M,M,M,M,M,M,M,M,M,M,M,M,KJFK 020740Z AUTO 25010KT 10SM CLR 01/M04 A2995 RMK T00101040 MADISHF
JFK,2020-01-02 07:45,-73.7622,40.6386,M,M,M,250.00,10.00,M,29.95,M,10.00,M,CLR,M,M,M,M,M,M,M,M,M,M,M,M,M,M,M,KJFK 020745Z AUTO 25010KT 10SM CLR 01/M04 A2995 RMK T00101040 MADISHF
JFK,2020-01-02 07:50,-73.7622,40.6386,M,M,M,250.00,9.00,M,29.95,M,10.00,M,CLR,M,M,M,M,M,M,M,M,M,M,M,M,M,M,M,KJFK 020750Z AUTO 25009KT 10SM CLR 01/M04 A2995 RMK T00101040 MADISHF
JFK,2020-01-02 07:51,-73.7622,40.6386,33.10,24.10,69.17,250.00,9.00,0.00,29.95,1014.30,10.00,M,CLR,M,M,M,M,M,M,M,M,M,M,M,M,M,M,24.88,KJFK 020751Z 25009KT 10SM CLR 01/M04 A2995 RMK AO2 SLP143 T00061044 $
JFK,2020-01-02 07:55,-73.7622,40.6386,M,M,M,250.00,9.00,M,29.95,M,10.00,M,CLR,M,M,M,M,M,M,M,M,M,M,M,M,M,M,M,KJFK 020755Z AUTO 25009KT 10SM CLR 01/M04 A2995 RMK T00101040 MADISHF
JFK,2020-01-02 08:00,-73.7622,40.6386,M,M,M,250.00,9.00,M,29.96,M,10.00,M,CLR,M,M,M,M,M,M,M,M,M,M,M,M,M,M,M,KJFK 020800Z AUTO 25009KT 10SM CLR 00/M04 A2995 RMK T00001040 MADISHF
JFK,2020-01-02 08:05,-73.7622,40.6386,M,M,M,250.00,9.00,M,29.96,M,10.00,M,CLR,M,M,M,M,M,M,M,M,M,M,M,M,M,M,M,KJFK 020805Z AUTO 25009KT 10SM CLR 01/M04 A2995 RMK T00101040 MADISHF
JFK,2020-01-02 08:10,-73.7622,40.6386,M,M,M,250.00,8.00,M,29.96,M,10.00,M,CLR,M,M,M,M,M,M,M,M,M,M,M,M,M,M,M,KJFK 020810Z AUTO 25008KT 10SM CLR 00/M04 A2995 RMK T00001040 MADISHF
JFK,2020-01-02 08:15,-73.7622,40.6386,M,M,M,250.00,10.00,M,29.96,M,10.00,M,CLR,M,M,M,M,M,M,M,M,M,M,M,M,M,M,M,KJFK 020815Z AUTO 25010KT 10SM CLR 00/M04 A2995 RMK T00001040 MADISHF
JFK,2020-01-02 08:20,-73.7622,40.6386,M,M,M,260.00,9.00,M,29.96,M,10.00,M,CLR,M,M,M,M,M,M,M,M,M,M,M,M,M,M,M,KJFK 020820Z AUTO 26009KT 10SM CLR 01/M04 A2995 RMK T00101040 MADISHF
JFK,2020-01-02 08:25,-73.7622,40.6386,M,M,M,250.00,10.00,M,29.96,M,10.00,M,CLR,M,M,M,M,M,M,M,M,M,M,M,M,M,M,M,KJFK 020825Z AUTO 25010KT 10SM CLR 00/M04 A2995 RMK T00001040 MADISHF
JFK,2020-01-02 08:30,-73.7622,40.6386,M,M,M,250.00,9.00,M,29.96,M,10.00,M,CLR,M,M,M,M,M,M,M,M,M,M,M,M,M,M,M,KJFK 020830Z AUTO 25009KT 10SM CLR 01/M04 A2995 RMK T00101040 MADISHF
JFK,2020-01-02 08:35,-73.7622,40.6386,M,M,M,250.00,10.00,M,29.96,M,10.00,M,M,M,M,M,M,M,M,M,M,M,M,M,M,M,M,M,KJFK 020835Z AUTO 25010KT 10SM 00/M04 A2995 RMK T00001040 MADISHF
JFK,2020-01-02 08:40,-73.7622,40.6386,M,M,M,260.00,9.00,M,29.96,M,10.00,M,M,M,M,M,M,M,M,M,M,M,M,M,M,M,M,M,KJFK 020840Z AUTO 26009KT 10SM 01/M04 A2995 RMK T00101040 MADISHF
JFK,2020-01-02 08:45,-73.7622,40.6386,M,M,M,260.00,10.00,M,29.96,M,10.00,M,M,M,M,M,M,M,M,M,M,M,M,M,M,M,M,M,KJFK 020845Z AUTO 26010KT 10SM 01/M04 A2995 RMK T00101040 MADISHF
JFK,2020-01-02 08:50,-73.7622,40.6386,M,M,M,250.00,11.00,M,29.96,M,10.00,M,M,M,M,M,M,M,M,M,M,M,M,M,M,M,M,M,KJFK 020850Z AUTO 25011KT 10SM 01/M04 A2995 RMK T00101040 MADISHF
JFK,2020-01-02 08:51,-73.7622,40.6386,33.10,25.00,71.82,260.00,11.00,0.00,29.96,1014.50,10.00,M,FEW,M,M,M,25000.00,M,M,M,M,M,M,M,M,M,M,23.86,KJFK 020851Z 26011KT 10SM FEW250 01/M04 A2996 RMK AO2 SLP145 T00061039 51012 $
JFK,2020-01-02 08:55,-73.7622,40.6386,M,M,M,260.00,10.00,M,29.96,M,10.00,M,CLR,M,M,M,M,M,M,M,M,M,M,M,M,M,M,M,KJFK 020855Z AUTO 26010KT 10SM CLR 01/M04 A2995 RMK T00101040 MADISHF
JFK,2020-01-02 09:00,-73.7622,40.6386,M,M,M,250.00,10.00,M,29.96,M,10.00,M,CLR,M,M,M,M,M,M,M,M,M,M,M,M,M,M,M,KJFK 020900Z AUTO 25010KT 10SM CLR 01/M04 A2995 RMK T00101040 MADISHF
JFK,2020-01-02 09:05,-73.7622,40.6386,M,M,M,250.00,10.00,M,29.95,M,10.00,M,CLR,M,M,M,M,M,M,M,M,M,M,M,M,M,M,M,KJFK 020905Z AUTO 25010KT 10SM CLR 01/M04 A2995 RMK T00101040 MADISHF
JFK,2020-01-02 09:10,-73.7622,40.6386,M,M,M,250.00,10.00,M,29.95,M,10.00,M,CLR,M,M,M,M,M,M,M,M,M,M,M,M,M,M,M,KJFK 020910Z AUTO 25010KT 10SM CLR 01/M04 A2995 RMK T00101040 MADISHF
JFK,2020-01-02 09:15,-73.7622,40.6386,M,M,M,250.00,10.00,M,29.95,M,10.00,M,CLR,M,M,M,M,M,M,M,M,M,M,M,M,M,M,M,KJFK 020915Z AUTO 25010KT 10SM CLR 01/M04 A2995 RMK T00101040 MADISHF
JFK,2020-01-02 09:20,-73.7622,40.6386,M,M,M,250.00,9.00,M,29.96,M,10.00,M,CLR,M,M,M,M,M,M,M,M,M,M,M,M,M,M,M,KJFK 020920Z AUTO 25009KT 10SM CLR 01/M04 A2995 RMK T00101040 MADISHF
JFK,2020-01-02 09:25,-73.7622,40.6386,M,M,M,250.00,10.00,M,29.96,M,10.00,M,CLR,M,M,M,M,M,M,M,M,M,M,M,M,M,M,M,KJFK 020925Z AUTO 25010KT 10SM CLR 00/M04 A2995 RMK T00001040 MADISHF
JFK,2020-01-02 09:30,-73.7622,40.6386,M,M,M,250.00,10.00,M,29.96,M,10.00,M,CLR,M,M,M,M,M,M,M,M,M,M,M,M,M,M,M,KJFK 020930Z AUTO 25010KT 10SM CLR 01/M04 A2995 RMK T00101040 MADISHF
JFK,2020-01-02 09:35,-73.7622,40.6386,M,M,M,260.00,11.00,M,29.96,M,10.00,M,M,M,M,M,M,M,M,M,M,M,M,M,M,M,M,M,KJFK 020935Z AUTO 26011KT 10SM 01/M04 A2995 RMK T00101040 MADISHF
JFK,2020-01-02 09:40,-73.7622,40.6386,M,M,M,260.00,11.00,M,29.96,M,10.00,M,M,M,M,M,M,M,M,M,M,M,M,M,M,M,M,M,KJFK 020940Z AUTO 26011KT 10SM 01/M04 A2995 RMK T00101040 MADISHF
JFK,2020-01-02 09:45,-73.7622,40.6386,M,M,M,260.00,11.00,M,29.97,M,10.00,M,M,M,M,M,M,M,M,M,M,M,M,M,M,M,M,M,KJFK 020945Z AUTO 26011KT 10SM 01/M04 A2996 RMK T00101040 MADISHF
JFK,2020-01-02 09:50,-73.7622,40.6386,M,M,M,260.00,11.00,M,29.97,M,10.00,M,M,M,M,M,M,M,M,M,M,M,M,M,M,M,M,M,KJFK 020950Z AUTO 26011KT 10SM 01/M04 A2996 RMK T00101040 MADISHF
JFK,2020-01-02 09:51,-73.7622,40.6386,33.10,25.00,71.82,260.00,11.00,0.00,29.97,1014.80,10.00,M,FEW,M,M,M,25000.00,M,M,M,M,M,M,M,M,M,M,23.86,KJFK 020951Z 26011KT 10SM FEW250 01/M04 A2997 RMK AO2 SLP148 T00061039 $
JFK,2020-01-02 09:55,-73.7622,40.6386,M,M,M,250.00,11.00,M,29.97,M,10.00,M,CLR,M,M,M,M,M,M,M,M,M,M,M,M,M,M,M,KJFK 020955Z AUTO 25011KT 10SM CLR 01/M04 A2996 RMK T00101040 MADISHF
JFK,2020-01-02 10:00,-73.7622,40.6386,M,M,M,250.00,11.00,M,29.97,M,10.00,M,CLR,M,M,M,M,M,M,M,M,M,M,M,M,M,M,M,KJFK 021000Z AUTO 25011KT 10SM CLR 01/M04 A2996 RMK T00101040 MADISHF
JFK,2020-01-02 10:05,-73.7622,40.6386,M,M,M,250.00,11.00,M,29.97,M,10.00,M,CLR,M,M,M,M,M,M,M,M,M,M,M,M,M,M,M,KJFK 021005Z AUTO 25011KT 10SM CLR 01/M04 A2996 RMK T00101040 MADISHF
JFK,2020-01-02 10:10,-73.7622,40.6386,M,M,M,260.00,11.00,M,29.97,M,10.00,M,CLR,M,M,M,M,M,M,M,M,M,M,M,M,M,M,M,KJFK 021010Z AUTO 26011KT 10SM CLR 01/M04 A2996 RMK T00101040 MADISHF
JFK,2020-01-02 10:15,-73.7622,40.6386,M,M,M,260.00,11.00,M,29.98,M,10.00,M,CLR,M,M,M,M,M,M,M,M,M,M,M,M,M,M,M,KJFK 021015Z AUTO 26011KT 10SM CLR 01/M04 A2997 RMK T00101040 MADISHF
JFK,2020-01-02 10:20,-73.7622,40.6386,M,M,M,260.00,11.00,M,29.98,M,10.00,M,CLR,M,M,M,M,M,M,M,M,M,M,M,M,M,M,M,KJFK 021020Z AUTO 26011KT 10SM CLR 01/M04 A2997 RMK T00101040 MADISHF
JFK,2020-01-02 10:25,-73.7622,40.6386,M,M,M,260.00,11.00,M,29.98,M,10.00,M,CLR,M,M,M,M,M,M,M,M,M,M,M,M,M,M,M,KJFK 021025Z AUTO 26011KT 10SM CLR 01/M04 A2997 RMK T00101040 MADISHF
JFK,2020-01-02 10:30,-73.7622,40.6386,M,M,M,260.00,11.00,M,29.98,M,10.00,M,CLR,M,M,M,M,M,M,M,M,M,M,M,M,M,M,M,KJFK 021030Z AUTO 26011KT 10SM CLR 01/M04 A2997 RMK T00101040 MADISHF
JFK,2020-01-02 10:35,-73.7622,40.6386,M,M,M,260.00,8.00,M,29.98,M,10.00,M,CLR,M,M,M,M,M,M,M,M,M,M,M,M,M,M,M,KJFK 021035Z AUTO 26008KT 10SM CLR 01/M04 A2997 RMK T00101040 MADISHF
JFK,2020-01-02 10:40,-73.7622,40.6386,M,M,M,250.00,8.00,M,29.98,M,10.00,M,CLR,M,M,M,M,M,M,M,M,M,M,M,M,M,M,M,KJFK 021040Z AUTO 25008KT 10SM CLR 00/M04 A2997 RMK T00001040 MADISHF
JFK,2020-01-02 10:45,-73.7622,40.6386,M,M,M,250.00,9.00,M,29.98,M,10.00,M,M,M,M,M,M,M,M,M,M,M,M,M,M,M,M,M,KJFK 021045Z AUTO 25009KT 10SM 01/M04 A2997 RMK T00101040 MADISHF
JFK,2020-01-02 10:50,-73.7622,40.6386,M,M,M,250.00,10.00,M,29.98,M,10.00,M,M,M,M,M,M,M,M,M,M,M,M,M,M,M,M,M,KJFK 021050Z AUTO 25010KT 10SM 01/M04 A2997 RMK T00101040 MADISHF
JFK,2020-01-02 10:51,-73.7622,40.6386,33.10,25.00,71.82,250.00,10.00,0.00,29.98,1015.20,10.00,M,FEW,M,M,M,25000.00,M,M,M,M,M,M,M,M,M,M,24.35,KJFK 021051Z 25010KT 10SM FEW250 01/M04 A2998 RMK AO2 SLP152 T00061039 $
JFK,2020-01-02 10:55,-73.7622,40.6386,M,M,M,250.00,10.00,M,29.98,M,10.00,M,CLR,M,M,M,M,M,M,M,M,M,M,M,M,M,M,M,KJFK 021055Z AUTO 25010KT 10SM CLR 01/M04 A2997 RMK T00101040 MADISHF
JFK,2020-01-02 11:00,-73.7622,40.6386,M,M,M,240.00,10.00,M,29.98,M,10.00,M,CLR,M,M,M,M,M,M,M,M,M,M,M,M,M,M,M,KJFK 021100Z AUTO 24010KT 10SM CLR 01/M04 A2997 RMK T00101040 MADISHF
JFK,2020-01-02 11:05,-73.7622,40.6386,M,M,M,240.00,10.00,M,29.98,M,10.00,M,CLR,M,M,M,M,M,M,M,M,M,M,M,M,M,M,M,KJFK 021105Z AUTO 24010KT 10SM CLR 00/M04 A2997 RMK T00001040 MADISHF
JFK,2020-01-02 11:10,-73.7622,40.6386,M,M,M,240.00,10.00,M,29.99,M,10.00,M,CLR,M,M,M,M,M,M,M,M,M,M,M,M,M,M,M,KJFK 021110Z AUTO 24010KT 10SM CLR 00/M04 A2998 RMK T00001040 MADISHF
JFK,2020-01-02 11:15,-73.7622,40.6386,M,M,M,250.00,9.00,M,29.99,M,10.00,M,CLR,M,M,M,M,M,M,M,M,M,M,M,M,M,M,M,KJFK 021115Z AUTO 25009KT 10SM CLR 00/M04 A2998 RMK T00001040 MADISHF
JFK,2020-01-02 11:20,-73.7622,40.6386,M,M,M,240.00,9.00,M,29.99,M,10.00,M,CLR,M,M,M,M,M,M,M,M,M,M,M,M,M,M,M,KJFK 021120Z AUTO 24009KT 10SM CLR 00/M04 A2998 RMK T00001040 MADISHF
JFK,2020-01-02 11:25,-73.7622,40.6386,M,M,M,250.00,8.00,M,29.99,M,10.00,M,CLR,M,M,M,M,M,M,M,M,M,M,M,M,M,M,M,KJFK 021125Z AUTO 25008KT 10SM CLR 00/M04 A2998 RMK T00001040 MADISHF
JFK,2020-01-02 11:30,-73.7622,40.6386,M,M,M,250.00,9.00,M,29.99,M,10.00,M,CLR,M,M,M,M,M,M,M,M,M,M,M,M,M,M,M,KJFK 021130Z AUTO 25009KT 10SM CLR 00/M04 A2998 RMK T00001040 MADISHF
JFK,2020-01-02 11:35,-73.7622,40.6386,M,M,M,240.00,8.00,M,29.98,M,10.00,M,CLR,M,M,M,M,M,M,M,M,M,M,M,M,M,M,M,KJFK 021135Z AUTO 24008KT 10SM CLR 00/M03 A2997 RMK T00001030 MADISHF
JFK,2020-01-02 11:40,-73.7622,40.6386,M,M,M,240.00,9.00,M,29.99,M,10.00,M,CLR,M,M,M,M,M,M,M,M,M,M,M,M,M,M,M,KJFK 021140Z AUTO 24009KT 10SM CLR 00/M03 A2998 RMK T00001030 MADISHF
JFK,2020-01-02 11:45,-73.7622,40.6386,M,M,M,230.00,10.00,M,29.99,M,10.00,M,M,M,M,M,M,M,M,M,M,M,M,M,M,M,M,M,KJFK 021145Z AUTO 23010KT 10SM 00/M03 A2998 RMK T00001030 MADISHF
JFK,2020-01-02 11:50,-73.7622,40.6386,M,M,M,240.00,9.00,M,29.99,M,10.00,M,M,M,M,M,M,M,M,M,M,M,M,M,M,M,M,M,KJFK 021150Z AUTO 24009KT 10SM 00/M03 A2998 RMK T00001030 MADISHF
JFK,2020-01-02 11:51,-73.7622,40.6386,32.00,26.10,78.58,240.00,9.00,0.00,29.99,1015.50,10.00,M,FEW,FEW,M,M,16000.00,25000.00,M,M,M,M,M,M,M,M,M,23.51,KJFK 021151Z 24009KT 10SM FEW160 FEW250 00/M03 A2999 RMK AO2 SLP155 T00001033 10006 20000 51010 $
JFK,2020-01-02 11:55,-73.7622,40.6386,M,M,M,240.00,9.00,M,29.99,M,10.00,M,CLR,M,M,M,M,M,M,M,M,M,M,M,M,M,M,M,KJFK 021155Z AUTO 24009KT 10SM CLR 00/M03 A2998 RMK T00001030 MADISHF
JFK,2020-01-02 12:00,-73.7622,40.6386,M,M,M,240.00,9.00,M,30.00,M,10.00,M,CLR,M,M,M,M,M,M,M,M,M,M,M,M,M,M,M,KJFK 021200Z AUTO 24009KT 10SM CLR 00/M03 A3000 RMK T00001030 MADISHF
JFK,2020-01-02 12:05,-73.7622,40.6386,M,M,M,230.00,8.00,M,30.00,M,10.00,M,CLR,M,M,M,M,M,M,M,M,M,M,M,M,M,M,M,KJFK 021205Z AUTO 23008KT 10SM CLR 00/M03 A3000 RMK T00001030 MADISHF
JFK,2020-01-02 12:10,-73.7622,40.6386,M,M,M,240.00,8.00,M,29.99,M,10.00,M,CLR,M,M,M,M,M,M,M,M,M,M,M,M,M,M,M,KJFK 021210Z AUTO 24008KT 10SM CLR M01/M03 A2998 RMK T10101030 MADISHF
JFK,2020-01-02 12:15,-73.7622,40.6386,M,M,M,230.00,8.00,M,30.00,M,10.00,M,CLR,M,M,M,M,M,M,M,M,M,M,M,M,M,M,M,KJFK 021215Z AUTO 23008KT 10SM CLR 00/M03 A3000 RMK T00001030 MADISHF
JFK,2020-01-02 12:20,-73.7622,40.6386,M,M,M,240.00,8.00,M,29.99,M,10.00,M,CLR,M,M,M,M,M,M,M,M,M,M,M,M,M,M,M,KJFK 021220Z AUTO 24008KT 10SM CLR M01/M03 A2998 RMK T10101030 MADISHF
JFK,2020-01-02 12:25,-73.7622,40.6386,M,M,M,240.00,7.00,M,29.99,M,10.00,M,CLR,M,M,M,M,M,M,M,M,M,M,M,M,M,M,M,KJFK 021225Z AUTO 24007KT 10SM CLR M01/M03 A2998 RMK T10101030 MADISHF
JFK,2020-01-02 12:30,-73.7622,40.6386,M,M,M,240.00,7.00,M,30.00,M,10.00,M,CLR,M,M,M,M,M,M,M,M,M,M,M,M,M,M,M,KJFK 021230Z AUTO 24007KT 10SM CLR M01/M03 A3000 RMK T10101030 MADISHF
JFK,2020-01-02 12:35,-73.7622,40.6386,M,M,M,250.00,8.00,M,30.00,M,10.00,M,CLR,M,M,M,M,M,M,M,M,M,M,M,M,M,M,M,KJFK 021235Z AUTO 25008KT 10SM CLR 00/M03 A3000 RMK T00001030 MADISHF
JFK,2020-01-02 12:40,-73.7622,40.6386,M,M,M,250.00,8.00,M,30.00,M,10.00,M,CLR,M,M,M,M,M,M,M,M,M,M,M,M,M,M,M,KJFK 021240Z AUTO 25008KT 10SM CLR 01/M03 A3000 RMK T00101030 MADISHF
JFK,2020-01-02 12:45,-73.7622,40.6386,M,M,M,250.00,7.00,M,30.00,M,10.00,M,CLR,M,M,M,M,M,M,M,M,M,M,M,M,M,M,M,KJFK 021245Z AUTO 25007KT 10SM CLR 01/M03 A3000 RMK T00101030 MADISHF
JFK,2020-01-02 12:50,-73.7622,40.6386,M,M,M,240.00,8.00,M,30.00,M,10.00,M,M,M,M,M,M,M,M,M,M,M,M,M,M,M,M,M,KJFK 021250Z AUTO 24008KT 10SM 01/M03 A3000 RMK T00101030 MADISHF
JFK,2020-01-02 12:51,-73.7622,40.6386,34.00,27.00,75.26,240.00,8.00,0.00,30.00,1015.80,10.00,M,FEW,FEW,M,M,16000.00,25000.00,M,M,M,M,M,M,M,M,M,26.58,KJFK 021251Z 24008KT 10SM FEW160 FEW250 01/M03 A3000 RMK AO2 SLP158 T00111028 $
JFK,2020-01-02 12:55,-73.7622,40.6386,M,M,M,240.00,8.00,M,30.00,M,10.00,M,CLR,M,M,M,M,M,M,M,M,M,M,M,M,M,M,M,KJFK 021255Z AUTO 24008KT 10SM CLR 01/M03 A3000 RMK T00101030 MADISHF
JFK,2020-01-02 13:00,-73.7622,40.6386,M,M,M,240.00,5.00,M,30.00,M,10.00,M,CLR,M,M,M,M,M,M,M,M,M,M,M,M,M,M,M,KJFK 021300Z AUTO 24005KT 10SM CLR 01/M02 A3000 RMK T00101020 MADISHF
JFK,2020-01-02 13:05,-73.7622,40.6386,M,M,M,240.00,5.00,M,30.00,M,10.00,M,CLR,M,M,M,M,M,M,M,M,M,M,M,M,M,M,M,KJFK 021305Z AUTO 24005KT 10SM CLR 01/M02 A3000 RMK T00101020 MADISHF
JFK,2020-01-02 13:10,-73.7622,40.6386,M,M,M,240.00,5.00,M,30.00,M,10.00,M,CLR,M,M,M,M,M,M,M,M,M,M,M,M,M,M,M,KJFK 021310Z AUTO 24005KT 10SM CLR 01/M02 A3000 RMK T00101020 MADISHF
JFK,2020-01-02 13:15,-73.7622,40.6386,M,M,M,240.00,5.00,M,30.00,M,10.00,M,CLR,M,M,M,M,M,M,M,M,M,M,M,M,M,M,M,KJFK 021315Z AUTO 24005KT 10SM CLR 02/M02 A3000 RMK T00201020 MADISHF
JFK,2020-01-02 13:20,-73.7622,40.6386,M,M,M,260.00,7.00,M,30.00,M,10.00,M,CLR,M,M,M,M,M,M,M,M,M,M,M,M,M,M,M,KJFK 021320Z AUTO 26007KT 10SM CLR 02/M02 A3000 RMK T00201020 MADISHF
JFK,2020-01-02 13:25,-73.7622,40.6386,M,M,M,260.00,5.00,M,30.00,M,10.00,M,CLR,M,M,M,M,M,M,M,M,M,M,M,M,M,M,M,KJFK 021325Z AUTO 26005KT 10SM CLR 02/M02 A3000 RMK T00201020 MADISHF
JFK,2020-01-02 13:30,-73.7622,40.6386,M,M,M,240.00,7.00,M,30.00,M,10.00,M,CLR,M,M,M,M,M,M,M,M,M,M,M,M,M,M,M,KJFK 021330Z AUTO 24007KT 10SM CLR 03/M02 A3000 RMK T00301020 MADISHF
JFK,2020-01-02 13:35,-73.7622,40.6386,M,M,M,260.00,5.00,M,30.00,M,10.00,M,CLR,M,M,M,M,M,M,M,M,M,M,M,M,M,M,M,KJFK 021335Z AUTO 26005KT 10SM CLR 03/M02 A3000 RMK T00301020 MADISHF
JFK,2020-01-02 13:40,-73.7622,40.6386,M,M,M,250.00,5.00,M,30.00,M,10.00,M,CLR,M,M,M,M,M,M,M,M,M,M,M,M,M,M,M,KJFK 021340Z AUTO 25005KT 10SM CLR 03/M02 A3000 RMK T00301020 MADISHF
JFK,2020-01-02 13:45,-73.7622,40.6386,M,M,M,230.00,5.00,M,30.00,M,10.00,M,FEW,M,M,M,6500.00,M,M,M,M,M,M,M,M,M,M,M,KJFK 021345Z AUTO 23005KT 10SM FEW065 03/M02 A3000 RMK T00301020 MADISHF
JFK,2020-01-02 13:50,-73.7622,40.6386,M,M,M,230.00,5.00,M,30.00,M,10.00,M,FEW,M,M,M,6500.00,M,M,M,M,M,M,M,M,M,M,M,KJFK 021350Z AUTO 23005KT 10SM FEW065 03/M02 A3000 RMK T00301020 MADISHF
JFK,2020-01-02 13:51,-73.7622,40.6386,37.00,28.00,69.63,230.00,6.00,0.00,30.00,1015.90,10.00,M,FEW,FEW,FEW,M,6500.00,16000.00,25000.00,M,M,M,M,M,M,M,M,31.55,KJFK 021351Z 23006KT 10SM FEW065 FEW160 FEW250 03/M02 A3000 RMK AO2 SLP159 T00281022 $
JFK,2020-01-02 13:55,-73.7622,40.6386,M,M,M,230.00,7.00,M,30.00,M,10.00,M,CLR,M,M,M,M,M,M,M,M,M,M,M,M,M,M,M,KJFK 021355Z AUTO 23007KT 10SM CLR 03/M02 A3000 RMK T00301020 MADISHF
JFK,2020-01-02 14:00,-73.7622,40.6386,M,M,M,230.00,7.00,M,30.01,M,10.00,M,CLR,M,M,M,M,M,M,M,M,M,M,M,M,M,M,M,KJFK 021400Z AUTO 23007KT 10SM CLR 03/M02 A3001 RMK T00301020 MADISHF
JFK,2020-01-02 14:05,-73.7622,40.6386,M,M,M,240.00,5.00,M,30.01,M,10.00,M,CLR,M,M,M,M,M,M,M,M,M,M,M,M,M,M,M,KJFK 021405Z AUTO 24005KT 10SM CLR 03/M02 A3001 RMK T00301020 MADISHF
JFK,2020-01-02 14:10,-73.7622,40.6386,M,M,M,240.00,7.00,M,30.02,M,10.00,M,CLR,M,M,M,M,M,M,M,M,M,M,M,M,M,M,M,KJFK 021410Z AUTO 24007KT 10SM CLR 03/M02 A3002 RMK T00301020 MADISHF
JFK,2020-01-02 14:15,-73.7622,40.6386,M,M,M,240.00,5.00,M,30.01,M,10.00,M,CLR,M,M,M,M,M,M,M,M,M,M,M,M,M,M,M,KJFK 021415Z AUTO 24005KT 10SM CLR 04/M02 A3001 RMK T00401020 MADISHF
JFK,2020-01-02 14:20,-73.7622,40.6386,M,M,M,220.00,5.00,M,30.01,M,10.00,M,CLR,M,M,M,M,M,M,M,M,M,M,M,M,M,M,M,KJFK 021420Z AUTO 22005KT 10SM CLR 04/M02 A3001 RMK T00401020 MADISHF
JFK,2020-01-02 14:25,-73.7622,40.6386,M,M,M,230.00,5.00,M,30.01,M,10.00,M,CLR,M,M,M,M,M,M,M,M,M,M,M,M,M,M,M,KJFK 021425Z AUTO 23005KT 10SM CLR 03/M02 A3001 RMK T00301020 MADISHF
JFK,2020-01-02 14:30,-73.7622,40.6386,M,M,M,230.00,5.00,M,30.01,M,10.00,M,CLR,M,M,M,M,M,M,M,M,M,M,M,M,M,M,M,KJFK 021430Z AUTO 23005KT 10SM CLR 04/M02 A3001 RMK T00401020 MADISHF
JFK,2020-01-02 14:35,-73.7622,40.6386,M,M,M,240.00,5.00,M,30.01,M,10.00,M,CLR,M,M,M,M,M,M,M,M,M,M,M,M,M,M,M,KJFK 021435Z AUTO 24005KT 10SM CLR 04/M02 A3001 RMK T00401020 MADISHF
JFK,2020-01-02 14:40,-73.7622,40.6386,M,M,M,240.00,4.00,M,30.01,M,10.00,M,CLR,M,M,M,M,M,M,M,M,M,M,M,M,M,M,M,KJFK 021440Z AUTO 24004KT 10SM CLR 04/M02 A3001 RMK T00401020 MADISHF
JFK,2020-01-02 14:45,-73.7622,40.6386,M,M,M,240.00,5.00,M,30.02,M,10.00,M,CLR,M,M,M,M,M,M,M,M,M,M,M,M,M,M,M,KJFK 021445Z AUTO 24005KT 10SM CLR 04/M02 A3002 RMK T00401020 MADISHF
JFK,2020-01-02 14:50,-73.7622,40.6386,M,M,M,240.00,5.00,M,30.02,M,10.00,M,M,M,M,M,M,M,M,M,M,M,M,M,M,M,M,M,KJFK 021450Z AUTO 24005KT 10SM 05/M01 A3002 RMK T00501010 MADISHF
JFK,2020-01-02 14:51,-73.7622,40.6386,39.90,30.00,67.45,240.00,6.00,0.00,30.02,1016.50,10.00,M,FEW,FEW,M,M,16000.00,25000.00,M,M,M,M,M,M,M,M,M,35.04,KJFK 021451Z 24006KT 10SM FEW160 FEW250 04/M01 A3002 RMK AO2 SLP165 T00441011 53010 $
JFK,2020-01-02 14:55,-73.7622,40.6386,M,M,M,240.00,7.00,M,30.02,M,10.00,M,CLR,M,M,M,M,M,M,M,M,M,M,M,M,M,M,M,KJFK 021455Z AUTO 24007KT 10SM CLR 05/M01 A3002 RMK T00501010 MADISHF
JFK,2020-01-02 15:00,-73.7622,40.6386,M,M,M,240.00,8.00,M,30.01,M,10.00,M,CLR,M,M,M,M,M,M,M,M,M,M,M,M,M,M,M,KJFK 021500Z AUTO 24008KT 10SM CLR 06/M01 A3001 RMK T00601010 MADISHF
JFK,2020-01-02 15:05,-73.7622,40.6386,M,M,M,230.00,7.00,M,30.01,M,10.00,M,CLR,M,M,M,M,M,M,M,M,M,M,M,M,M,M,M,KJFK 021505Z AUTO 23007KT 10SM CLR 05/M01 A3001 RMK T00501010 MADISHF
JFK,2020-01-02 15:10,-73.7622,40.6386,M,M,M,240.00,7.00,M,30.01,M,10.00,M,CLR,M,M,M,M,M,M,M,M,M,M,M,M,M,M,M,KJFK 021510Z AUTO 24007KT 10SM CLR 06/M01 A3001 RMK T00601010 MADISHF
JFK,2020-01-02 15:15,-73.7622,40.6386,M,M,M,240.00,9.00,M,30.01,M,10.00,M,CLR,M,M,M,M,M,M,M,M,M,M,M,M,M,M,M,KJFK 021515Z AUTO 24009KT 10SM CLR 06/M01 A3001 RMK T00601010 MADISHF
JFK,2020-01-02 15:20,-73.7622,40.6386,M,M,M,240.00,9.00,M,30.01,M,10.00,M,CLR,M,M,M,M,M,M,M,M,M,M,M,M,M,M,M,KJFK 021520Z AUTO 24009KT 10SM CLR 06/M02 A3001 RMK T00601020 MADISHF
JFK,2020-01-02 15:25,-73.7622,40.6386,M,M,M,240.00,8.00,M,30.00,M,10.00,M,CLR,M,M,M,M,M,M,M,M,M,M,M,M,M,M,M,KJFK 021525Z AUTO 24008KT 10SM CLR 06/M01 A3000 RMK T00601010 MADISHF
JFK,2020-01-02 15:30,-73.7622,40.6386,M,M,M,240.00,7.00,M,30.00,M,10.00,M,CLR,M,M,M,M,M,M,M,M,M,M,M,M,M,M,M,KJFK 021530Z AUTO 24007KT 10SM CLR 06/M01 A3000 RMK T00601010 MADISHF
JFK,2020-01-02 15:35,-73.7622,40.6386,M,M,M,240.00,7.00,M,30.00,M,10.00,M,CLR,M,M,M,M,M,M,M,M,M,M,M,M,M,M,M,KJFK 021535Z AUTO 24007KT 10SM CLR 06/M01 A3000 RMK T00601010 MADISHF
JFK,2020-01-02 15:40,-73.7622,40.6386,M,M,M,240.00,7.00,M,30.00,M,10.00,M,CLR,M,M,M,M,M,M,M,M,M,M,M,M,M,M,M,KJFK 021540Z AUTO 24007KT 10SM CLR 05/00 A3000 RMK T00500000 MADISHF
JFK,2020-01-02 15:45,-73.7622,40.6386,M,M,M,240.00,5.00,M,29.99,M,10.00,M,M,M,M,M,M,M,M,M,M,M,M,M,M,M,M,M,KJFK 021545Z AUTO 24005KT 10SM 06/00 A2998 RMK T00600000 MADISHF
JFK,2020-01-02 15:50,-73.7622,40.6386,M,M,M,240.00,5.00,M,29.99,M,10.00,M,M,M,M,M,M,M,M,M,M,M,M,M,M,M,M,M,KJFK 021550Z AUTO 24005KT 10SM 05/M01 A2998 RMK T00501010 MADISHF
JFK,2020-01-02 15:51,-73.7622,40.6386,41.00,30.90,67.03,230.00,6.00,0.00,29.99,1015.50,10.00,M,FEW,FEW,M,M,16000.00,25000.00,M,M,M,M,M,M,M,M,M,36.37,KJFK 021551Z 23006KT 10SM FEW160 FEW250 05/M01 A2999 RMK AO2 SLP155 T00501006 $
JFK,2020-01-02 15:55,-73.7622,40.6386,M,M,M,240.00,8.00,M,29.99,M,10.00,M,CLR,M,M,M,M,M,M,M,M,M,M,M,M,M,M,M,KJFK 021555Z AUTO 24008KT 10SM CLR 06/M01 A2998 RMK T00601010 MADISHF
JFK,2020-01-02 16:00,-73.7622,40.6386,M,M,M,240.00,9.00,M,30.00,M,10.00,M,CLR,M,M,M,M,M,M,M,M,M,M,M,M,M,M,M,KJFK 021600Z AUTO 24009KT 10SM CLR 06/M01 A3000 RMK T00601010 MADISHF
JFK,2020-01-02 16:05,-73.7622,40.6386,M,M,M,240.00,7.00,M,29.99,M,10.00,M,CLR,M,M,M,M,M,M,M,M,M,M,M,M,M,M,M,KJFK 021605Z AUTO 24007KT 10SM CLR 06/M01 A2998 RMK T00601010 MADISHF
JFK,2020-01-02 16:10,-73.7622,40.6386,M,M,M,240.00,8.00,M,29.99,M,10.00,M,CLR,M,M,M,M,M,M,M,M,M,M,M,M,M,M,M,KJFK 021610Z AUTO 24008KT 10SM CLR 06/00 A2998 RMK T00600000 MADISHF
JFK,2020-01-02 16:15,-73.7622,40.6386,M,M,M,230.00,9.00,M,29.99,M,10.00,M,CLR,M,M,M,M,M,M,M,M,M,M,M,M,M,M,M,KJFK 021615Z AUTO 23009KT 10SM CLR 06/00 A2998 RMK T00600000 MADISHF
JFK,2020-01-02 16:20,-73.7622,40.6386,M,M,M,240.00,8.00,M,29.99,M,10.00,M,CLR,M,M,M,M,M,M,M,M,M,M,M,M,M,M,M,KJFK 021620Z AUTO 24008KT 10SM CLR 06/M01 A2998 RMK T00601010 MADISHF
JFK,2020-01-02 16:25,-73.7622,40.6386,M,M,M,240.00,8.00,M,29.98,M,10.00,M,CLR,M,M,M,M,M,M,M,M,M,M,M,M,M,M,M,KJFK 021625Z AUTO 24008KT 10SM CLR 06/M01 A2997 RMK T00601010 MADISHF
JFK,2020-01-02 16:30,-73.7622,40.6386,M,M,M,240.00,7.00,M,29.98,M,10.00,M,CLR,M,M,M,M,M,M,M,M,M,M,M,M,M,M,M,KJFK 021630Z AUTO 24007KT 10SM CLR 06/M01 A2997 RMK T00601010 MADISHF
JFK,2020-01-02 16:35,-73.7622,40.6386,M,M,M,230.00,8.00,M,29.98,M,10.00,M,CLR,M,M,M,M,M,M,M,M,M,M,M,M,M,M,M,KJFK 021635Z AUTO 23008KT 10SM CLR 06/M01 A2997 RMK T00601010 MADISHF
JFK,2020-01-02 16:40,-73.7622,40.6386,M,M,M,230.00,8.00,M,29.98,M,10.00,M,CLR,M,M,M,M,M,M,M,M,M,M,M,M,M,M,M,KJFK 021640Z AUTO 23008KT 10SM CLR 06/M01 A2997 RMK T00601010 MADISHF
JFK,2020-01-02 16:45,-73.7622,40.6386,M,M,M,240.00,8.00,M,29.98,M,10.00,M,CLR,M,M,M,M,M,M,M,M,M,M,M,M,M,M,M,KJFK 021645Z AUTO 24008KT 10SM CLR 06/M01 A2997 RMK T00601010 MADISHF
JFK,2020-01-02 16:50,-73.7622,40.6386,M,M,M,240.00,8.00,M,29.97,M,10.00,M,M,M,M,M,M,M,M,M,M,M,M,M,M,M,M,M,KJFK 021650Z AUTO 24008KT 10SM 06/M01 A2996 RMK T00601010 MADISHF
JFK,2020-01-02 16:51,-73.7622,40.6386,43.00,30.90,62.06,240.00,8.00,0.00,29.97,1014.90,10.00,M,FEW,SCT,M,M,16000.00,25000.00,M,M,M,M,M,M,M,M,M,37.66,KJFK 021651Z 24008KT 10SM FEW160 SCT250 06/M01 A2997 RMK AO2 SLP149 T00611006 $
JFK,2020-01-02 16:55,-73.7622,40.6386,M,M,M,240.00,8.00,M,29.97,M,10.00,M,CLR,M,M,M,M,M,M,M,M,M,M,M,M,M,M,M,KJFK 021655Z AUTO 24008KT 10SM CLR 06/M01 A2996 RMK T00601010 MADISHF
JFK,2020-01-02 17:00,-73.7622,40.6386,M,M,M,240.00,7.00,M,29.97,M,10.00,M,CLR,M,M,M,M,M,M,M,M,M,M,M,M,M,M,M,KJFK 021700Z AUTO 24007KT 10SM CLR 07/M01 A2996 RMK T00701010 MADISHF
JFK,2020-01-02 17:05,-73.7622,40.6386,M,M,M,230.00,8.00,M,29.97,M,10.00,M,CLR,M,M,M,M,M,M,M,M,M,M,M,M,M,M,M,KJFK 021705Z AUTO 23008KT 10SM CLR 07/M01 A2996 RMK T00701010 MADISHF
JFK,2020-01-02 17:10,-73.7622,40.6386,M,M,M,240.00,7.00,M,29.97,M,10.00,M,CLR,M,M,M,M,M,M,M,M,M,M,M,M,M,M,M,KJFK 021710Z AUTO 24007KT 10SM CLR 07/M01 A2996 RMK T00701010 MADISHF
JFK,2020-01-02 17:15,-73.7622,40.6386,M,M,M,240.00,7.00,M,29.97,M,10.00,M,CLR,M,M,M,M,M,M,M,M,M,M,M,M,M,M,M,KJFK 021715Z AUTO 24007KT 10SM CLR 07/M01 A2996 RMK T00701010 MADISHF
JFK,2020-01-02 17:20,-73.7622,40.6386,M,M,M,240.00,7.00,M,29.97,M,10.00,M,CLR,M,M,M,M,M,M,M,M,M,M,M,M,M,M,M,KJFK 021720Z AUTO 24007KT 10SM CLR 07/M01 A2996 RMK T00701010 MADISHF
JFK,2020-01-02 17:25,-73.7622,40.6386,M,M,M,240.00,5.00,M,29.96,M,10.00,M,CLR,M,M,M,M,M,M,M,M,M,M,M,M,M,M,M,KJFK 021725Z AUTO 24005KT 10SM CLR 07/M01 A2995 RMK T00701010 MADISHF
JFK,2020-01-02 17:30,-73.7622,40.6386,M,M,M,240.00,5.00,M,29.96,M,10.00,M,CLR,M,M,M,M,M,M,M,M,M,M,M,M,M,M,M,KJFK 021730Z AUTO 24005KT 10SM CLR 07/M01 A2995 RMK T00701010 MADISHF
JFK,2020-01-02 17:35,-73.7622,40.6386,M,M,M,210.00,7.00,M,29.96,M,10.00,M,CLR,M,M,M,M,M,M,M,M,M,M,M,M,M,M,M,KJFK 021735Z AUTO 21007KT 10SM CLR 07/M01 A2995 RMK T00701010 MADISHF
JFK,2020-01-02 17:40,-73.7622,40.6386,M,M,M,220.00,7.00,M,29.96,M,10.00,M,M,M,M,M,M,M,M,M,M,M,M,M,M,M,M,M,KJFK 021740Z AUTO 22007KT 10SM 07/M01 A2995 RMK T00701010 MADISHF
JFK,2020-01-02 17:45,-73.7622,40.6386,M,M,M,200.00,7.00,M,29.95,M,10.00,M,M,M,M,M,M,M,M,M,M,M,M,M,M,M,M,M,KJFK 021745Z AUTO 20007KT 10SM 07/M01 A2995 RMK T00701010 MADISHF
JFK,2020-01-02 17:50,-73.7622,40.6386,M,M,M,200.00,5.00,M,29.95,M,10.00,M,M,M,M,M,M,M,M,M,M,M,M,M,M,M,M,M,KJFK 021750Z AUTO 20005KT 10SM 07/M01 A2995 RMK T00701010 MADISHF
JFK,2020-01-02 17:51,-73.7622,40.6386,44.10,30.00,57.37,200.00,7.00,0.00,29.95,1014.10,10.00,M,BKN,M,M,M,25000.00,M,M,M,M,M,M,M,M,M,M,39.53,KJFK 021751Z 20007KT 10SM BKN250 07/M01 A2995 RMK AO2 SLP141 T00671011 10072 21006 56024 $
JFK,2020-01-02 17:55,-73.7622,40.6386,M,M,M,200.00,7.00,M,29.95,M,10.00,M,CLR,M,M,M,M,M,M,M,M,M,M,M,M,M,M,M,KJFK 021755Z AUTO 20007KT 10SM CLR 07/M01 A2995 RMK T00701010 MADISHF
JFK,2020-01-02 18:00,-73.7622,40.6386,M,M,M,200.00,7.00,M,29.95,M,10.00,M,CLR,M,M,M,M,M,M,M,M,M,M,M,M,M,M,M,KJFK 021800Z AUTO 20007KT 10SM CLR 07/M01 A2995 RMK T00701010 MADISHF
JFK,2020-01-02 18:05,-73.7622,40.6386,M,M,M,200.00,7.00,M,29.94,M,10.00,M,CLR,M,M,M,M,M,M,M,M,M,M,M,M,M,M,M,KJFK 021805Z AUTO 20007KT 10SM CLR 07/M01 A2994 RMK T00701010 MADISHF
JFK,2020-01-02 18:10,-73.7622,40.6386,M,M,M,200.00,7.00,M,29.94,M,10.00,M,CLR,M,M,M,M,M,M,M,M,M,M,M,M,M,M,M,KJFK 021810Z AUTO 20007KT 10SM CLR 07/M01 A2994 RMK T00701010 MADISHF
JFK,2020-01-02 18:15,-73.7622,40.6386,M,M,M,200.00,7.00,M,29.94,M,10.00,M,CLR,M,M,M,M,M,M,M,M,M,M,M,M,M,M,M,KJFK 021815Z AUTO 20007KT 10SM CLR 07/00 A2994 RMK T00700000 MADISHF
JFK,2020-01-02 18:20,-73.7622,40.6386,M,M,M,200.00,7.00,M,29.94,M,10.00,M,CLR,M,M,M,M,M,M,M,M,M,M,M,M,M,M,M,KJFK 021820Z AUTO 20007KT 10SM CLR 07/01 A2994 RMK T00700010 MADISHF
JFK,2020-01-02 18:25,-73.7622,40.6386,M,M,M,190.00,5.00,M,29.94,M,10.00,M,CLR,M,M,M,M,M,M,M,M,M,M,M,M,M,M,M,KJFK 021825Z AUTO 19005KT 10SM CLR 07/01 A2994 RMK T00700010 MADISHF
JFK,2020-01-02 18:30,-73.7622,40.6386,M,M,M,190.00,7.00,M,29.94,M,10.00,M,CLR,M,M,M,M,M,M,M,M,M,M,M,M,M,M,M,KJFK 021830Z AUTO 19007KT 10SM CLR 07/01 A2994 RMK T00700010 MADISHF
JFK,2020-01-02 18:35,-73.7622,40.6386,M,M,M,190.00,8.00,M,29.94,M,10.00,M,CLR,M,M,M,M,M,M,M,M,M,M,M,M,M,M,M,KJFK 021835Z AUTO 19008KT 10SM CLR 07/02 A2994 RMK T00700020 MADISHF
JFK,2020-01-02 18:40,-73.7622,40.6386,M,M,M,200.00,8.00,M,29.94,M,10.00,M,CLR,M,M,M,M,M,M,M,M,M,M,M,M,M,M,M,KJFK 021840Z AUTO 20008KT 10SM CLR 07/02 A2994 RMK T00700020 MADISHF
JFK,2020-01-02 18:45,-73.7622,40.6386,M,M,M,210.00,7.00,M,29.94,M,10.00,M,CLR,M,M,M,M,M,M,M,M,M,M,M,M,M,M,M,KJFK 021845Z AUTO 21007KT 10SM CLR 07/02 A2994 RMK T00700020 MADISHF
JFK,2020-01-02 18:50,-73.7622,40.6386,M,M,M,210.00,8.00,M,29.94,M,10.00,M,M,M,M,M,M,M,M,M,M,M,M,M,M,M,M,M,KJFK 021850Z AUTO 21008KT 10SM 08/03 A2994 RMK T00800030 MADISHF
JFK,2020-01-02 18:51,-73.7622,40.6386,46.00,37.00,70.64,210.00,8.00,0.00,29.94,1013.80,10.00,M,BKN,M,M,M,25000.00,M,M,M,M,M,M,M,M,M,M,41.36,KJFK 021851Z 21008KT 10SM BKN250 08/03 A2994 RMK AO2 SLP138 T00780028 $
JFK,2020-01-02 18:55,-73.7622,40.6386,M,M,M,200.00,8.00,M,29.94,M,10.00,M,CLR,M,M,M,M,M,M,M,M,M,M,M,M,M,M,M,KJFK 021855Z AUTO 20008KT 10SM CLR 08/03 A2994 RMK T00800030 MADISHF
JFK,2020-01-02 19:00,-73.7622,40.6386,M,M,M,200.00,9.00,M,29.94,M,10.00,M,CLR,M,M,M,M,M,M,M,M,M,M,M,M,M,M,M,KJFK 021900Z AUTO 20009KT 10SM CLR 08/03 A2994 RMK T00800030 MADISHF
JFK,2020-01-02 19:05,-73.7622,40.6386,M,M,M,200.00,11.00,M,29.94,M,10.00,M,CLR,M,M,M,M,M,M,M,M,M,M,M,M,M,M,M,KJFK 021905Z AUTO 20011KT 10SM CLR 08/03 A2994 RMK T00800030 MADISHF
JFK,2020-01-02 19:10,-73.7622,40.6386,M,M,M,190.00,11.00,M,29.94,M,10.00,M,CLR,M,M,M,M,M,M,M,M,M,M,M,M,M,M,M,KJFK 021910Z AUTO 19011KT 10SM CLR 08/03 A2994 RMK T00800030 MADISHF
JFK,2020-01-02 19:15,-73.7622,40.6386,M,M,M,190.00,13.00,M,29.94,M,10.00,M,CLR,M,M,M,M,M,M,M,M,M,M,M,M,M,M,M,KJFK 021915Z AUTO 19013KT 10SM CLR 09/03 A2994 RMK T00900030 MADISHF
JFK,2020-01-02 19:20,-73.7622,40.6386,M,M,M,190.00,13.00,M,29.93,M,10.00,M,CLR,M,M,M,M,M,M,M,M,M,M,M,M,M,M,M,KJFK 021920Z AUTO 19013KT 10SM CLR 08/02 A2993 RMK T00800020 MADISHF
JFK,2020-01-02 19:25,-73.7622,40.6386,M,M,M,190.00,13.00,M,29.93,M,10.00,M,CLR,M,M,M,M,M,M,M,M,M,M,M,M,M,M,M,KJFK 021925Z AUTO 19013KT 10SM CLR 08/02 A2993 RMK T00800020 MADISHF
JFK,2020-01-02 19:30,-73.7622,40.6386,M,M,M,190.00,11.00,M,29.93,M,10.00,M,CLR,M,M,M,M,M,M,M,M,M,M,M,M,M,M,M,KJFK 021930Z AUTO 19011KT 10SM CLR 08/03 A2993 RMK T00800030 MADISHF
JFK,2020-01-02 19:35,-73.7622,40.6386,M,M,M,190.00,13.00,M,29.93,M,10.00,M,CLR,M,M,M,M,M,M,M,M,M,M,M,M,M,M,M,KJFK 021935Z AUTO 19013KT 10SM CLR 08/02 A2993 RMK T00800020 MADISHF
JFK,2020-01-02 19:40,-73.7622,40.6386,M,M,M,190.00,11.00,M,29.93,M,10.00,M,CLR,M,M,M,M,M,M,M,M,M,M,M,M,M,M,M,KJFK 021940Z AUTO 19011KT 10SM CLR 08/02 A2993 RMK T00800020 MADISHF
JFK,2020-01-02 19:45,-73.7622,40.6386,M,M,M,190.00,14.00,M,29.93,M,10.00,M,CLR,M,M,M,M,M,M,M,M,M,M,M,M,M,M,M,KJFK 021945Z AUTO 19014KT 10SM CLR 08/02 A2993 RMK T00800020 MADISHF
JFK,2020-01-02 19:50,-73.7622,40.6386,M,M,M,190.00,13.00,M,29.93,M,10.00,M,M,M,M,M,M,M,M,M,M,M,M,M,M,M,M,M,KJFK 021950Z AUTO 19013KT 10SM 08/03 A2993 RMK T00800030 MADISHF
JFK,2020-01-02 19:51,-73.7622,40.6386,46.90,37.00,68.27,190.00,13.00,0.00,29.93,1013.40,10.00,M,OVC,M,M,M,25000.00,M,M,M,M,M,M,M,M,M,M,40.66,KJFK 021951Z 19013KT 10SM OVC250 08/03 A2993 RMK AO2 SLP134 T00830028 $
JFK,2020-01-02 19:55,-73.7622,40.6386,M,M,M,190.00,13.00,M,29.93,M,10.00,M,CLR,M,M,M,M,M,M,M,M,M,M,M,M,M,M,M,KJFK 021955Z AUTO 19013KT 10SM CLR 08/03 A2993 RMK T00800030 MADISHF
JFK,2020-01-02 20:00,-73.7622,40.6386,M,M,M,190.00,13.00,M,29.92,M,10.00,M,CLR,M,M,M,M,M,M,M,M,M,M,M,M,M,M,M,KJFK 022000Z AUTO 19013KT 10SM CLR 08/03 A2992 RMK T00800030 MADISHF
JFK,2020-01-02 20:05,-73.7622,40.6386,M,M,M,190.00,14.00,M,29.92,M,10.00,M,CLR,M,M,M,M,M,M,M,M,M,M,M,M,M,M,M,KJFK 022005Z AUTO 19014KT 10SM CLR 08/03 A2992 RMK T00800030 MADISHF
JFK,2020-01-02 20:10,-73.7622,40.6386,M,M,M,190.00,13.00,M,29.92,M,10.00,M,CLR,M,M,M,M,M,M,M,M,M,M,M,M,M,M,M,KJFK 022010Z AUTO 19013KT 10SM CLR 08/03 A2992 RMK T00800030 MADISHF
JFK,2020-01-02 20:15,-73.7622,40.6386,M,M,M,190.00,13.00,M,29.92,M,10.00,M,CLR,M,M,M,M,M,M,M,M,M,M,M,M,M,M,M,KJFK 022015Z AUTO 19013KT 10SM CLR 08/03 A2992 RMK T00800030 MADISHF
JFK,2020-01-02 20:20,-73.7622,40.6386,M,M,M,190.00,13.00,M,29.92,M,10.00,M,CLR,M,M,M,M,M,M,M,M,M,M,M,M,M,M,M,KJFK 022020Z AUTO 19013KT 10SM CLR 08/03 A2992 RMK T00800030 MADISHF
JFK,2020-01-02 20:25,-73.7622,40.6386,M,M,M,190.00,11.00,M,29.92,M,10.00,M,CLR,M,M,M,M,M,M,M,M,M,M,M,M,M,M,M,KJFK 022025Z AUTO 19011KT 10SM CLR 08/03 A2992 RMK T00800030 MADISHF
JFK,2020-01-02 20:30,-73.7622,40.6386,M,M,M,190.00,13.00,M,29.91,M,10.00,M,CLR,M,M,M,M,M,M,M,M,M,M,M,M,M,M,M,KJFK 022030Z AUTO 19013KT 10SM CLR 08/03 A2990 RMK T00800030 MADISHF
JFK,2020-01-02 20:35,-73.7622,40.6386,M,M,M,180.00,13.00,M,29.92,M,10.00,M,CLR,M,M,M,M,M,M,M,M,M,M,M,M,M,M,M,KJFK 022035Z AUTO 18013KT 10SM CLR 08/03 A2992 RMK T00800030 MADISHF
JFK,2020-01-02 20:40,-73.7622,40.6386,M,M,M,190.00,11.00,M,29.92,M,10.00,M,CLR,M,M,M,M,M,M,M,M,M,M,M,M,M,M,M,KJFK 022040Z AUTO 19011KT 10SM CLR 08/04 A2992 RMK T00800040 MADISHF
JFK,2020-01-02 20:45,-73.7622,40.6386,M,M,M,190.00,11.00,M,29.92,M,10.00,M,CLR,M,M,M,M,M,M,M,M,M,M,M,M,M,M,M,KJFK 022045Z AUTO 19011KT 10SM CLR 08/04 A2992 RMK T00800040 MADISHF
JFK,2020-01-02 20:50,-73.7622,40.6386,M,M,M,190.00,11.00,M,29.92,M,10.00,M,M,M,M,M,M,M,M,M,M,M,M,M,M,M,M,M,KJFK 022050Z AUTO 19011KT 10SM 07/04 A2992 RMK T00700040 MADISHF
JFK,2020-01-02 20:51,-73.7622,40.6386,45.00,39.00,79.36,190.00,12.00,0.00,29.92,1013.00,10.00,M,OVC,M,M,M,25000.00,M,M,M,M,M,M,M,M,M,M,38.55,KJFK 022051Z 19012KT 10SM OVC250 07/04 A2992 RMK AO2 SLP130 T00720039 58012 $
JFK,2020-01-02 20:55,-73.7622,40.6386,M,M,M,180.00,14.00,M,29.91,M,10.00,M,CLR,M,M,M,M,M,M,M,M,M,M,M,M,M,M,M,KJFK 022055Z AUTO 18014KT 10SM CLR 07/04 A2990 RMK T00700040 MADISHF
JFK,2020-01-02 21:00,-73.7622,40.6386,M,M,M,190.00,11.00,M,29.92,M,10.00,M,CLR,M,M,M,M,M,M,M,M,M,M,M,M,M,M,M,KJFK 022100Z AUTO 19011KT 10SM CLR 07/04 A2992 RMK T00700040 MADISHF
JFK,2020-01-02 21:05,-73.7622,40.6386,M,M,M,190.00,11.00,M,29.92,M,10.00,M,CLR,M,M,M,M,M,M,M,M,M,M,M,M,M,M,M,KJFK 022105Z AUTO 19011KT 10SM CLR 07/04 A2992 RMK T00700040 MADISHF
JFK,2020-01-02 21:10,-73.7622,40.6386,M,M,M,180.00,11.00,M,29.91,M,10.00,M,CLR,M,M,M,M,M,M,M,M,M,M,M,M,M,M,M,KJFK 022110Z AUTO 18011KT 10SM CLR 07/04 A2990 RMK T00700040 MADISHF
JFK,2020-01-02 21:15,-73.7622,40.6386,M,M,M,180.00,13.00,M,29.91,M,10.00,M,CLR,M,M,M,M,M,M,M,M,M,M,M,M,M,M,M,KJFK 022115Z AUTO 18013KT 10SM CLR 07/04 A2990 RMK T00700040 MADISHF
JFK,2020-01-02 21:20,-73.7622,40.6386,M,M,M,190.00,11.00,M,29.91,M,10.00,M,CLR,M,M,M,M,M,M,M,M,M,M,M,M,M,M,M,KJFK 022120Z AUTO 19011KT 10SM CLR 07/04 A2990 RMK T00700040 MADISHF
JFK,2020-01-02 21:25,-73.7622,40.6386,M,M,M,190.00,11.00,M,29.92,M,10.00,M,CLR,M,M,M,M,M,M,M,M,M,M,M,M,M,M,M,KJFK 022125Z AUTO 19011KT 10SM CLR 07/04 A2992 RMK T00700040 MADISHF
JFK,2020-01-02 21:30,-73.7622,40.6386,M,M,M,190.00,11.00,M,29.91,M,10.00,M,CLR,M,M,M,M,M,M,M,M,M,M,M,M,M,M,M,KJFK 022130Z AUTO 19011KT 10SM CLR 07/05 A2990 RMK T00700050 MADISHF
JFK,2020-01-02 21:35,-73.7622,40.6386,M,M,M,190.00,11.00,M,29.91,M,10.00,M,CLR,M,M,M,M,M,M,M,M,M,M,M,M,M,M,M,KJFK 022135Z AUTO 19011KT 10SM CLR 07/05 A2990 RMK T00700050 MADISHF
JFK,2020-01-02 21:40,-73.7622,40.6386,M,M,M,190.00,11.00,M,29.91,M,10.00,M,CLR,M,M,M,M,M,M,M,M,M,M,M,M,M,M,M,KJFK 022140Z AUTO 19011KT 10SM CLR 07/05 A2990 RMK T00700050 MADISHF
JFK,2020-01-02 21:45,-73.7622,40.6386,M,M,M,190.00,11.00,M,29.91,M,10.00,M,CLR,M,M,M,M,M,M,M,M,M,M,M,M,M,M,M,KJFK 022145Z AUTO 19011KT 10SM CLR 07/05 A2990 RMK T00700050 MADISHF
JFK,2020-01-02 21:50,-73.7622,40.6386,M,M,M,190.00,11.00,M,29.91,M,10.00,M,M,M,M,M,M,M,M,M,M,M,M,M,M,M,M,M,KJFK 022150Z AUTO 19011KT 10SM 07/05 A2990 RMK T00700050 MADISHF
JFK,2020-01-02 21:51,-73.7622,40.6386,44.10,41.00,88.77,190.00,11.00,0.00,29.91,1012.80,10.00,M,FEW,BKN,M,M,17000.00,25000.00,M,M,M,M,M,M,M,M,M,37.76,KJFK 022151Z 19011KT 10SM FEW170 BKN250 07/05 A2991 RMK AO2 SLP128 T00670050 $
JFK,2020-01-02 21:55,-73.7622,40.6386,M,M,M,190.00,11.00,M,29.91,M,10.00,M,CLR,M,M,M,M,M,M,M,M,M,M,M,M,M,M,M,KJFK 022155Z AUTO 19011KT 10SM CLR 07/05 A2990 RMK T00700050 MADISHF
JFK,2020-01-02 22:00,-73.7622,40.6386,M,M,M,180.00,11.00,M,29.91,M,10.00,M,CLR,M,M,M,M,M,M,M,M,M,M,M,M,M,M,M,KJFK 022200Z AUTO 18011KT 10SM CLR 07/05 A2990 RMK T00700050 MADISHF
JFK,2020-01-02 22:05,-73.7622,40.6386,M,M,M,190.00,11.00,M,29.91,M,10.00,M,CLR,M,M,M,M,M,M,M,M,M,M,M,M,M,M,M,KJFK 022205Z AUTO 19011KT 10SM CLR 07/05 A2990 RMK T00700050 MADISHF
JFK,2020-01-02 22:10,-73.7622,40.6386,M,M,M,190.00,11.00,M,29.92,M,10.00,M,CLR,M,M,M,M,M,M,M,M,M,M,M,M,M,M,M,KJFK 022210Z AUTO 19011KT 10SM CLR 07/05 A2992 RMK T00700050 MADISHF
JFK,2020-01-02 22:15,-73.7622,40.6386,M,M,M,190.00,13.00,M,29.92,M,10.00,M,CLR,M,M,M,M,M,M,M,M,M,M,M,M,M,M,M,KJFK 022215Z AUTO 19013KT 10SM CLR 07/05 A2992 RMK T00700050 MADISHF
JFK,2020-01-02 22:20,-73.7622,40.6386,M,M,M,190.00,13.00,M,29.91,M,10.00,M,CLR,M,M,M,M,M,M,M,M,M,M,M,M,M,M,M,KJFK 022220Z AUTO 19013KT 10SM CLR 07/05 A2990 RMK T00700050 MADISHF
JFK,2020-01-02 22:25,-73.7622,40.6386,M,M,M,190.00,14.00,M,29.91,M,10.00,M,CLR,M,M,M,M,M,M,M,M,M,M,M,M,M,M,M,KJFK 022225Z AUTO 19014KT 10SM CLR 07/06 A2990 RMK T00700060 MADISHF
JFK,2020-01-02 22:30,-73.7622,40.6386,M,M,M,190.00,11.00,M,29.91,M,10.00,M,CLR,M,M,M,M,M,M,M,M,M,M,M,M,M,M,M,KJFK 022230Z AUTO 19011KT 10SM CLR 07/06 A2990 RMK T00700060 MADISHF
JFK,2020-01-02 22:35,-73.7622,40.6386,M,M,M,190.00,11.00,M,29.91,M,10.00,M,CLR,M,M,M,M,M,M,M,M,M,M,M,M,M,M,M,KJFK 022235Z AUTO 19011KT 10SM CLR 07/06 A2990 RMK T00700060 MADISHF
JFK,2020-01-02 22:40,-73.7622,40.6386,M,M,M,190.00,11.00,M,29.90,M,10.00,M,CLR,M,M,M,M,M,M,M,M,M,M,M,M,M,M,M,KJFK 022240Z AUTO 19011KT 10SM CLR 07/06 A2989 RMK T00700060 MADISHF
JFK,2020-01-02 22:45,-73.7622,40.6386,M,M,M,190.00,10.00,M,29.91,M,10.00,M,CLR,M,M,M,M,M,M,M,M,M,M,M,M,M,M,M,KJFK 022245Z AUTO 19010KT 10SM CLR 07/06 A2990 RMK T00700060 MADISHF
JFK,2020-01-02 22:50,-73.7622,40.6386,M,M,M,190.00,11.00,M,29.91,M,10.00,M,M,M,M,M,M,M,M,M,M,M,M,M,M,M,M,M,KJFK 022250Z AUTO 19011KT 10SM 07/06 A2990 RMK T00700060 MADISHF
JFK,2020-01-02 22:51,-73.7622,40.6386,44.10,42.10,92.62,190.00,11.00,0.00,29.91,1012.70,10.00,M,BKN,M,M,M,25000.00,M,M,M,M,M,M,M,M,M,M,37.76,KJFK 022251Z 19011KT 10SM BKN250 07/06 A2991 RMK AO2 SLP127 T00670056 $
JFK,2020-01-02 22:55,-73.7622,40.6386,M,M,M,190.00,11.00,M,29.91,M,10.00,M,CLR,M,M,M,M,M,M,M,M,M,M,M,M,M,M,M,KJFK 022255Z AUTO 19011KT 10SM CLR 07/06 A2990 RMK T00700060 MADISHF
JFK,2020-01-02 23:00,-73.7622,40.6386,M,M,M,190.00,10.00,M,29.91,M,10.00,M,CLR,M,M,M,M,M,M,M,M,M,M,M,M,M,M,M,KJFK 022300Z AUTO 19010KT 10SM CLR 07/06 A2990 RMK T00700060 MADISHF
JFK,2020-01-02 23:05,-73.7622,40.6386,M,M,M,190.00,10.00,M,29.91,M,10.00,M,CLR,M,M,M,M,M,M,M,M,M,M,M,M,M,M,M,KJFK 022305Z AUTO 19010KT 10SM CLR 06/05 A2990 RMK T00600050 MADISHF
JFK,2020-01-02 23:10,-73.7622,40.6386,M,M,M,190.00,9.00,M,29.91,M,10.00,M,CLR,M,M,M,M,M,M,M,M,M,M,M,M,M,M,M,KJFK 022310Z AUTO 19009KT 10SM CLR 06/05 A2990 RMK T00600050 MADISHF
JFK,2020-01-02 23:15,-73.7622,40.6386,M,M,M,190.00,10.00,M,29.91,M,10.00,M,CLR,M,M,M,M,M,M,M,M,M,M,M,M,M,M,M,KJFK 022315Z AUTO 19010KT 10SM CLR 07/06 A2990 RMK T00700060 MADISHF
JFK,2020-01-02 23:20,-73.7622,40.6386,M,M,M,190.00,10.00,M,29.91,M,10.00,M,CLR,M,M,M,M,M,M,M,M,M,M,M,M,M,M,M,KJFK 022320Z AUTO 19010KT 10SM CLR 07/06 A2990 RMK T00700060 MADISHF
JFK,2020-01-02 23:25,-73.7622,40.6386,M,M,M,190.00,10.00,M,29.90,M,10.00,M,CLR,M,M,M,M,M,M,M,M,M,M,M,M,M,M,M,KJFK 022325Z AUTO 19010KT 10SM CLR 07/06 A2989 RMK T00700060 MADISHF
JFK,2020-01-02 23:30,-73.7622,40.6386,M,M,M,190.00,10.00,M,29.90,M,10.00,M,CLR,M,M,M,M,M,M,M,M,M,M,M,M,M,M,M,KJFK 022330Z AUTO 19010KT 10SM CLR 07/06 A2989 RMK T00700060 MADISHF
JFK,2020-01-02 23:35,-73.7622,40.6386,M,M,M,200.00,9.00,M,29.90,M,10.00,M,CLR,M,M,M,M,M,M,M,M,M,M,M,M,M,M,M,KJFK 022335Z AUTO 20009KT 10SM CLR 07/06 A2989 RMK T00700060 MADISHF
JFK,2020-01-02 23:40,-73.7622,40.6386,M,M,M,200.00,9.00,M,29.91,M,10.00,M,CLR,M,M,M,M,M,M,M,M,M,M,M,M,M,M,M,KJFK 022340Z AUTO 20009KT 10SM CLR 07/06 A2990 RMK T00700060 MADISHF
JFK,2020-01-02 23:45,-73.7622,40.6386,M,M,M,200.00,10.00,M,29.90,M,10.00,M,CLR,M,M,M,M,M,M,M,M,M,M,M,M,M,M,M,KJFK 022345Z AUTO 20010KT 10SM CLR 07/05 A2989 RMK T00700050 MADISHF
JFK,2020-01-02 23:50,-73.7622,40.6386,M,M,M,200.00,10.00,M,29.90,M,10.00,M,M,M,M,M,M,M,M,M,M,M,M,M,M,M,M,M,KJFK 022350Z AUTO 20010KT 10SM 07/05 A2989 RMK T00700050 MADISHF
JFK,2020-01-02 23:51,-73.7622,40.6386,44.10,41.00,88.77,200.00,10.00,0.00,29.90,1012.40,10.00,M,BKN,M,M,M,25000.00,M,M,M,M,M,M,M,M,M,M,38.14,KJFK 022351Z 20010KT 10SM BKN250 07/05 A2990 RMK AO2 SLP124 T00670050 10089 20061 58005
JFK,2020-01-02 23:55,-73.7622,40.6386,M,M,M,200.00,9.00,M,29.90,M,10.00,M,CLR,M,M,M,M,M,M,M,M,M,M,M,M,M,M,M,KJFK 022355Z AUTO 20009KT 10SM CLR 07/05 A2989 RMK T00700050 MADISHF
