#DEBUG: Format Typ    -> comma
#DEBUG: Time Period   -> 2020-01-01 00:00:00+00:00 2020-01-03 00:00:00+00:00
#DEBUG: Time Zone     -> Etc/UTC
#DEBUG: Data Contact   -> daryl herzmann akrherz@iastate.edu 515-294-5978
#DEBUG: Entries Found -> -1
station,valid,lon,lat,tmpf,dwpf,relh,drct,sknt,p01i,alti,mslp,vsby,gust,skyc1,skyc2,skyc3,skyc4,skyl1,skyl2,skyl3,skyl4,wxcodes,ice_accretion_1hr,ice_accretion_3hr,ice_accretion_6hr,peak_wind_gust,peak_wind_drct,peak_wind_time,feel,metar
LGA,2020-01-01 00:00,-73.8803,40.7794,M,M,M,210.00,5.00,M,29.63,M,10.00,M,BKN,OVC,M,M,6000.00,7000.00,M,M,M,M,M,M,M,M,M,M,KLGA 010000Z AUTO 21005KT 10SM BKN060 OVC070 07/02 A2962 RMK T00700020 MADISHF
LGA,2020-01-01 00:05,-73.8803,40.7794,M,M,M,210.00,5.00,M,29.63,M,10.00,M,OVC,M,M,M,6500.00,M,M,M,M,M,M,M,M,M,M,M,KLGA 010005Z AUTO 21005KT 10SM OVC065 07/02 A2962 RMK T00700020 MADISHF
LGA,2020-01-01 00:10,-73.8803,40.7794,M,M,M,210.00,5.00,M,29.62,M,10.00,M,OVC,M,M,M,6500.00,M,M,M,M,M,M,M,M,M,M,M,KLGA 010010Z AUTO 21005KT 10SM OVC065 07/02 A2962 RMK T00700020 MADISHF
LGA,2020-01-01 00:15,-73.8803,40.7794,M,M,M,210.00,5.00,M,29.62,M,10.00,M,OVC,M,M,M,6500.00,M,M,M,M,M,M,M,M,M,M,M,KLGA 010015Z AUTO 21005KT 10SM OVC065 07/02 A2962 RMK T00700020 MADISHF
LGA,2020-01-01 00:20,-73.8803,40.7794,M,M,M,210.00,4.00,M,29.62,M,10.00,M,OVC,M,M,M,6000.00,M,M,M,M,M,M,M,M,M,M,M,KLGA 010020Z AUTO 21004KT 10SM OVC060 07/02 A2962 RMK T00700020 MADISHF
LGA,2020-01-01 00:25,-73.8803,40.7794,M,M,M,210.00,5.00,M,29.62,M,10.00,M,OVC,M,M,M,6000.00,M,M,M,M,M,M,M,M,M,M,M,KLGA 010025Z AUTO 21005KT 10SM OVC060 07/02 A2962 RMK T00700020 MADISHF
LGA,2020-01-01 00:30,-73.8803,40.7794,M,M,M,210.00,7.00,M,29.62,M,10.00,M,FEW,OVC,M,M,4900.00,6000.00,M,M,M,M,M,M,M,M,M,M,KLGA 010030Z AUTO 21007KT 10SM FEW049 OVC060 07/02 A2962 RMK T00700020 MADISHF
LGA,2020-01-01 00:35,-73.8803,40.7794,M,M,M,220.00,7.00,M,29.62,M,10.00,M,OVC,M,M,M,5500.00,M,M,M,M,M,M,M,M,M,M,M,KLGA 010035Z AUTO 22007KT 10SM OVC055 07/02 A2962 RMK T00700020 MADISHF
LGA,2020-01-01 00:40,-73.8803,40.7794,M,M,M,210.00,8.00,M,29.62,M,10.00,M,BKN,OVC,M,M,5000.00,6000.00,M,M,M,M,M,M,M,M,M,M,KLGA 010040Z AUTO 21008KT 10SM BKN050 OVC060 07/02 A2962 RMK T00700020 MADISHF
LGA,2020-01-01 00:45,-73.8803,40.7794,M,M,M,210.00,8.00,M,29.62,M,10.00,M,BKN,OVC,M,M,5000.00,6000.00,M,M,M,M,M,M,M,M,M,M,KLGA 010045Z AUTO 21008KT 10SM BKN050 OVC060 07/02 A2962 RMK T00700020 MADISHF
LGA,2020-01-01 00:50,-73.8803,40.7794,M,M,M,210.00,9.00,M,29.62,M,10.00,M,BKN,OVC,M,M,5000.00,6000.00,M,M,M,M,M,M,M,M,M,M,KLGA 010050Z AUTO 21009KT 10SM BKN050 OVC060 07/02 A2962 RMK T00700020 MADISHF
LGA,2020-01-01 00:51,-73.8803,40.7794,45.00,35.10,68.05,210.00,9.00,0.00,29.62,1003.00,10.00,M,BKN,OVC,M,M,5000.00,6000.00,M,M,M,M,M,M,M,M,M,39.68,KLGA 010051Z 21009KT 10SM BKN050 OVC060 07/02 A2962 RMK AO2 SLP030 T00720017
LGA,2020-01-01 00:55,-73.8803,40.7794,M,M,M,200.00,8.00,M,29.62,M,10.00,M,BKN,OVC,M,M,5000.00,6500.00,M,M,M,M,M,M,M,M,M,M,KLGA 010055Z AUTO 20008KT 10SM BKN050 OVC065 07/02 A2962 RMK T00700020 MADISHF
LGA,2020-01-01 01:00,-73.8803,40.7794,M,M,M,210.00,9.00,M,29.62,M,10.00,M,SCT,OVC,M,M,5000.00,6500.00,M,M,M,M,M,M,M,M,M,M,KLGA 010100Z AUTO 21009KT 10SM SCT050 OVC065 07/02 A2962 RMK T00700020 MADISHF
LGA,2020-01-01 01:05,-73.8803,40.7794,M,M,M,210.00,9.00,M,29.62,M,10.00,M,SCT,OVC,M,M,5000.00,6500.00,M,M,M,M,M,M,M,M,M,M,KLGA 010105Z AUTO 21009KT 10SM SCT050 OVC065 07/02 A2962 RMK T00700020 MADISHF
LGA,2020-01-01 01:10,-73.8803,40.7794,M,M,M,210.00,9.00,M,29.62,M,10.00,M,SCT,OVC,M,M,4800.00,6000.00,M,M,M,M,M,M,M,M,M,M,KLGA 010110Z AUTO 21009KT 10SM SCT048 OVC060 07/02 A2962 RMK T00700020 MADISHF
LGA,2020-01-01 01:15,-73.8803,40.7794,M,M,M,230.00,8.00,M,29.62,M,10.00,M,SCT,BKN,OVC,M,4200.00,4900.00,6500.00,M,M,M,M,M,M,M,M,M,KLGA 010115Z AUTO 23008KT 10SM SCT042 BKN049 OVC065 07/02 A2962 RMK T00700020 MADISHF
LGA,2020-01-01 01:20,-73.8803,40.7794,M,M,M,230.00,14.00,M,29.62,M,8.00,M,FEW,BKN,OVC,M,3300.00,4100.00,7000.00,M,-RA,M,M,M,M,M,M,M,KLGA 010120Z AUTO 23014KT 8SM -RA FEW033 BKN041 OVC070 07/02 A2962 RMK T00700020 MADISHF
LGA,2020-01-01 01:25,-73.8803,40.7794,M,M,M,250.00,11.00,M,29.63,M,6.00,M,FEW,BKN,OVC,M,2900.00,4100.00,6500.00,M,RA,M,M,M,M,M,M,M,KLGA 010125Z AUTO 25011KT 6SM RA FEW029 BKN041 OVC065 07/02 A2962 RMK T00700020 MADISHF
LGA,2020-01-01 01:30,-73.8803,40.7794,M,M,M,240.00,11.00,0.01,29.63,M,7.00,M,FEW,BKN,OVC,M,2700.00,3399.00,5500.00,M,-RA,M,M,M,M,M,M,M,KLGA 010130Z AUTO 24011KT 7SM -RA FEW027 BKN033 OVC055 07/02 A2962 RMK P0000 T00700020 MADISHF
LGA,2020-01-01 01:35,-73.8803,40.7794,M,M,M,250.00,16.00,0.01,29.64,M,10.00,M,FEW,BKN,OVC,M,2900.00,3500.00,4600.00,M,-RA,M,M,M,M,M,M,M,KLGA 010135Z AUTO 25016KT 10SM -RA FEW029 BKN035 OVC046 07/02 A2963 RMK P0000 T00700020 MADISHF
LGA,2020-01-01 01:40,-73.8803,40.7794,M,M,M,260.00,16.00,0.01,29.64,M,10.00,M,FEW,SCT,OVC,M,2700.00,3300.00,4900.00,M,-RA,M,M,M,M,M,M,M,KLGA 010140Z AUTO 26016KT 10SM -RA FEW027 SCT033 OVC049 07/02 A2963 RMK P0000 T00700020 CIG 042 R22 SW  MADISHF
LGA,2020-01-01 01:45,-73.8803,40.7794,M,M,M,280.00,17.00,0.01,29.64,M,10.00,M,FEW,SCT,OVC,M,2700.00,3500.00,4900.00,M,-RA,M,M,M,M,M,M,M,KLGA 010145Z AUTO 28017KT 10SM -RA FEW027 SCT035 OVC049 07/02 A2963 RMK P0000 T00700020 MADISHF
LGA,2020-01-01 01:50,-73.8803,40.7794,M,M,M,260.00,16.00,0.01,29.65,M,10.00,M,FEW,SCT,OVC,M,2700.00,3300.00,4900.00,M,-RA,M,M,M,M,M,M,M,KLGA 010150Z AUTO 26016KT 10SM -RA FEW027 SCT033 OVC049 07/01 A2964 RMK P0000 T00700010 MADISHF
LGA,2020-01-01 01:51,-73.8803,40.7794,44.10,34.00,67.41,280.00,14.00,0.01,29.65,1003.90,10.00,24.00,FEW,SCT,OVC,M,2700.00,3300.00,4900.00,M,-RA,M,M,M,M,M,M,36.76,KLGA 010151Z 28014G24KT 10SM -RA FEW027 SCT033 OVC049 07/01 A2965 RMK AO2 RAB17 CIG 037 R22 SW SLP039 P0001 T00670011
LGA,2020-01-01 01:55,-73.8803,40.7794,M,M,M,M,17.00,M,29.64,M,10.00,M,SCT,BKN,OVC,M,2700.00,3300.00,4900.00,M,-RA,M,M,M,M,M,M,M,KLGA 010155Z AUTO ///17KT 10SM -RA SCT027 BKN033 OVC049 07/01 A2963 RMK T00700010 MADISHF
LGA,2020-01-01 02:00,-73.8803,40.7794,M,M,M,M,17.00,M,29.64,M,10.00,M,SCT,BKN,OVC,M,2700.00,3100.00,4900.00,M,-RA,M,M,M,M,M,M,M,KLGA 010200Z AUTO ///17KT 10SM -RA SCT027 BKN031 OVC049 06/01 A2963 RMK T00600010 MADISHF
LGA,2020-01-01 02:05,-73.8803,40.7794,M,M,M,280.00,13.00,M,29.64,M,10.00,M,SCT,BKN,OVC,M,2700.00,3100.00,4900.00,M,-RA,M,M,M,M,M,M,M,KLGA 010205Z AUTO 28013KT 10SM -RA SCT027 BKN031 OVC049 06/01 A2963 RMK T00600010 MADISHF
LGA,2020-01-01 02:10,-73.8803,40.7794,M,M,M,260.00,13.00,M,29.64,M,10.00,M,FEW,SCT,OVC,M,2700.00,3200.00,5000.00,M,-RA,M,M,M,M,M,M,M,KLGA 010210Z AUTO 26013KT 10SM -RA FEW027 SCT032 OVC050 06/01 A2963 RMK T00600010 MADISHF
LGA,2020-01-01 02:15,-73.8803,40.7794,M,M,M,260.00,11.00,M,29.64,M,10.00,M,SCT,BKN,OVC,M,2700.00,5000.00,7000.00,M,-RA,M,M,M,M,M,M,M,KLGA 010215Z AUTO 26011KT 10SM -RA SCT027 BKN050 OVC070 06/01 A2963 RMK T00600010 MADISHF
LGA,2020-01-01 02:20,-73.8803,40.7794,M,M,M,250.00,9.00,M,29.64,M,10.00,M,FEW,OVC,M,M,2900.00,6000.00,M,M,-RA,M,M,M,M,M,M,M,KLGA 010220Z AUTO 25009KT 10SM -RA FEW029 OVC060 06/01 A2963 RMK T00600010 MADISHF
LGA,2020-01-01 02:25,-73.8803,40.7794,M,M,M,270.00,11.00,M,29.64,M,10.00,M,FEW,OVC,M,M,2900.00,6000.00,M,M,M,M,M,M,M,M,M,M,KLGA 010225Z AUTO 27011KT 10SM FEW029 OVC060 06/01 A2963 RMK T00600010 MADISHF
LGA,2020-01-01 02:30,-73.8803,40.7794,M,M,M,250.00,13.00,M,29.64,M,10.00,M,OVC,M,M,M,6000.00,M,M,M,M,M,M,M,M,M,M,M,KLGA 010230Z AUTO 25013KT 10SM OVC060 06/01 A2963 RMK T00600010 MADISHF
LGA,2020-01-01 02:35,-73.8803,40.7794,M,M,M,270.00,11.00,M,29.64,M,10.00,M,OVC,M,M,M,6000.00,M,M,M,M,M,M,M,M,M,M,M,KLGA 010235Z AUTO 27011KT 10SM OVC060 06/01 A2963 RMK T00600010 MADISHF
LGA,2020-01-01 02:40,-73.8803,40.7794,M,M,M,260.00,11.00,M,29.64,M,10.00,M,OVC,M,M,M,6000.00,M,M,M,M,M,M,M,M,M,M,M,KLGA 010240Z AUTO 26011KT 10SM OVC060 06/01 A2963 RMK T00600010 MADISHF
LGA,2020-01-01 02:45,-73.8803,40.7794,M,M,M,250.00,14.00,M,29.64,M,10.00,M,OVC,M,M,M,5500.00,M,M,M,M,M,M,M,M,M,M,M,KLGA 010245Z AUTO 25014KT 10SM OVC055 06/00 A2963 RMK T00600000 MADISHF
LGA,2020-01-01 02:50,-73.8803,40.7794,M,M,M,270.00,13.00,M,29.64,M,10.00,M,FEW,OVC,M,M,2700.00,5500.00,M,M,M,M,M,M,M,M,M,M,KLGA 010250Z AUTO 27013KT 10SM FEW027 OVC055 06/00 A2963 RMK T00600000 MADISHF
LGA,2020-01-01 02:51,-73.8803,40.7794,43.00,32.00,64.88,270.00,12.00,0.0001,29.64,1003.50,10.00,21.00,FEW,OVC,M,M,2700.00,5500.00,M,M,-RA,M,M,M,M,M,M,36.00,KLGA 010251Z 27012G21KT 10SM -RA FEW027 OVC055 06/00 A2964 RMK AO2 RAE21B51 SLP035 P0000 60001 T00610000 52002
LGA,2020-01-01 02:55,-73.8803,40.7794,M,M,M,260.00,13.00,M,29.64,M,10.00,M,OVC,M,M,M,5500.00,M,M,M,-RA,M,M,M,M,M,M,M,KLGA 010255Z AUTO 26013KT 10SM -RA OVC055 06/00 A2963 RMK T00600000 MADISHF
LGA,2020-01-01 03:00,-73.8803,40.7794,M,M,M,260.00,11.00,M,29.64,M,10.00,M,OVC,M,M,M,5500.00,M,M,M,-RA,M,M,M,M,M,M,M,KLGA 010300Z AUTO 26011KT 10SM -RA OVC055 06/00 A2963 RMK T00600000 MADISHF
LGA,2020-01-01 03:05,-73.8803,40.7794,M,M,M,270.00,10.00,M,29.64,M,10.00,M,OVC,M,M,M,5500.00,M,M,M,-RA,M,M,M,M,M,M,M,KLGA 010305Z AUTO 27010KT 10SM -RA OVC055 06/00 A2963 RMK T00600000 MADISHF
LGA,2020-01-01 03:10,-73.8803,40.7794,M,M,M,270.00,15.00,M,29.64,M,10.00,M,OVC,M,M,M,5500.00,M,M,M,-RA,M,M,M,M,M,M,M,KLGA 010310Z AUTO 27015KT 10SM -RA OVC055 06/00 A2963 RMK T00600000 MADISHF
LGA,2020-01-01 03:15,-73.8803,40.7794,M,M,M,270.00,10.00,M,29.64,M,10.00,M,OVC,M,M,M,5500.00,M,M,M,M,M,M,M,M,M,M,M,KLGA 010315Z AUTO 27010KT 10SM OVC055 06/00 A2963 RMK T00600000 MADISHF
LGA,2020-01-01 03:20,-73.8803,40.7794,M,M,M,280.00,13.00,M,29.64,M,10.00,18.00,OVC,M,M,M,6000.00,M,M,M,M,M,M,M,M,M,M,M,KLGA 010320Z AUTO 28013G18KT 10SM OVC060 06/00 A2963 RMK T00600000 MADISHF
LGA,2020-01-01 03:25,-73.8803,40.7794,M,M,M,270.00,11.00,M,29.64,M,10.00,M,OVC,M,M,M,6000.00,M,M,M,M,M,M,M,M,M,M,M,KLGA 010325Z AUTO 27011KT 10SM OVC060 06/00 A2963 RMK T00600000 MADISHF
LGA,2020-01-01 03:30,-73.8803,40.7794,M,M,M,280.00,10.00,M,29.63,M,10.00,M,BKN,OVC,M,M,6000.00,7500.00,M,M,M,M,M,M,M,M,M,M,KLGA 010330Z AUTO 28010KT 10SM BKN060 OVC075 06/00 A2962 RMK T00600000 MADISHF
LGA,2020-01-01 03:35,-73.8803,40.7794,M,M,M,290.00,10.00,M,29.63,M,10.00,16.00,BKN,OVC,M,M,6000.00,7500.00,M,M,M,M,M,M,M,M,M,M,KLGA 010335Z AUTO 29010G16KT 10SM BKN060 OVC075 06/00 A2962 RMK T00600000 MADISHF
LGA,2020-01-01 03:40,-73.8803,40.7794,M,M,M,300.00,14.00,M,29.63,M,10.00,M,BKN,OVC,M,M,7000.00,10000.00,M,M,M,M,M,M,M,M,M,M,KLGA 010340Z AUTO 30014KT 10SM BKN070 OVC100 06/00 A2962 RMK T00600000 MADISHF
LGA,2020-01-01 03:45,-73.8803,40.7794,M,M,M,300.00,10.00,M,29.63,M,10.00,M,BKN,OVC,M,M,7000.00,10000.00,M,M,M,M,M,M,M,M,M,M,KLGA 010345Z AUTO 30010KT 10SM BKN070 OVC100 06/M01 A2962 RMK T00601010 MADISHF
LGA,2020-01-01 03:50,-73.8803,40.7794,M,M,M,290.00,10.00,M,29.63,M,10.00,M,BKN,OVC,M,M,7000.00,9500.00,M,M,M,M,M,M,M,M,M,M,KLGA 010350Z AUTO 29010KT 10SM BKN070 OVC095 06/00 A2962 RMK T00600000 MADISHF
LGA,2020-01-01 03:51,-73.8803,40.7794,42.10,32.00,67.17,300.00,11.00,0.0001,29.63,1003.50,10.00,M,BKN,OVC,M,M,7000.00,9500.00,M,M,M,M,M,M,M,M,M,35.23,KLGA 010351Z 30011KT 10SM BKN070 OVC095 06/00 A2963 RMK AO2 RAE14 SLP035 P0000 T00560000
LGA,2020-01-01 03:55,-73.8803,40.7794,M,M,M,290.00,15.00,M,29.64,M,10.00,M,BKN,OVC,M,M,7000.00,10000.00,M,M,M,M,M,M,M,M,M,M,KLGA 010355Z AUTO 29015KT 10SM BKN070 OVC100 06/00 A2963 RMK T00600000 MADISHF
LGA,2020-01-01 04:00,-73.8803,40.7794,M,M,M,300.00,14.00,M,29.64,M,10.00,M,BKN,BKN,OVC,M,6500.00,7500.00,10000.00,M,M,M,M,M,M,M,M,M,KLGA 010400Z AUTO 30014KT 10SM BKN065 BKN075 OVC100 06/M01 A2963 RMK T00601010 MADISHF
LGA,2020-01-01 04:05,-73.8803,40.7794,M,M,M,300.00,17.00,M,29.64,M,10.00,M,BKN,OVC,M,M,7000.00,10000.00,M,M,M,M,M,M,M,M,M,M,KLGA 010405Z AUTO 30017KT 10SM BKN070 OVC100 06/M01 A2963 RMK T00601010 MADISHF
LGA,2020-01-01 04:10,-73.8803,40.7794,M,M,M,290.00,16.00,M,29.64,M,10.00,M,FEW,BKN,OVC,M,5000.00,6500.00,10000.00,M,M,M,M,M,M,M,M,M,KLGA 010410Z AUTO 29016KT 10SM FEW050 BKN065 OVC100 06/M01 A2963 RMK T00601010 MADISHF
LGA,2020-01-01 04:15,-73.8803,40.7794,M,M,M,290.00,17.00,M,29.64,M,10.00,M,BKN,OVC,M,M,6000.00,11000.00,M,M,M,M,M,M,M,M,M,M,KLGA 010415Z AUTO 29017KT 10SM BKN060 OVC110 06/M02 A2963 RMK T00601020 MADISHF
LGA,2020-01-01 04:20,-73.8803,40.7794,M,M,M,300.00,15.00,M,29.64,M,10.00,M,BKN,OVC,M,M,6000.00,10000.00,M,M,M,M,M,M,M,M,M,M,KLGA 010420Z AUTO 30015KT 10SM BKN060 OVC100 06/M02 A2963 RMK T00601020 MADISHF
LGA,2020-01-01 04:25,-73.8803,40.7794,M,M,M,290.00,13.00,M,29.64,M,10.00,M,BKN,OVC,M,M,6000.00,10000.00,M,M,M,M,M,M,M,M,M,M,KLGA 010425Z AUTO 29013KT 10SM BKN060 OVC100 06/M02 A2963 RMK T00601020 MADISHF
LGA,2020-01-01 04:30,-73.8803,40.7794,M,M,M,270.00,16.00,M,29.64,M,10.00,M,BKN,BKN,OVC,M,6000.00,7500.00,10000.00,M,M,M,M,M,M,M,M,M,KLGA 010430Z AUTO 27016KT 10SM BKN060 BKN075 OVC100 06/M02 A2963 RMK T00601020 MADISHF
LGA,2020-01-01 04:35,-73.8803,40.7794,M,M,M,290.00,15.00,M,29.64,M,10.00,M,BKN,OVC,M,M,6000.00,7500.00,M,M,M,M,M,M,M,M,M,M,KLGA 010435Z AUTO 29015KT 10SM BKN060 OVC075 06/M02 A2963 RMK T00601020 MADISHF
LGA,2020-01-01 04:40,-73.8803,40.7794,M,M,M,270.00,16.00,M,29.64,M,10.00,M,OVC,M,M,M,6500.00,M,M,M,M,M,M,M,M,M,M,M,KLGA 010440Z AUTO 27016KT 10SM OVC065 06/M02 A2963 RMK T00601020 MADISHF
LGA,2020-01-01 04:45,-73.8803,40.7794,M,M,M,280.00,15.00,M,29.64,M,10.00,M,OVC,M,M,M,6500.00,M,M,M,M,M,M,M,M,M,M,M,KLGA 010445Z AUTO 28015KT 10SM OVC065 06/M03 A2963 RMK T00601030 MADISHF
LGA,2020-01-01 04:50,-73.8803,40.7794,M,M,M,270.00,11.00,M,29.64,M,10.00,M,BKN,BKN,OVC,M,6000.00,7500.00,10000.00,M,M,M,M,M,M,M,M,M,KLGA 010450Z AUTO 27011KT 10SM BKN060 BKN075 OVC100 06/M03 A2963 RMK T00601030 MADISHF
LGA,2020-01-01 04:51,-73.8803,40.7794,42.10,27.00,54.78,280.00,12.00,0.00,29.64,1003.70,10.00,20.00,BKN,BKN,OVC,M,6000.00,7500.00,10000.00,M,M,M,M,M,27.00,250.00,2020-01-01 04:37,34.86,KLGA 010451Z 28012G20KT 10SM BKN060 BKN075 OVC100 06/M03 A2964 RMK AO2 PK WND 25027/0437 SLP037 T00561028 400780033
LGA,2020-01-01 04:55,-73.8803,40.7794,M,M,M,260.00,10.00,M,29.64,M,10.00,M,BKN,OVC,M,M,6000.00,7500.00,M,M,M,M,M,M,M,M,M,M,KLGA 010455Z AUTO 26010KT 10SM BKN060 OVC075 06/M03 A2963 RMK T00601030 MADISHF
LGA,2020-01-01 05:00,-73.8803,40.7794,M,M,M,260.00,11.00,M,29.64,M,10.00,17.00,OVC,M,M,M,6000.00,M,M,M,M,M,M,M,M,M,M,M,KLGA 010500Z AUTO 26011G17KT 10SM OVC060 06/M03 A2963 RMK T00601030 MADISHF
LGA,2020-01-01 05:05,-73.8803,40.7794,M,M,M,270.00,14.00,M,29.64,M,10.00,M,OVC,M,M,M,6000.00,M,M,M,M,M,M,M,M,M,M,M,KLGA 010505Z AUTO 27014KT 10SM OVC060 05/M03 A2963 RMK T00501030 MADISHF
LGA,2020-01-01 05:10,-73.8803,40.7794,M,M,M,270.00,10.00,M,29.65,M,10.00,M,OVC,M,M,M,6000.00,M,M,M,M,M,M,M,M,M,M,M,KLGA 010510Z AUTO 27010KT 10SM OVC060 06/M03 A2964 RMK T00601030 MADISHF
LGA,2020-01-01 05:15,-73.8803,40.7794,M,M,M,260.00,11.00,M,29.64,M,10.00,M,OVC,M,M,M,6000.00,M,M,M,M,M,M,M,M,M,M,M,KLGA 010515Z AUTO 26011KT 10SM OVC060 05/M03 A2963 RMK T00501030 MADISHF
LGA,2020-01-01 05:20,-73.8803,40.7794,M,M,M,270.00,13.00,M,29.64,M,10.00,M,BKN,OVC,M,M,6500.00,8500.00,M,M,M,M,M,M,M,M,M,M,KLGA 010520Z AUTO 27013KT 10SM BKN065 OVC085 05/M03 A2963 RMK T00501030 MADISHF
LGA,2020-01-01 05:25,-73.8803,40.7794,M,M,M,M,16.00,M,29.64,M,10.00,M,BKN,OVC,M,M,6500.00,9000.00,M,M,M,M,M,M,M,M,M,M,KLGA 010525Z AUTO ///16KT 10SM BKN065 OVC090 05/M04 A2963 RMK T00501040 MADISHF
LGA,2020-01-01 05:30,-73.8803,40.7794,M,M,M,260.00,14.00,M,29.64,M,10.00,M,SCT,BKN,OVC,M,6500.00,7999.00,10000.00,M,M,M,M,M,M,M,M,M,KLGA 010530Z AUTO 26014KT 10SM SCT065 BKN079 OVC100 05/M04 A2963 RMK T00501040 MADISHF
LGA,2020-01-01 05:35,-73.8803,40.7794,M,M,M,260.00,14.00,M,29.64,M,10.00,M,FEW,OVC,M,M,6500.00,7999.00,M,M,M,M,M,M,M,M,M,M,KLGA 010535Z AUTO 26014KT 10SM FEW065 OVC079 05/M04 A2963 RMK T00501040 MADISHF
LGA,2020-01-01 05:40,-73.8803,40.7794,M,M,M,260.00,11.00,M,29.64,M,10.00,M,OVC,M,M,M,7999.00,M,M,M,M,M,M,M,M,M,M,M,KLGA 010540Z AUTO 26011KT 10SM OVC079 05/M03 A2963 RMK T00501030 MADISHF
LGA,2020-01-01 05:45,-73.8803,40.7794,M,M,M,260.00,16.00,M,29.64,M,10.00,M,OVC,M,M,M,7999.00,M,M,M,M,M,M,M,M,M,M,M,KLGA 010545Z AUTO 26016KT 10SM OVC079 04/M03 A2963 RMK T00401030 MADISHF
LGA,2020-01-01 05:50,-73.8803,40.7794,M,M,M,270.00,11.00,M,29.65,M,10.00,M,BKN,OVC,M,M,7999.00,10000.00,M,M,M,M,M,M,M,M,M,M,KLGA 010550Z AUTO 27011KT 10SM BKN079 OVC100 04/M04 A2964 RMK T00401040 MADISHF
LGA,2020-01-01 05:51,-73.8803,40.7794,39.90,25.00,54.90,270.00,12.00,0.00,29.65,1003.80,10.00,21.00,BKN,OVC,M,M,8000.00,10000.00,M,M,M,M,M,M,M,M,M,32.06,KLGA 010551Z 27012G21KT 10SM BKN080 OVC100 04/M04 A2965 RMK AO2 SLP038 60001 T00441039 10072 20044 53003
LGA,2020-01-01 05:55,-73.8803,40.7794,M,M,M,270.00,15.00,M,29.65,M,10.00,20.00,BKN,OVC,M,M,7999.00,10000.00,M,M,M,M,M,M,M,M,M,M,KLGA 010555Z AUTO 27015G20KT 10SM BKN079 OVC100 04/M04 A2964 RMK T00401040 MADISHF
LGA,2020-01-01 06:00,-73.8803,40.7794,M,M,M,270.00,13.00,M,29.64,M,10.00,18.00,BKN,OVC,M,M,7999.00,10000.00,M,M,M,M,M,M,M,M,M,M,KLGA 010600Z AUTO 27013G18KT 10SM BKN079 OVC100 04/M04 A2963 RMK T00401040 MADISHF
LGA,2020-01-01 06:05,-73.8803,40.7794,M,M,M,280.00,10.00,M,29.64,M,10.00,16.00,OVC,M,M,M,9500.00,M,M,M,M,M,M,M,M,M,M,M,KLGA 010605Z AUTO 28010G16KT 10SM OVC095 04/M04 A2963 RMK T00401040 MADISHF
LGA,2020-01-01 06:10,-73.8803,40.7794,M,M,M,280.00,11.00,M,29.65,M,10.00,M,OVC,M,M,M,10000.00,M,M,M,M,M,M,M,M,M,M,M,KLGA 010610Z AUTO 28011KT 10SM OVC100 04/M04 A2964 RMK T00401040 MADISHF
LGA,2020-01-01 06:15,-73.8803,40.7794,M,M,M,280.00,15.00,M,29.65,M,10.00,M,OVC,M,M,M,10000.00,M,M,M,M,M,M,M,M,M,M,M,KLGA 010615Z AUTO 28015KT 10SM OVC100 04/M04 A2964 RMK T00401040 MADISHF
LGA,2020-01-01 06:20,-73.8803,40.7794,M,M,M,280.00,11.00,M,29.65,M,10.00,M,OVC,M,M,M,10000.00,M,M,M,M,M,M,M,M,M,M,M,KLGA 010620Z AUTO 28011KT 10SM OVC100 04/M03 A2964 RMK T00401030 MADISHF
LGA,2020-01-01 06:25,-73.8803,40.7794,M,M,M,270.00,15.00,M,29.65,M,10.00,M,OVC,M,M,M,10000.00,M,M,M,M,M,M,M,M,M,M,M,KLGA 010625Z AUTO 27015KT 10SM OVC100 04/M04 A2964 RMK T00401040 MADISHF
LGA,2020-01-01 06:30,-73.8803,40.7794,M,M,M,270.00,11.00,M,29.65,M,10.00,M,OVC,M,M,M,10000.00,M,M,M,M,M,M,M,M,M,M,M,KLGA 010630Z AUTO 27011KT 10SM OVC100 04/M04 A2964 RMK T00401040 MADISHF
LGA,2020-01-01 06:35,-73.8803,40.7794,M,M,M,260.00,13.00,M,29.65,M,10.00,M,OVC,M,M,M,10000.00,M,M,M,M,M,M,M,M,M,M,M,KLGA 010635Z AUTO 26013KT 10SM OVC100 04/M03 A2964 RMK T00401030 MADISHF
LGA,2020-01-01 06:40,-73.8803,40.7794,M,M,M,260.00,11.00,M,29.65,M,10.00,M,FEW,OVC,M,M,7000.00,10000.00,M,M,M,M,M,M,M,M,M,M,KLGA 010640Z AUTO 26011KT 10SM FEW070 OVC100 04/M03 A2964 RMK T00401030 MADISHF
LGA,2020-01-01 06:45,-73.8803,40.7794,M,M,M,270.00,14.00,M,29.65,M,10.00,M,FEW,OVC,M,M,7000.00,10000.00,M,M,M,M,M,M,M,M,M,M,KLGA 010645Z AUTO 27014KT 10SM FEW070 OVC100 04/M03 A2964 RMK T00401030 MADISHF
LGA,2020-01-01 06:50,-73.8803,40.7794,M,M,M,270.00,11.00,M,29.66,M,10.00,18.00,SCT,OVC,M,M,7000.00,10000.00,M,M,M,M,M,M,M,M,M,M,KLGA 010650Z AUTO 27011G18KT 10SM SCT070 OVC100 04/M03 A2965 RMK T00401030 MADISHF
LGA,2020-01-01 06:51,-73.8803,40.7794,39.90,26.10,57.47,270.00,15.00,0.00,29.66,1004.20,10.00,19.00,SCT,OVC,M,M,7000.00,10000.00,M,M,M,M,M,M,M,M,M,31.02,KLGA 010651Z 27015G19KT 10SM SCT070 OVC100 04/M03 A2966 RMK AO2 SLP042 T00441033
LGA,2020-01-01 06:55,-73.8803,40.7794,M,M,M,260.00,11.00,M,29.66,M,10.00,M,SCT,OVC,M,M,7000.00,10000.00,M,M,M,M,M,M,M,M,M,M,KLGA 010655Z AUTO 26011KT 10SM SCT070 OVC100 04/M03 A2965 RMK T00401030 CIG 070 R22 SW  MADISHF
LGA,2020-01-01 07:00,-73.8803,40.7794,M,M,M,260.00,15.00,M,29.66,M,10.00,M,SCT,OVC,M,M,7000.00,10000.00,M,M,M,M,M,M,M,M,M,M,KLGA 010700Z AUTO 26015KT 10SM SCT070 OVC100 04/M03 A2965 RMK T00401030 MADISHF
LGA,2020-01-01 07:05,-73.8803,40.7794,M,M,M,260.00,11.00,M,29.66,M,10.00,M,BKN,OVC,M,M,7000.00,10000.00,M,M,M,M,M,M,M,M,M,M,KLGA 010705Z AUTO 26011KT 10SM BKN070 OVC100 04/M03 A2965 RMK T00401030 MADISHF
LGA,2020-01-01 07:10,-73.8803,40.7794,M,M,M,280.00,14.00,M,29.66,M,10.00,M,BKN,OVC,M,M,7000.00,10000.00,M,M,M,M,M,M,M,M,M,M,KLGA 010710Z AUTO 28014KT 10SM BKN070 OVC100 04/M03 A2965 RMK T00401030 MADISHF
LGA,2020-01-01 07:15,-73.8803,40.7794,M,M,M,270.00,13.00,M,29.66,M,10.00,M,BKN,OVC,M,M,7000.00,10000.00,M,M,M,M,M,M,M,M,M,M,KLGA 010715Z AUTO 27013KT 10SM BKN070 OVC100 04/M03 A2965 RMK T00401030 MADISHF
LGA,2020-01-01 07:20,-73.8803,40.7794,M,M,M,260.00,13.00,M,29.66,M,10.00,M,BKN,OVC,M,M,7000.00,10000.00,M,M,M,M,M,M,M,M,M,M,KLGA 010720Z AUTO 26013KT 10SM BKN070 OVC100 04/M03 A2965 RMK T00401030 MADISHF
LGA,2020-01-01 07:25,-73.8803,40.7794,M,M,M,270.00,15.00,M,29.66,M,10.00,M,BKN,OVC,M,M,7000.00,10000.00,M,M,M,M,M,M,M,M,M,M,KLGA 010725Z AUTO 27015KT 10SM BKN070 OVC100 04/M03 A2965 RMK T00401030 MADISHF
LGA,2020-01-01 07:30,-73.8803,40.7794,M,M,M,270.00,16.00,M,29.66,M,10.00,M,OVC,M,M,M,7000.00,M,M,M,M,M,M,M,M,M,M,M,KLGA 010730Z AUTO 27016KT 10SM OVC070 04/M04 A2965 RMK T00401040 MADISHF
LGA,2020-01-01 07:35,-73.8803,40.7794,M,M,M,270.00,16.00,M,29.66,M,10.00,M,SCT,BKN,M,M,7000.00,9500.00,M,M,M,M,M,M,M,M,M,M,KLGA 010735Z AUTO 27016KT 10SM SCT070 BKN095 04/M04 A2965 RMK T00401040 MADISHF
LGA,2020-01-01 07:40,-73.8803,40.7794,M,M,M,270.00,13.00,M,29.66,M,10.00,M,SCT,BKN,M,M,7000.00,9500.00,M,M,M,M,M,M,M,M,M,M,KLGA 010740Z AUTO 27013KT 10SM SCT070 BKN095 04/M04 A2965 RMK T00401040 MADISHF
LGA,2020-01-01 07:45,-73.8803,40.7794,M,M,M,270.00,14.00,M,29.66,M,10.00,M,SCT,BKN,M,M,7000.00,9500.00,M,M,M,M,M,M,M,M,M,M,KLGA 010745Z AUTO 27014KT 10SM SCT070 BKN095 04/M04 A2965 RMK T00401040 MADISHF
LGA,2020-01-01 07:50,-73.8803,40.7794,M,M,M,270.00,15.00,M,29.66,M,10.00,M,SCT,BKN,M,M,7000.00,9500.00,M,M,M,M,M,M,M,M,M,M,KLGA 010750Z AUTO 27015KT 10SM SCT070 BKN095 04/M04 A2965 RMK T00401040 MADISHF
LGA,2020-01-01 07:51,-73.8803,40.7794,39.90,25.00,54.90,280.00,14.00,0.00,29.66,1004.50,10.00,24.00,SCT,BKN,M,M,7000.00,9500.00,M,M,M,M,M,M,M,M,M,31.35,KLGA 010751Z 28014G24KT 10SM SCT070 BKN095 04/M04 A2966 RMK AO2 SLP045 T00441039
LGA,2020-01-01 07:55,-73.8803,40.7794,M,M,M,270.00,16.00,M,29.66,M,10.00,M,FEW,OVC,M,M,7000.00,9000.00,M,M,M,M,M,M,M,M,M,M,KLGA 010755Z AUTO 27016KT 10SM FEW070 OVC090 04/M04 A2965 RMK T00401040 MADISHF
LGA,2020-01-01 08:00,-73.8803,40.7794,M,M,M,260.00,19.00,M,29.66,M,10.00,M,OVC,M,M,M,9000.00,M,M,M,M,M,M,M,M,M,M,M,KLGA 010800Z AUTO 26019KT 10SM OVC090 04/M04 A2965 RMK T00401040 MADISHF
LGA,2020-01-01 08:05,-73.8803,40.7794,M,M,M,280.00,10.00,M,29.67,M,10.00,M,OVC,M,M,M,9000.00,M,M,M,M,M,M,M,M,M,M,M,KLGA 010805Z AUTO 28010KT 10SM OVC090 04/M04 A2967 RMK T00401040 MADISHF
LGA,2020-01-01 08:10,-73.8803,40.7794,M,M,M,280.00,15.00,M,29.67,M,10.00,M,OVC,M,M,M,9000.00,M,M,M,M,M,M,M,M,M,M,M,KLGA 010810Z AUTO 28015KT 10SM OVC090 04/M04 A2967 RMK T00401040 MADISHF
LGA,2020-01-01 08:15,-73.8803,40.7794,M,M,M,270.00,11.00,M,29.67,M,10.00,19.00,BKN,M,M,M,9000.00,M,M,M,M,M,M,M,M,M,M,M,KLGA 010815Z AUTO 27011G19KT 10SM BKN090 04/M04 A2967 RMK T00401040 MADISHF
LGA,2020-01-01 08:20,-73.8803,40.7794,M,M,M,270.00,9.00,M,29.67,M,10.00,M,SCT,M,M,M,9000.00,M,M,M,M,M,M,M,M,M,M,M,KLGA 010820Z AUTO 27009KT 10SM SCT090 04/M04 A2967 RMK T00401040 MADISHF
LGA,2020-01-01 08:25,-73.8803,40.7794,M,M,M,280.00,15.00,M,29.67,M,10.00,M,SCT,M,M,M,9000.00,M,M,M,M,M,M,M,M,M,M,M,KLGA 010825Z AUTO 28015KT 10SM SCT090 04/M04 A2967 RMK T00401040 MADISHF
LGA,2020-01-01 08:30,-73.8803,40.7794,M,M,M,270.00,14.00,M,29.67,M,10.00,M,SCT,SCT,M,M,7999.00,9500.00,M,M,M,M,M,M,M,M,M,M,KLGA 010830Z AUTO 27014KT 10SM SCT079 SCT095 04/M04 A2967 RMK T00401040 MADISHF
LGA,2020-01-01 08:35,-73.8803,40.7794,M,M,M,270.00,13.00,M,29.67,M,10.00,M,FEW,SCT,M,M,7999.00,9500.00,M,M,M,M,M,M,M,M,M,M,KLGA 010835Z AUTO 27013KT 10SM FEW079 SCT095 04/M04 A2967 RMK T00401040 MADISHF
LGA,2020-01-01 08:40,-73.8803,40.7794,M,M,M,270.00,14.00,M,29.68,M,10.00,M,SCT,M,M,M,7999.00,M,M,M,M,M,M,M,M,M,M,M,KLGA 010840Z AUTO 27014KT 10SM SCT079 04/M05 A2968 RMK T00401050 MADISHF
LGA,2020-01-01 08:45,-73.8803,40.7794,M,M,M,260.00,15.00,M,29.68,M,10.00,M,BKN,M,M,M,7500.00,M,M,M,M,M,M,M,M,M,M,M,KLGA 010845Z AUTO 26015KT 10SM BKN075 04/M05 A2968 RMK T00401050 MADISHF
LGA,2020-01-01 08:50,-73.8803,40.7794,M,M,M,270.00,14.00,M,29.68,M,10.00,20.00,BKN,M,M,M,7500.00,M,M,M,M,M,M,M,M,M,M,M,KLGA 010850Z AUTO 27014G20KT 10SM BKN075 04/M05 A2968 RMK T00401050 MADISHF
LGA,2020-01-01 08:51,-73.8803,40.7794,39.00,23.00,52.30,260.00,14.00,0.00,29.68,1005.00,10.00,M,BKN,OVC,M,M,7500.00,22000.00,M,M,M,M,M,M,26.00,270.00,2020-01-01 07:54,30.19,KLGA 010851Z 26014KT 10SM BKN075 OVC220 04/M05 A2968 RMK AO2 PK WND 27026/0754 SLP050 T00391050 53011
LGA,2020-01-01 08:55,-73.8803,40.7794,M,M,M,260.00,16.00,M,29.68,M,10.00,M,BKN,M,M,M,7500.00,M,M,M,M,M,M,M,M,M,M,M,KLGA 010855Z AUTO 26016KT 10SM BKN075 04/M05 A2968 RMK T00401050 MADISHF
LGA,2020-01-01 09:00,-73.8803,40.7794,M,M,M,270.00,13.00,M,29.68,M,10.00,M,BKN,M,M,M,7500.00,M,M,M,M,M,M,M,M,M,M,M,KLGA 010900Z AUTO 27013KT 10SM BKN075 04/M05 A2968 RMK T00401050 MADISHF
LGA,2020-01-01 09:05,-73.8803,40.7794,M,M,M,270.00,11.00,M,29.68,M,10.00,M,OVC,M,M,M,7500.00,M,M,M,M,M,M,M,M,M,M,M,KLGA 010905Z AUTO 27011KT 10SM OVC075 04/M05 A2968 RMK T00401050 MADISHF
LGA,2020-01-01 09:10,-73.8803,40.7794,M,M,M,270.00,16.00,M,29.68,M,10.00,M,OVC,M,M,M,7500.00,M,M,M,M,M,M,M,M,M,M,M,KLGA 010910Z AUTO 27016KT 10SM OVC075 04/M05 A2968 RMK T00401050 MADISHF
LGA,2020-01-01 09:15,-73.8803,40.7794,M,M,M,280.00,14.00,M,29.68,M,10.00,M,OVC,M,M,M,7500.00,M,M,M,M,M,M,M,M,M,M,M,KLGA 010915Z AUTO 28014KT 10SM OVC075 04/M04 A2968 RMK T00401040 MADISHF
LGA,2020-01-01 09:20,-73.8803,40.7794,M,M,M,260.00,11.00,M,29.68,M,10.00,20.00,OVC,M,M,M,7500.00,M,M,M,M,M,M,M,M,M,M,M,KLGA 010920Z AUTO 26011G20KT 10SM OVC075 04/M04 A2968 RMK T00401040 MADISHF
LGA,2020-01-01 09:25,-73.8803,40.7794,M,M,M,280.00,13.00,M,29.68,M,10.00,M,OVC,M,M,M,7500.00,M,M,M,M,M,M,M,M,M,M,M,KLGA 010925Z AUTO 28013KT 10SM OVC075 04/M05 A2968 RMK T00401050 MADISHF
LGA,2020-01-01 09:30,-73.8803,40.7794,M,M,M,270.00,9.00,M,29.68,M,10.00,M,OVC,M,M,M,7500.00,M,M,M,M,M,M,M,M,M,M,M,KLGA 010930Z AUTO 27009KT 10SM OVC075 04/M05 A2968 RMK T00401050 MADISHF
LGA,2020-01-01 09:35,-73.8803,40.7794,M,M,M,260.00,13.00,M,29.68,M,10.00,M,OVC,M,M,M,7500.00,M,M,M,M,M,M,M,M,M,M,M,KLGA 010935Z AUTO 26013KT 10SM OVC075 03/M04 A2968 RMK T00301040 MADISHF
LGA,2020-01-01 09:40,-73.8803,40.7794,M,M,M,260.00,13.00,M,29.68,M,10.00,M,OVC,M,M,M,7000.00,M,M,M,M,M,M,M,M,M,M,M,KLGA 010940Z AUTO 26013KT 10SM OVC070 03/M05 A2968 RMK T00301050 MADISHF
LGA,2020-01-01 09:45,-73.8803,40.7794,M,M,M,270.00,13.00,M,29.68,M,10.00,M,OVC,M,M,M,7000.00,M,M,M,M,M,M,M,M,M,M,M,KLGA 010945Z AUTO 27013KT 10SM OVC070 03/M05 A2968 RMK T00301050 MADISHF
LGA,2020-01-01 09:50,-73.8803,40.7794,M,M,M,270.00,13.00,M,29.68,M,10.00,M,OVC,M,M,M,7000.00,M,M,M,M,M,M,M,M,M,M,M,KLGA 010950Z AUTO 27013KT 10SM OVC070 03/M05 A2968 RMK T00301050 MADISHF
LGA,2020-01-01 09:51,-73.8803,40.7794,37.90,23.00,54.60,270.00,12.00,0.00,29.68,1005.10,10.00,20.00,OVC,M,M,M,7000.00,M,M,M,M,M,M,M,M,M,M,29.51,KLGA 010951Z 27012G20KT 10SM OVC070 03/M05 A2968 RMK AO2 SLP051 T00331050
LGA,2020-01-01 09:55,-73.8803,40.7794,M,M,M,270.00,14.00,M,29.68,M,10.00,M,OVC,M,M,M,6500.00,M,M,M,M,M,M,M,M,M,M,M,KLGA 010955Z AUTO 27014KT 10SM OVC065 03/M05 A2968 RMK T00301050 MADISHF
LGA,2020-01-01 10:00,-73.8803,40.7794,M,M,M,270.00,16.00,M,29.68,M,10.00,M,OVC,M,M,M,6500.00,M,M,M,M,M,M,M,M,M,M,M,KLGA 011000Z AUTO 27016KT 10SM OVC065 03/M06 A2968 RMK T00301060 MADISHF
LGA,2020-01-01 10:05,-73.8803,40.7794,M,M,M,270.00,11.00,M,29.68,M,10.00,M,OVC,M,M,M,6500.00,M,M,M,M,M,M,M,M,M,M,M,KLGA 011005Z AUTO 27011KT 10SM OVC065 03/M06 A2968 RMK T00301060 MADISHF
LGA,2020-01-01 10:10,-73.8803,40.7794,M,M,M,270.00,14.00,M,29.68,M,10.00,M,OVC,M,M,M,6500.00,M,M,M,M,M,M,M,M,M,M,M,KLGA 011010Z AUTO 27014KT 10SM OVC065 03/M06 A2968 RMK T00301060 MADISHF
LGA,2020-01-01 10:15,-73.8803,40.7794,M,M,M,270.00,16.00,M,29.69,M,10.00,M,OVC,M,M,M,6500.00,M,M,M,M,M,M,M,M,M,M,M,KLGA 011015Z AUTO 27016KT 10SM OVC065 03/M06 A2969 RMK T00301060 MADISHF
LGA,2020-01-01 10:20,-73.8803,40.7794,M,M,M,280.00,13.00,M,29.69,M,10.00,M,OVC,M,M,M,6500.00,M,M,M,M,M,M,M,M,M,M,M,KLGA 011020Z AUTO 28013KT 10SM OVC065 03/M06 A2969 RMK T00301060 MADISHF
LGA,2020-01-01 10:25,-73.8803,40.7794,M,M,M,270.00,14.00,M,29.69,M,10.00,M,OVC,M,M,M,7000.00,M,M,M,M,M,M,M,M,M,M,M,KLGA 011025Z AUTO 27014KT 10SM OVC070 03/M06 A2969 RMK T00301060 MADISHF
LGA,2020-01-01 10:30,-73.8803,40.7794,M,M,M,260.00,15.00,M,29.69,M,10.00,M,OVC,M,M,M,7000.00,M,M,M,M,M,M,M,M,M,M,M,KLGA 011030Z AUTO 26015KT 10SM OVC070 03/M06 A2969 RMK T00301060 MADISHF
LGA,2020-01-01 10:35,-73.8803,40.7794,M,M,M,260.00,19.00,M,29.69,M,10.00,M,OVC,M,M,M,6500.00,M,M,M,M,M,M,M,M,M,M,M,KLGA 011035Z AUTO 26019KT 10SM OVC065 03/M06 A2969 RMK T00301060 MADISHF
LGA,2020-01-01 10:40,-73.8803,40.7794,M,M,M,260.00,14.00,M,29.69,M,10.00,20.00,OVC,M,M,M,6500.00,M,M,M,M,M,M,M,M,M,M,M,KLGA 011040Z AUTO 26014G20KT 10SM OVC065 03/M06 A2969 RMK T00301060 MADISHF
LGA,2020-01-01 10:45,-73.8803,40.7794,M,M,M,270.00,14.00,M,29.69,M,10.00,M,OVC,M,M,M,6500.00,M,M,M,M,M,M,M,M,M,M,M,KLGA 011045Z AUTO 27014KT 10SM OVC065 03/M07 A2969 RMK T00301070 MADISHF
LGA,2020-01-01 10:50,-73.8803,40.7794,M,M,M,270.00,15.00,M,29.70,M,10.00,M,OVC,M,M,M,6500.00,M,M,M,M,M,M,M,M,M,M,M,KLGA 011050Z AUTO 27015KT 10SM OVC065 03/M07 A2970 RMK T00301070 MADISHF
LGA,2020-01-01 10:51,-73.8803,40.7794,37.90,19.90,47.89,260.00,16.00,0.00,29.70,1005.50,10.00,21.00,SCT,OVC,M,M,4000.00,6500.00,M,M,M,M,M,M,M,M,M,28.11,KLGA 011051Z 26016G21KT 10SM SCT040 OVC065 03/M07 A2970 RMK AO2 SLP055 T00331067
LGA,2020-01-01 10:55,-73.8803,40.7794,M,M,M,270.00,17.00,M,29.70,M,10.00,M,OVC,M,M,M,6000.00,M,M,M,M,M,M,M,M,M,M,M,KLGA 011055Z AUTO 27017KT 10SM OVC060 03/M07 A2970 RMK T00301070 MADISHF
LGA,2020-01-01 11:00,-73.8803,40.7794,M,M,M,270.00,11.00,M,29.70,M,10.00,M,OVC,M,M,M,6000.00,M,M,M,M,M,M,M,M,M,M,M,KLGA 011100Z AUTO 27011KT 10SM OVC060 03/M07 A2970 RMK T00301070 MADISHF
LGA,2020-01-01 11:05,-73.8803,40.7794,M,M,M,270.00,15.00,M,29.70,M,10.00,M,OVC,M,M,M,6000.00,M,M,M,M,M,M,M,M,M,M,M,KLGA 011105Z AUTO 27015KT 10SM OVC060 03/M06 A2970 RMK T00301060 MADISHF
LGA,2020-01-01 11:10,-73.8803,40.7794,M,M,M,260.00,13.00,M,29.70,M,10.00,18.00,OVC,M,M,M,6000.00,M,M,M,M,M,M,M,M,M,M,M,KLGA 011110Z AUTO 26013G18KT 10SM OVC060 03/M06 A2970 RMK T00301060 MADISHF
LGA,2020-01-01 11:15,-73.8803,40.7794,M,M,M,270.00,11.00,M,29.70,M,10.00,M,OVC,M,M,M,6500.00,M,M,M,M,M,M,M,M,M,M,M,KLGA 011115Z AUTO 27011KT 10SM OVC065 03/M06 A2970 RMK T00301060 MADISHF
LGA,2020-01-01 11:20,-73.8803,40.7794,M,M,M,250.00,16.00,M,29.70,M,10.00,M,OVC,M,M,M,6500.00,M,M,M,M,M,M,M,M,M,M,M,KLGA 011120Z AUTO 25016KT 10SM OVC065 03/M05 A2970 RMK T00301050 MADISHF
LGA,2020-01-01 11:25,-73.8803,40.7794,M,M,M,270.00,15.00,M,29.70,M,10.00,M,OVC,M,M,M,6500.00,M,M,M,M,M,M,M,M,M,M,M,KLGA 011125Z AUTO 27015KT 10SM OVC065 03/M05 A2970 RMK T00301050 MADISHF
LGA,2020-01-01 11:30,-73.8803,40.7794,M,M,M,260.00,14.00,M,29.70,M,10.00,M,OVC,M,M,M,6500.00,M,M,M,M,M,M,M,M,M,M,M,KLGA 011130Z AUTO 26014KT 10SM OVC065 03/M04 A2970 RMK T00301040 MADISHF
LGA,2020-01-01 11:35,-73.8803,40.7794,M,M,M,260.00,14.00,M,29.70,M,10.00,M,OVC,M,M,M,6500.00,M,M,M,M,M,M,M,M,M,M,M,KLGA 011135Z AUTO 26014KT 10SM OVC065 03/M04 A2970 RMK T00301040 MADISHF
LGA,2020-01-01 11:40,-73.8803,40.7794,M,M,M,250.00,15.00,M,29.70,M,10.00,21.00,OVC,M,M,M,6500.00,M,M,M,M,M,M,M,M,M,M,M,KLGA 011140Z AUTO 25015G21KT 10SM OVC065 03/M04 A2970 RMK T00301040 MADISHF
LGA,2020-01-01 11:45,-73.8803,40.7794,M,M,M,260.00,13.00,M,29.70,M,10.00,M,OVC,M,M,M,6500.00,M,M,M,M,M,M,M,M,M,M,M,KLGA 011145Z AUTO 26013KT 10SM OVC065 03/M04 A2970 RMK T00301040 MADISHF
LGA,2020-01-01 11:50,-73.8803,40.7794,M,M,M,260.00,16.00,M,29.70,M,10.00,M,OVC,M,M,M,6500.00,M,M,M,M,M,M,M,M,M,M,M,KLGA 011150Z AUTO 26016KT 10SM OVC065 03/M05 A2970 RMK T00301050 MADISHF
LGA,2020-01-01 11:51,-73.8803,40.7794,37.00,23.00,56.57,260.00,16.00,0.00,29.70,1005.70,10.00,20.00,OVC,M,M,M,6500.00,M,M,M,M,M,M,M,M,M,M,26.94,KLGA 011151Z 26016G20KT 10SM OVC065 03/M05 A2970 RMK AO2 SLP057 70001 T00281050 10044 20028 53007
LGA,2020-01-01 11:55,-73.8803,40.7794,M,M,M,260.00,16.00,M,29.70,M,10.00,M,OVC,M,M,M,6500.00,M,M,M,M,M,M,M,M,M,M,M,KLGA 011155Z AUTO 26016KT 10SM OVC065 03/M05 A2970 RMK T00301050 MADISHF
LGA,2020-01-01 12:00,-73.8803,40.7794,M,M,M,260.00,16.00,M,29.70,M,10.00,M,OVC,M,M,M,6500.00,M,M,M,M,M,M,M,M,M,M,M,KLGA 011200Z AUTO 26016KT 10SM OVC065 03/M05 A2970 RMK T00301050 MADISHF
LGA,2020-01-01 12:05,-73.8803,40.7794,M,M,M,260.00,14.00,M,29.71,M,10.00,M,OVC,M,M,M,6500.00,M,M,M,M,M,M,M,M,M,M,M,KLGA 011205Z AUTO 26014KT 10SM OVC065 03/M05 A2970 RMK T00301050 MADISHF
LGA,2020-01-01 12:10,-73.8803,40.7794,M,M,M,260.00,13.00,M,29.71,M,10.00,M,OVC,M,M,M,6500.00,M,M,M,M,M,M,M,M,M,M,M,KLGA 011210Z AUTO 26013KT 10SM OVC065 03/M04 A2970 RMK T00301040 MADISHF
LGA,2020-01-01 12:15,-73.8803,40.7794,M,M,M,250.00,16.00,M,29.71,M,10.00,M,OVC,M,M,M,6500.00,M,M,M,M,M,M,M,M,M,M,M,KLGA 011215Z AUTO 25016KT 10SM OVC065 03/M04 A2970 RMK T00301040 MADISHF
LGA,2020-01-01 12:20,-73.8803,40.7794,M,M,M,260.00,17.00,M,29.71,M,10.00,M,OVC,M,M,M,6500.00,M,M,M,M,M,M,M,M,M,M,M,KLGA 011220Z AUTO 26017KT 10SM OVC065 03/M05 A2970 RMK T00301050 MADISHF
LGA,2020-01-01 12:25,-73.8803,40.7794,M,M,M,260.00,11.00,M,29.71,M,10.00,M,OVC,M,M,M,6500.00,M,M,M,M,M,M,M,M,M,M,M,KLGA 011225Z AUTO 26011KT 10SM OVC065 03/M05 A2970 RMK T00301050 MADISHF
LGA,2020-01-01 12:30,-73.8803,40.7794,M,M,M,260.00,13.00,M,29.71,M,10.00,M,OVC,M,M,M,6500.00,M,M,M,M,M,M,M,M,M,M,M,KLGA 011230Z AUTO 26013KT 10SM OVC065 03/M05 A2970 RMK T00301050 MADISHF
LGA,2020-01-01 12:35,-73.8803,40.7794,M,M,M,270.00,16.00,M,29.71,M,10.00,M,OVC,M,M,M,6500.00,M,M,M,M,M,M,M,M,M,M,M,KLGA 011235Z AUTO 27016KT 10SM OVC065 03/M05 A2970 RMK T00301050 MADISHF
LGA,2020-01-01 12:40,-73.8803,40.7794,M,M,M,270.00,14.00,M,29.71,M,10.00,19.00,OVC,M,M,M,6500.00,M,M,M,M,M,M,M,M,M,M,M,KLGA 011240Z AUTO 27014G19KT 10SM OVC065 03/M05 A2970 RMK T00301050 MADISHF
LGA,2020-01-01 12:45,-73.8803,40.7794,M,M,M,260.00,17.00,M,29.71,M,10.00,M,OVC,M,M,M,6000.00,M,M,M,M,M,M,M,M,M,M,M,KLGA 011245Z AUTO 26017KT 10SM OVC060 03/M05 A2970 RMK T00301050 MADISHF
LGA,2020-01-01 12:50,-73.8803,40.7794,M,M,M,270.00,11.00,M,29.72,M,10.00,M,OVC,M,M,M,6000.00,M,M,M,M,M,M,M,M,M,M,M,KLGA 011250Z AUTO 27011KT 10SM OVC060 03/M05 A2971 RMK T00301050 MADISHF
LGA,2020-01-01 12:51,-73.8803,40.7794,37.00,23.00,56.57,270.00,11.00,0.00,29.72,1006.20,10.00,M,FEW,OVC,M,M,2600.00,6000.00,M,M,M,M,M,M,26.00,260.00,2020-01-01 12:19,28.79,KLGA 011251Z 27011KT 10SM FEW026 OVC060 03/M05 A2972 RMK AO2 PK WND 26026/1219 SLP062 T00281050
LGA,2020-01-01 12:55,-73.8803,40.7794,M,M,M,270.00,13.00,M,29.72,M,10.00,M,OVC,M,M,M,6000.00,M,M,M,M,M,M,M,M,M,M,M,KLGA 011255Z AUTO 27013KT 10SM OVC060 03/M05 A2971 RMK T00301050 MADISHF
LGA,2020-01-01 13:00,-73.8803,40.7794,M,M,M,250.00,16.00,M,29.72,M,10.00,M,OVC,M,M,M,6000.00,M,M,M,M,M,M,M,M,M,M,M,KLGA 011300Z AUTO 25016KT 10SM OVC060 03/M05 A2971 RMK T00301050 MADISHF
LGA,2020-01-01 13:05,-73.8803,40.7794,M,M,M,260.00,14.00,M,29.72,M,10.00,M,OVC,M,M,M,6000.00,M,M,M,M,M,M,M,M,M,M,M,KLGA 011305Z AUTO 26014KT 10SM OVC060 03/M06 A2971 RMK T00301060 MADISHF
LGA,2020-01-01 13:10,-73.8803,40.7794,M,M,M,260.00,14.00,M,29.72,M,10.00,19.00,OVC,M,M,M,6000.00,M,M,M,M,M,M,M,M,M,M,M,KLGA 011310Z AUTO 26014G19KT 10SM OVC060 03/M06 A2971 RMK T00301060 MADISHF
LGA,2020-01-01 13:15,-73.8803,40.7794,M,M,M,270.00,16.00,M,29.72,M,10.00,M,OVC,M,M,M,6000.00,M,M,M,M,M,M,M,M,M,M,M,KLGA 011315Z AUTO 27016KT 10SM OVC060 03/M06 A2971 RMK T00301060 MADISHF
LGA,2020-01-01 13:20,-73.8803,40.7794,M,M,M,260.00,17.00,M,29.72,M,10.00,M,OVC,M,M,M,6000.00,M,M,M,M,M,M,M,M,M,M,M,KLGA 011320Z AUTO 26017KT 10SM OVC060 03/M06 A2971 RMK T00301060 MADISHF
LGA,2020-01-01 13:25,-73.8803,40.7794,M,M,M,260.00,13.00,M,29.73,M,10.00,M,OVC,M,M,M,6000.00,M,M,M,M,M,M,M,M,M,M,M,KLGA 011325Z AUTO 26013KT 10SM OVC060 03/M06 A2972 RMK T00301060 MADISHF
LGA,2020-01-01 13:30,-73.8803,40.7794,M,M,M,260.00,16.00,M,29.73,M,10.00,M,OVC,M,M,M,6000.00,M,M,M,M,M,M,M,M,M,M,M,KLGA 011330Z AUTO 26016KT 10SM OVC060 03/M06 A2972 RMK T00301060 MADISHF
LGA,2020-01-01 13:35,-73.8803,40.7794,M,M,M,260.00,14.00,M,29.73,M,10.00,20.00,OVC,M,M,M,6000.00,M,M,M,M,M,M,M,M,M,M,M,KLGA 011335Z AUTO 26014G20KT 10SM OVC060 03/M06 A2972 RMK T00301060 MADISHF
LGA,2020-01-01 13:40,-73.8803,40.7794,M,M,M,260.00,14.00,M,29.73,M,10.00,M,OVC,M,M,M,6000.00,M,M,M,M,M,M,M,M,M,M,M,KLGA 011340Z AUTO 26014KT 10SM OVC060 03/M06 A2972 RMK T00301060 MADISHF
LGA,2020-01-01 13:45,-73.8803,40.7794,M,M,M,260.00,17.00,M,29.74,M,10.00,M,OVC,M,M,M,6000.00,M,M,M,M,M,M,M,M,M,M,M,KLGA 011345Z AUTO 26017KT 10SM OVC060 03/M06 A2973 RMK T00301060 MADISHF
LGA,2020-01-01 13:50,-73.8803,40.7794,M,M,M,260.00,14.00,M,29.74,M,10.00,20.00,FEW,BKN,M,M,2800.00,6000.00,M,M,M,M,M,M,M,M,M,M,KLGA 011350Z AUTO 26014G20KT 10SM FEW028 BKN060 03/M06 A2973 RMK T00301060 MADISHF
LGA,2020-01-01 13:51,-73.8803,40.7794,37.00,21.00,51.99,260.00,15.00,0.00,29.74,1007.10,10.00,25.00,FEW,BKN,M,M,2800.00,6000.00,M,M,M,M,M,M,M,M,M,27.26,KLGA 011351Z 26015G25KT 10SM FEW028 BKN060 03/M06 A2974 RMK AO2 SLP071 T00281061
LGA,2020-01-01 13:55,-73.8803,40.7794,M,M,M,270.00,16.00,M,29.74,M,10.00,M,OVC,M,M,M,6000.00,M,M,M,M,M,M,M,M,M,M,M,KLGA 011355Z AUTO 27016KT 10SM OVC060 03/M06 A2973 RMK T00301060 MADISHF
LGA,2020-01-01 14:00,-73.8803,40.7794,M,M,M,260.00,11.00,M,29.75,M,10.00,M,OVC,M,M,M,6000.00,M,M,M,M,M,M,M,M,M,M,M,KLGA 011400Z AUTO 26011KT 10SM OVC060 03/M06 A2975 RMK T00301060 MADISHF
LGA,2020-01-01 14:05,-73.8803,40.7794,M,M,M,260.00,20.00,M,29.75,M,10.00,M,OVC,M,M,M,6000.00,M,M,M,M,M,M,M,M,M,M,M,KLGA 011405Z AUTO 26020KT 10SM OVC060 03/M07 A2975 RMK T00301070 MADISHF
LGA,2020-01-01 14:10,-73.8803,40.7794,M,M,M,270.00,13.00,M,29.75,M,10.00,M,OVC,M,M,M,6000.00,M,M,M,M,M,M,M,M,M,M,M,KLGA 011410Z AUTO 27013KT 10SM OVC060 03/M07 A2975 RMK T00301070 MADISHF
LGA,2020-01-01 14:15,-73.8803,40.7794,M,M,M,250.00,15.00,M,29.75,M,10.00,M,OVC,M,M,M,6000.00,M,M,M,M,M,M,M,M,M,M,M,KLGA 011415Z AUTO 25015KT 10SM OVC060 03/M07 A2975 RMK T00301070 MADISHF
LGA,2020-01-01 14:20,-73.8803,40.7794,M,M,M,260.00,13.00,M,29.75,M,10.00,M,OVC,M,M,M,6000.00,M,M,M,M,M,M,M,M,M,M,M,KLGA 011420Z AUTO 26013KT 10SM OVC060 03/M07 A2975 RMK T00301070 MADISHF
LGA,2020-01-01 14:25,-73.8803,40.7794,M,M,M,270.00,15.00,M,29.75,M,10.00,M,OVC,M,M,M,6000.00,M,M,M,M,M,M,M,M,M,M,M,KLGA 011425Z AUTO 27015KT 10SM OVC060 03/M07 A2975 RMK T00301070 MADISHF
LGA,2020-01-01 14:30,-73.8803,40.7794,M,M,M,260.00,15.00,M,29.75,M,10.00,M,OVC,M,M,M,6000.00,M,M,M,M,M,M,M,M,M,M,M,KLGA 011430Z AUTO 26015KT 10SM OVC060 03/M07 A2975 RMK T00301070 MADISHF
LGA,2020-01-01 14:35,-73.8803,40.7794,M,M,M,260.00,15.00,M,29.76,M,10.00,M,OVC,M,M,M,6000.00,M,M,M,M,M,M,M,M,M,M,M,KLGA 011435Z AUTO 26015KT 10SM OVC060 03/M07 A2976 RMK T00301070 MADISHF
LGA,2020-01-01 14:40,-73.8803,40.7794,M,M,M,250.00,13.00,M,29.76,M,10.00,M,OVC,M,M,M,6000.00,M,M,M,M,M,M,M,M,M,M,M,KLGA 011440Z AUTO 25013KT 10SM OVC060 03/M07 A2976 RMK T00301070 MADISHF
LGA,2020-01-01 14:45,-73.8803,40.7794,M,M,M,260.00,14.00,M,29.76,M,10.00,M,OVC,M,M,M,6500.00,M,M,M,M,M,M,M,M,M,M,M,KLGA 011445Z AUTO 26014KT 10SM OVC065 03/M07 A2976 RMK T00301070 MADISHF
LGA,2020-01-01 14:50,-73.8803,40.7794,M,M,M,260.00,11.00,M,29.76,M,10.00,M,FEW,OVC,M,M,2800.00,6500.00,M,M,M,M,M,M,M,M,M,M,KLGA 011450Z AUTO 26011KT 10SM FEW028 OVC065 03/M07 A2976 RMK T00301070 MADISHF
LGA,2020-01-01 14:51,-73.8803,40.7794,37.90,19.00,46.08,260.00,13.00,0.00,29.76,1007.70,10.00,21.00,FEW,OVC,M,M,2800.00,6500.00,M,M,M,M,M,M,26.00,260.00,2020-01-01 14:33,29.13,KLGA 011451Z 26013G21KT 10SM FEW028 OVC065 03/M07 A2976 RMK AO2 PK WND 26026/1433 SLP077 T00331072 53020
LGA,2020-01-01 14:55,-73.8803,40.7794,M,M,M,260.00,15.00,M,29.76,M,10.00,M,OVC,M,M,M,6500.00,M,M,M,M,M,M,M,M,M,M,M,KLGA 011455Z AUTO 26015KT 10SM OVC065 03/M07 A2976 RMK T00301070 MADISHF
LGA,2020-01-01 15:00,-73.8803,40.7794,M,M,M,270.00,17.00,M,29.76,M,10.00,M,OVC,M,M,M,6500.00,M,M,M,M,M,M,M,M,M,M,M,KLGA 011500Z AUTO 27017KT 10SM OVC065 03/M07 A2976 RMK T00301070 MADISHF
LGA,2020-01-01 15:05,-73.8803,40.7794,M,M,M,270.00,13.00,M,29.76,M,10.00,20.00,OVC,M,M,M,6500.00,M,M,M,M,M,M,M,M,M,M,M,KLGA 011505Z AUTO 27013G20KT 10SM OVC065 03/M07 A2976 RMK T00301070 MADISHF
LGA,2020-01-01 15:10,-73.8803,40.7794,M,M,M,260.00,16.00,M,29.76,M,10.00,M,OVC,M,M,M,6500.00,M,M,M,M,M,M,M,M,M,M,M,KLGA 011510Z AUTO 26016KT 10SM OVC065 03/M07 A2976 RMK T00301070 MADISHF
LGA,2020-01-01 15:15,-73.8803,40.7794,M,M,M,260.00,16.00,M,29.76,M,10.00,M,OVC,M,M,M,6500.00,M,M,M,M,M,M,M,M,M,M,M,KLGA 011515Z AUTO 26016KT 10SM OVC065 03/M08 A2976 RMK T00301080 MADISHF
LGA,2020-01-01 15:20,-73.8803,40.7794,M,M,M,290.00,11.00,M,29.76,M,10.00,16.00,OVC,M,M,M,6500.00,M,M,M,M,M,M,M,M,M,M,M,KLGA 011520Z AUTO 29011G16KT 10SM OVC065 03/M07 A2976 RMK T00301070 MADISHF
LGA,2020-01-01 15:25,-73.8803,40.7794,M,M,M,270.00,13.00,M,29.76,M,10.00,M,OVC,M,M,M,6500.00,M,M,M,M,M,M,M,M,M,M,M,KLGA 011525Z AUTO 27013KT 10SM OVC065 04/M07 A2976 RMK T00401070 MADISHF
LGA,2020-01-01 15:30,-73.8803,40.7794,M,M,M,270.00,14.00,M,29.76,M,10.00,M,OVC,M,M,M,6500.00,M,M,M,M,M,M,M,M,M,M,M,KLGA 011530Z AUTO 27014KT 10SM OVC065 04/M08 A2976 RMK T00401080 MADISHF
LGA,2020-01-01 15:35,-73.8803,40.7794,M,M,M,300.00,16.00,M,29.76,M,10.00,M,OVC,M,M,M,6500.00,M,M,M,M,M,M,M,M,M,M,M,KLGA 011535Z AUTO 30016KT 10SM OVC065 03/M07 A2976 RMK T00301070 MADISHF
LGA,2020-01-01 15:40,-73.8803,40.7794,M,M,M,260.00,17.00,M,29.76,M,10.00,M,FEW,OVC,M,M,5000.00,6500.00,M,M,M,M,M,M,M,M,M,M,KLGA 011540Z AUTO 26017KT 10SM FEW050 OVC065 03/M08 A2976 RMK T00301080 MADISHF
LGA,2020-01-01 15:45,-73.8803,40.7794,M,M,M,260.00,15.00,M,29.76,M,10.00,M,FEW,OVC,M,M,4700.00,6500.00,M,M,M,M,M,M,M,M,M,M,KLGA 011545Z AUTO 26015KT 10SM FEW047 OVC065 03/M08 A2976 RMK T00301080 MADISHF
LGA,2020-01-01 15:50,-73.8803,40.7794,M,M,M,260.00,17.00,M,29.75,M,10.00,M,FEW,BKN,M,M,4700.00,6500.00,M,M,M,M,M,M,M,M,M,M,KLGA 011550Z AUTO 26017KT 10SM FEW047 BKN065 04/M08 A2975 RMK T00401080 MADISHF
LGA,2020-01-01 15:51,-73.8803,40.7794,39.00,18.00,42.28,260.00,16.00,0.00,29.75,1007.50,10.00,23.00,FEW,FEW,BKN,M,3200.00,4700.00,6500.00,M,M,M,M,M,M,M,M,29.54,KLGA 011551Z 26016G23KT 10SM FEW032 FEW047 BKN065 04/M08 A2975 RMK AO2 SLP075 T00391078
LGA,2020-01-01 15:55,-73.8803,40.7794,M,M,M,270.00,16.00,M,29.75,M,10.00,M,FEW,BKN,M,M,4700.00,6500.00,M,M,M,M,M,M,M,M,M,M,KLGA 011555Z AUTO 27016KT 10SM FEW047 BKN065 04/M08 A2975 RMK T00401080 MADISHF
LGA,2020-01-01 16:00,-73.8803,40.7794,M,M,M,280.00,11.00,M,29.75,M,10.00,M,FEW,BKN,M,M,4900.00,6500.00,M,M,M,M,M,M,M,M,M,M,KLGA 011600Z AUTO 28011KT 10SM FEW049 BKN065 04/M08 A2975 RMK T00401080 MADISHF
LGA,2020-01-01 16:05,-73.8803,40.7794,M,M,M,270.00,15.00,M,29.75,M,10.00,M,FEW,BKN,M,M,4700.00,6500.00,M,M,M,M,M,M,M,M,M,M,KLGA 011605Z AUTO 27015KT 10SM FEW047 BKN065 04/M07 A2975 RMK T00401070 MADISHF
LGA,2020-01-01 16:10,-73.8803,40.7794,M,M,M,280.00,14.00,M,29.75,M,10.00,M,FEW,BKN,M,M,4700.00,6000.00,M,M,M,M,M,M,M,M,M,M,KLGA 011610Z AUTO 28014KT 10SM FEW047 BKN060 04/M08 A2975 RMK T00401080 WND 24V31  MADISHF
LGA,2020-01-01 16:15,-73.8803,40.7794,M,M,M,280.00,11.00,M,29.75,M,10.00,M,FEW,BKN,M,M,4900.00,6000.00,M,M,M,M,M,M,M,M,M,M,KLGA 011615Z AUTO 28011KT 10SM FEW049 BKN060 04/M07 A2975 RMK T00401070 MADISHF
LGA,2020-01-01 16:20,-73.8803,40.7794,M,M,M,270.00,15.00,M,29.75,M,10.00,M,FEW,BKN,M,M,4900.00,6000.00,M,M,M,M,M,M,M,M,M,M,KLGA 011620Z AUTO 27015KT 10SM FEW049 BKN060 04/M07 A2975 RMK T00401070 MADISHF
LGA,2020-01-01 16:25,-73.8803,40.7794,M,M,M,260.00,16.00,M,29.74,M,10.00,M,BKN,M,M,M,6000.00,M,M,M,M,M,M,M,M,M,M,M,KLGA 011625Z AUTO 26016KT 10SM BKN060 04/M08 A2973 RMK T00401080 MADISHF
LGA,2020-01-01 16:30,-73.8803,40.7794,M,M,M,270.00,14.00,M,29.74,M,10.00,M,BKN,M,M,M,6000.00,M,M,M,M,M,M,M,M,M,M,M,KLGA 011630Z AUTO 27014KT 10SM BKN060 04/M08 A2973 RMK T00401080 MADISHF
LGA,2020-01-01 16:35,-73.8803,40.7794,M,M,M,270.00,14.00,M,29.74,M,10.00,M,OVC,M,M,M,6500.00,M,M,M,M,M,M,M,M,M,M,M,KLGA 011635Z AUTO 27014KT 10SM OVC065 04/M08 A2973 RMK T00401080 MADISHF
LGA,2020-01-01 16:40,-73.8803,40.7794,M,M,M,270.00,19.00,M,29.74,M,10.00,M,OVC,M,M,M,6000.00,M,M,M,M,M,M,M,M,M,M,M,KLGA 011640Z AUTO 27019KT 10SM OVC060 04/M08 A2973 RMK T00401080 MADISHF
LGA,2020-01-01 16:45,-73.8803,40.7794,M,M,M,280.00,15.00,M,29.74,M,10.00,20.00,OVC,M,M,M,6000.00,M,M,M,M,M,M,M,M,M,M,M,KLGA 011645Z AUTO 28015G20KT 10SM OVC060 04/M08 A2973 RMK T00401080 MADISHF
LGA,2020-01-01 16:50,-73.8803,40.7794,M,M,M,270.00,19.00,M,29.74,M,10.00,M,SCT,OVC,M,M,4500.00,6000.00,M,M,M,M,M,M,M,M,M,M,KLGA 011650Z AUTO 27019KT 10SM SCT045 OVC060 04/M08 A2973 RMK T00401080 MADISHF
LGA,2020-01-01 16:51,-73.8803,40.7794,39.90,18.00,40.82,270.00,20.00,0.00,29.74,1007.10,10.00,24.00,SCT,OVC,M,M,4500.00,6000.00,M,M,M,M,M,M,27.00,280.00,2020-01-01 16:40,29.63,KLGA 011651Z 27020G24KT 10SM SCT045 OVC060 04/M08 A2974 RMK AO2 PK WND 28027/1640 SLP071 T00441078
LGA,2020-01-01 16:55,-73.8803,40.7794,M,M,M,270.00,16.00,M,29.74,M,10.00,M,OVC,M,M,M,6000.00,M,M,M,M,M,M,M,M,M,M,M,KLGA 011655Z AUTO 27016KT 10SM OVC060 04/M08 A2973 RMK T00401080 MADISHF
LGA,2020-01-01 17:00,-73.8803,40.7794,M,M,M,280.00,15.00,M,29.74,M,10.00,M,OVC,M,M,M,5500.00,M,M,M,M,M,M,M,M,M,M,M,KLGA 011700Z AUTO 28015KT 10SM OVC055 04/M08 A2973 RMK T00401080 MADISHF
LGA,2020-01-01 17:05,-73.8803,40.7794,M,M,M,270.00,19.00,M,29.74,M,10.00,M,OVC,M,M,M,5500.00,M,M,M,M,M,M,M,M,M,M,M,KLGA 011705Z AUTO 27019KT 10SM OVC055 04/M08 A2973 RMK T00401080 MADISHF
LGA,2020-01-01 17:10,-73.8803,40.7794,M,M,M,280.00,15.00,M,29.74,M,10.00,20.00,OVC,M,M,M,5500.00,M,M,M,M,M,M,M,M,M,M,M,KLGA 011710Z AUTO 28015G20KT 10SM OVC055 04/M08 A2973 RMK T00401080 MADISHF
LGA,2020-01-01 17:15,-73.8803,40.7794,M,M,M,280.00,18.00,M,29.74,M,10.00,M,OVC,M,M,M,5000.00,M,M,M,M,M,M,M,M,M,M,M,KLGA 011715Z AUTO 28018KT 10SM OVC050 04/M08 A2973 RMK T00401080 MADISHF
LGA,2020-01-01 17:20,-73.8803,40.7794,M,M,M,290.00,15.00,M,29.74,M,10.00,M,OVC,M,M,M,5000.00,M,M,M,M,M,M,M,M,M,M,M,KLGA 011720Z AUTO 29015KT 10SM OVC050 04/M08 A2973 RMK T00401080 MADISHF
LGA,2020-01-01 17:25,-73.8803,40.7794,M,M,M,270.00,15.00,M,29.74,M,10.00,M,OVC,M,M,M,5000.00,M,M,M,M,M,M,M,M,M,M,M,KLGA 011725Z AUTO 27015KT 10SM OVC050 04/M08 A2973 RMK T00401080 MADISHF
LGA,2020-01-01 17:30,-73.8803,40.7794,M,M,M,290.00,19.00,M,29.74,M,10.00,M,OVC,M,M,M,5000.00,M,M,M,M,M,M,M,M,M,M,M,KLGA 011730Z AUTO 29019KT 10SM OVC050 04/M08 A2973 RMK T00401080 MADISHF
LGA,2020-01-01 17:35,-73.8803,40.7794,M,M,M,290.00,18.00,M,29.74,M,10.00,M,OVC,M,M,M,5000.00,M,M,M,M,M,M,M,M,M,M,M,KLGA 011735Z AUTO 29018KT 10SM OVC050 03/M08 A2973 RMK T00301080 MADISHF
LGA,2020-01-01 17:40,-73.8803,40.7794,M,M,M,290.00,14.00,M,29.74,M,10.00,M,OVC,M,M,M,5000.00,M,M,M,M,M,M,M,M,M,M,M,KLGA 011740Z AUTO 29014KT 10SM OVC050 03/M07 A2973 RMK T00301070 MADISHF
LGA,2020-01-01 17:45,-73.8803,40.7794,M,M,M,290.00,11.00,M,29.73,M,10.00,M,OVC,M,M,M,5000.00,M,M,M,M,M,M,M,M,M,M,M,KLGA 011745Z AUTO 29011KT 10SM OVC050 04/M07 A2972 RMK T00401070 MADISHF
LGA,2020-01-01 17:50,-73.8803,40.7794,M,M,M,300.00,14.00,M,29.73,M,10.00,19.00,OVC,M,M,M,4800.00,M,M,M,M,M,M,M,M,M,M,M,KLGA 011750Z AUTO 30014G19KT 10SM OVC048 04/M07 A2972 RMK T00401070 MADISHF
LGA,2020-01-01 17:51,-73.8803,40.7794,39.00,19.00,44.14,310.00,16.00,0.00,29.73,1006.80,10.00,20.00,OVC,M,M,M,4800.00,M,M,M,M,M,M,M,28.00,270.00,2020-01-01 17:03,29.54,KLGA 011751Z 31016G20KT 10SM OVC048 04/M07 A2973 RMK AO2 PK WND 27028/1703 SLP068 T00391072 10044 20028 58008
LGA,2020-01-01 17:55,-73.8803,40.7794,M,M,M,290.00,18.00,M,29.73,M,10.00,M,OVC,M,M,M,5000.00,M,M,M,M,M,M,M,M,M,M,M,KLGA 011755Z AUTO 29018KT 10SM OVC050 04/M07 A2972 RMK T00401070 MADISHF
LGA,2020-01-01 18:00,-73.8803,40.7794,M,M,M,290.00,15.00,M,29.73,M,10.00,M,OVC,M,M,M,5000.00,M,M,M,M,M,M,M,M,M,M,M,KLGA 011800Z AUTO 29015KT 10SM OVC050 04/M08 A2972 RMK T00401080 MADISHF
LGA,2020-01-01 18:05,-73.8803,40.7794,M,M,M,290.00,13.00,M,29.73,M,10.00,M,OVC,M,M,M,5000.00,M,M,M,M,M,M,M,M,M,M,M,KLGA 011805Z AUTO 29013KT 10SM OVC050 04/M08 A2972 RMK T00401080 MADISHF
LGA,2020-01-01 18:10,-73.8803,40.7794,M,M,M,300.00,13.00,M,29.74,M,10.00,18.00,OVC,M,M,M,5000.00,M,M,M,M,M,M,M,M,M,M,M,KLGA 011810Z AUTO 30013G18KT 10SM OVC050 04/M08 A2973 RMK T00401080 MADISHF
LGA,2020-01-01 18:15,-73.8803,40.7794,M,M,M,280.00,14.00,M,29.74,M,10.00,M,OVC,M,M,M,5000.00,M,M,M,M,M,M,M,M,M,M,M,KLGA 011815Z AUTO 28014KT 10SM OVC050 04/M08 A2973 RMK T00401080 MADISHF
LGA,2020-01-01 18:20,-73.8803,40.7794,M,M,M,270.00,16.00,M,29.74,M,10.00,M,OVC,M,M,M,5000.00,M,M,M,M,M,M,M,M,M,M,M,KLGA 011820Z AUTO 27016KT 10SM OVC050 04/M08 A2973 RMK T00401080 MADISHF
LGA,2020-01-01 18:25,-73.8803,40.7794,M,M,M,300.00,17.00,M,29.74,M,10.00,M,OVC,M,M,M,5000.00,M,M,M,M,M,M,M,M,M,M,M,KLGA 011825Z AUTO 30017KT 10SM OVC050 04/M08 A2973 RMK T00401080 MADISHF
LGA,2020-01-01 18:30,-73.8803,40.7794,M,M,M,290.00,18.00,M,29.74,M,10.00,M,OVC,M,M,M,5000.00,M,M,M,M,M,M,M,M,M,M,M,KLGA 011830Z AUTO 29018KT 10SM OVC050 04/M08 A2973 RMK T00401080 MADISHF
LGA,2020-01-01 18:35,-73.8803,40.7794,M,M,M,290.00,19.00,M,29.74,M,10.00,M,OVC,M,M,M,5000.00,M,M,M,M,M,M,M,M,M,M,M,KLGA 011835Z AUTO 29019KT 10SM OVC050 04/M08 A2973 RMK T00401080 MADISHF
LGA,2020-01-01 18:40,-73.8803,40.7794,M,M,M,290.00,18.00,M,29.74,M,10.00,M,OVC,M,M,M,5000.00,M,M,M,M,M,M,M,M,M,M,M,KLGA 011840Z AUTO 29018KT 10SM OVC050 04/M08 A2973 RMK T00401080 MADISHF
LGA,2020-01-01 18:45,-73.8803,40.7794,M,M,M,290.00,17.00,M,29.74,M,10.00,M,OVC,M,M,M,5000.00,M,M,M,M,M,M,M,M,M,M,M,KLGA 011845Z AUTO 29017KT 10SM OVC050 04/M08 A2973 RMK T00401080 MADISHF
LGA,2020-01-01 18:50,-73.8803,40.7794,M,M,M,290.00,19.00,M,29.74,M,10.00,M,OVC,M,M,M,5000.00,M,M,M,M,M,M,M,M,M,M,M,KLGA 011850Z AUTO 29019KT 10SM OVC050 04/M08 A2973 RMK T00401080 MADISHF
LGA,2020-01-01 18:51,-73.8803,40.7794,39.00,18.00,42.28,290.00,20.00,0.00,29.74,1007.10,10.00,M,OVC,M,M,M,5000.00,M,M,M,M,M,M,M,26.00,290.00,2020-01-01 18:30,28.44,KLGA 011851Z 29020KT 10SM OVC050 04/M08 A2974 RMK AO2 PK WND 29026/1830 SLP071 T00391078
LGA,2020-01-01 18:55,-73.8803,40.7794,M,M,M,290.00,16.00,M,29.74,M,10.00,M,OVC,M,M,M,5000.00,M,M,M,M,M,M,M,M,M,M,M,KLGA 011855Z AUTO 29016KT 10SM OVC050 04/M08 A2973 RMK T00401080 MADISHF
LGA,2020-01-01 19:00,-73.8803,40.7794,M,M,M,290.00,16.00,M,29.74,M,10.00,M,OVC,M,M,M,5000.00,M,M,M,M,M,M,M,M,M,M,M,KLGA 011900Z AUTO 29016KT 10SM OVC050 04/M08 A2973 RMK T00401080 MADISHF
LGA,2020-01-01 19:05,-73.8803,40.7794,M,M,M,290.00,17.00,M,29.74,M,10.00,M,OVC,M,M,M,5000.00,M,M,M,M,M,M,M,M,M,M,M,KLGA 011905Z AUTO 29017KT 10SM OVC050 04/M08 A2973 RMK T00401080 MADISHF
LGA,2020-01-01 19:10,-73.8803,40.7794,M,M,M,290.00,13.00,M,29.74,M,10.00,M,OVC,M,M,M,5000.00,M,M,M,M,M,M,M,M,M,M,M,KLGA 011910Z AUTO 29013KT 10SM OVC050 04/M08 A2973 RMK T00401080 MADISHF
LGA,2020-01-01 19:15,-73.8803,40.7794,M,M,M,310.00,15.00,M,29.75,M,10.00,M,OVC,M,M,M,5000.00,M,M,M,M,M,M,M,M,M,M,M,KLGA 011915Z AUTO 31015KT 10SM OVC050 04/M07 A2975 RMK T00401070 MADISHF
LGA,2020-01-01 19:20,-73.8803,40.7794,M,M,M,290.00,14.00,M,29.75,M,10.00,M,OVC,M,M,M,5000.00,M,M,M,M,M,M,M,M,M,M,M,KLGA 011920Z AUTO 29014KT 10SM OVC050 04/M07 A2975 RMK T00401070 MADISHF
LGA,2020-01-01 19:25,-73.8803,40.7794,M,M,M,280.00,11.00,M,29.75,M,10.00,M,OVC,M,M,M,5000.00,M,M,M,M,M,M,M,M,M,M,M,KLGA 011925Z AUTO 28011KT 10SM OVC050 04/M08 A2975 RMK T00401080 MADISHF
LGA,2020-01-01 19:30,-73.8803,40.7794,M,M,M,280.00,15.00,M,29.75,M,10.00,M,OVC,M,M,M,5000.00,M,M,M,M,M,M,M,M,M,M,M,KLGA 011930Z AUTO 28015KT 10SM OVC050 04/M08 A2975 RMK T00401080 MADISHF
LGA,2020-01-01 19:35,-73.8803,40.7794,M,M,M,280.00,17.00,M,29.75,M,10.00,M,OVC,M,M,M,5000.00,M,M,M,M,M,M,M,M,M,M,M,KLGA 011935Z AUTO 28017KT 10SM OVC050 04/M08 A2975 RMK T00401080 MADISHF
LGA,2020-01-01 19:40,-73.8803,40.7794,M,M,M,290.00,14.00,M,29.75,M,10.00,M,OVC,M,M,M,5000.00,M,M,M,M,M,M,M,M,M,M,M,KLGA 011940Z AUTO 29014KT 10SM OVC050 04/M08 A2975 RMK T00401080 MADISHF
LGA,2020-01-01 19:45,-73.8803,40.7794,M,M,M,290.00,14.00,M,29.76,M,10.00,M,OVC,M,M,M,5000.00,M,M,M,M,M,M,M,M,M,M,M,KLGA 011945Z AUTO 29014KT 10SM OVC050 04/M08 A2976 RMK T00401080 MADISHF
LGA,2020-01-01 19:50,-73.8803,40.7794,M,M,M,290.00,16.00,M,29.76,M,10.00,M,OVC,M,M,M,5000.00,M,M,M,M,M,M,M,M,M,M,M,KLGA 011950Z AUTO 29016KT 10SM OVC050 04/M08 A2976 RMK T00401080 MADISHF
LGA,2020-01-01 19:51,-73.8803,40.7794,39.00,18.00,42.28,300.00,16.00,0.00,29.76,1007.60,10.00,23.00,OVC,M,M,M,5000.00,M,M,M,M,M,M,M,M,M,M,29.54,KLGA 011951Z 30016G23KT 10SM OVC050 04/M08 A2976 RMK AO2 SLP076 T00391078
LGA,2020-01-01 19:55,-73.8803,40.7794,M,M,M,290.00,15.00,M,29.76,M,10.00,M,OVC,M,M,M,5000.00,M,M,M,M,M,M,M,M,M,M,M,KLGA 011955Z AUTO 29015KT 10SM OVC050 04/M08 A2976 RMK T00401080 MADISHF
LGA,2020-01-01 20:00,-73.8803,40.7794,M,M,M,280.00,14.00,M,29.76,M,10.00,M,OVC,M,M,M,5000.00,M,M,M,M,M,M,M,M,M,M,M,KLGA 012000Z AUTO 28014KT 10SM OVC050 04/M08 A2976 RMK T00401080 MADISHF
LGA,2020-01-01 20:05,-73.8803,40.7794,M,M,M,300.00,16.00,M,29.76,M,10.00,M,OVC,M,M,M,5000.00,M,M,M,M,M,M,M,M,M,M,M,KLGA 012005Z AUTO 30016KT 10SM OVC050 04/M08 A2976 RMK T00401080 MADISHF
LGA,2020-01-01 20:10,-73.8803,40.7794,M,M,M,280.00,11.00,M,29.77,M,10.00,M,OVC,M,M,M,5000.00,M,M,M,M,M,M,M,M,M,M,M,KLGA 012010Z AUTO 28011KT 10SM OVC050 04/M07 A2977 RMK T00401070 MADISHF
LGA,2020-01-01 20:15,-73.8803,40.7794,M,M,M,290.00,14.00,M,29.77,M,10.00,M,OVC,M,M,M,5000.00,M,M,M,M,M,M,M,M,M,M,M,KLGA 012015Z AUTO 29014KT 10SM OVC050 04/M07 A2977 RMK T00401070 MADISHF
LGA,2020-01-01 20:20,-73.8803,40.7794,M,M,M,300.00,15.00,M,29.77,M,10.00,M,OVC,M,M,M,5000.00,M,M,M,M,M,M,M,M,M,M,M,KLGA 012020Z AUTO 30015KT 10SM OVC050 04/M08 A2977 RMK T00401080 MADISHF
LGA,2020-01-01 20:25,-73.8803,40.7794,M,M,M,290.00,11.00,M,29.77,M,10.00,M,OVC,M,M,M,5000.00,M,M,M,M,M,M,M,M,M,M,M,KLGA 012025Z AUTO 29011KT 10SM OVC050 04/M07 A2977 RMK T00401070 MADISHF
LGA,2020-01-01 20:30,-73.8803,40.7794,M,M,M,280.00,13.00,M,29.77,M,10.00,M,OVC,M,M,M,5000.00,M,M,M,M,M,M,M,M,M,M,M,KLGA 012030Z AUTO 28013KT 10SM OVC050 04/M07 A2977 RMK T00401070 MADISHF
LGA,2020-01-01 20:35,-73.8803,40.7794,M,M,M,280.00,13.00,M,29.77,M,10.00,M,OVC,M,M,M,5000.00,M,M,M,M,M,M,M,M,M,M,M,KLGA 012035Z AUTO 28013KT 10SM OVC050 04/M08 A2977 RMK T00401080 MADISHF
LGA,2020-01-01 20:40,-73.8803,40.7794,M,M,M,280.00,15.00,M,29.78,M,10.00,M,OVC,M,M,M,5000.00,M,M,M,M,M,M,M,M,M,M,M,KLGA 012040Z AUTO 28015KT 10SM OVC050 04/M07 A2978 RMK T00401070 MADISHF
LGA,2020-01-01 20:45,-73.8803,40.7794,M,M,M,300.00,16.00,M,29.78,M,10.00,M,OVC,M,M,M,5000.00,M,M,M,M,M,M,M,M,M,M,M,KLGA 012045Z AUTO 30016KT 10SM OVC050 04/M08 A2978 RMK T00401080 MADISHF
LGA,2020-01-01 20:50,-73.8803,40.7794,M,M,M,290.00,13.00,M,29.78,M,10.00,M,SCT,OVC,M,M,4500.00,5000.00,M,M,M,M,M,M,M,M,M,M,KLGA 012050Z AUTO 29013KT 10SM SCT045 OVC050 04/M07 A2978 RMK T00401070 MADISHF
LGA,2020-01-01 20:51,-73.8803,40.7794,39.00,19.00,44.14,290.00,13.00,0.00,29.78,1008.40,10.00,M,SCT,OVC,M,M,4500.00,5000.00,M,M,M,M,M,M,M,M,M,30.54,KLGA 012051Z 29013KT 10SM SCT045 OVC050 04/M07 A2978 RMK AO2 SLP084 T00391072 53016
LGA,2020-01-01 20:55,-73.8803,40.7794,M,M,M,300.00,15.00,M,29.78,M,10.00,M,OVC,M,M,M,5000.00,M,M,M,M,M,M,M,M,M,M,M,KLGA 012055Z AUTO 30015KT 10SM OVC050 04/M07 A2978 RMK T00401070 MADISHF
LGA,2020-01-01 21:00,-73.8803,40.7794,M,M,M,280.00,13.00,M,29.79,M,10.00,M,OVC,M,M,M,5000.00,M,M,M,M,M,M,M,M,M,M,M,KLGA 012100Z AUTO 28013KT 10SM OVC050 04/M08 A2979 RMK T00401080 MADISHF
LGA,2020-01-01 21:05,-73.8803,40.7794,M,M,M,290.00,15.00,M,29.79,M,10.00,M,OVC,M,M,M,5000.00,M,M,M,M,M,M,M,M,M,M,M,KLGA 012105Z AUTO 29015KT 10SM OVC050 04/M08 A2979 RMK T00401080 MADISHF
LGA,2020-01-01 21:10,-73.8803,40.7794,M,M,M,280.00,13.00,M,29.79,M,10.00,M,OVC,M,M,M,5000.00,M,M,M,M,M,M,M,M,M,M,M,KLGA 012110Z AUTO 28013KT 10SM OVC050 04/M08 A2979 RMK T00401080 MADISHF
LGA,2020-01-01 21:15,-73.8803,40.7794,M,M,M,290.00,15.00,M,29.79,M,10.00,M,OVC,M,M,M,5000.00,M,M,M,M,M,M,M,M,M,M,M,KLGA 012115Z AUTO 29015KT 10SM OVC050 04/M08 A2979 RMK T00401080 MADISHF
LGA,2020-01-01 21:20,-73.8803,40.7794,M,M,M,300.00,15.00,M,29.80,M,10.00,M,OVC,M,M,M,5000.00,M,M,M,M,M,M,M,M,M,M,M,KLGA 012120Z AUTO 30015KT 10SM OVC050 04/M08 A2979 RMK T00401080 MADISHF
LGA,2020-01-01 21:25,-73.8803,40.7794,M,M,M,290.00,13.00,M,29.80,M,10.00,M,OVC,M,M,M,5000.00,M,M,M,M,M,M,M,M,M,M,M,KLGA 012125Z AUTO 29013KT 10SM OVC050 04/M07 A2979 RMK T00401070 MADISHF
LGA,2020-01-01 21:30,-73.8803,40.7794,M,M,M,290.00,13.00,M,29.80,M,10.00,M,OVC,M,M,M,5000.00,M,M,M,M,M,M,M,M,M,M,M,KLGA 012130Z AUTO 29013KT 10SM OVC050 04/M07 A2979 RMK T00401070 MADISHF
LGA,2020-01-01 21:35,-73.8803,40.7794,M,M,M,290.00,11.00,M,29.81,M,10.00,M,OVC,M,M,M,5000.00,M,M,M,M,M,M,M,M,M,M,M,KLGA 012135Z AUTO 29011KT 10SM OVC050 04/M07 A2980 RMK T00401070 MADISHF
LGA,2020-01-01 21:40,-73.8803,40.7794,M,M,M,290.00,11.00,M,29.81,M,10.00,M,OVC,M,M,M,5000.00,M,M,M,M,M,M,M,M,M,M,M,KLGA 012140Z AUTO 29011KT 10SM OVC050 04/M07 A2980 RMK T00401070 MADISHF
LGA,2020-01-01 21:45,-73.8803,40.7794,M,M,M,260.00,11.00,M,29.81,M,10.00,M,OVC,M,M,M,5000.00,M,M,M,M,M,M,M,M,M,M,M,KLGA 012145Z AUTO 26011KT 10SM OVC050 04/M07 A2980 RMK T00401070 MADISHF
LGA,2020-01-01 21:50,-73.8803,40.7794,M,M,M,260.00,11.00,M,29.82,M,10.00,M,SCT,BKN,M,M,4500.00,5000.00,M,M,M,M,M,M,M,M,M,M,KLGA 012150Z AUTO 26011KT 10SM SCT045 BKN050 04/M08 A2981 RMK T00401080 MADISHF
LGA,2020-01-01 21:51,-73.8803,40.7794,39.00,18.00,42.28,260.00,10.00,0.00,29.82,1009.60,10.00,19.00,SCT,BKN,M,M,4500.00,5000.00,M,M,M,M,M,M,M,M,M,31.75,KLGA 012151Z 26010G19KT 10SM SCT045 BKN050 04/M08 A2982 RMK AO2 SLP096 T00391078
LGA,2020-01-01 21:55,-73.8803,40.7794,M,M,M,260.00,14.00,M,29.82,M,10.00,M,OVC,M,M,M,5000.00,M,M,M,M,M,M,M,M,M,M,M,KLGA 012155Z AUTO 26014KT 10SM OVC050 04/M07 A2981 RMK T00401070 MADISHF
LGA,2020-01-01 22:00,-73.8803,40.7794,M,M,M,270.00,13.00,M,29.82,M,10.00,M,OVC,M,M,M,5000.00,M,M,M,M,M,M,M,M,M,M,M,KLGA 012200Z AUTO 27013KT 10SM OVC050 04/M08 A2981 RMK T00401080 MADISHF
LGA,2020-01-01 22:05,-73.8803,40.7794,M,M,M,260.00,15.00,M,29.82,M,10.00,M,OVC,M,M,M,5000.00,M,M,M,M,M,M,M,M,M,M,M,KLGA 012205Z AUTO 26015KT 10SM OVC050 03/M08 A2981 RMK T00301080 MADISHF
LGA,2020-01-01 22:10,-73.8803,40.7794,M,M,M,270.00,10.00,M,29.82,M,10.00,M,OVC,M,M,M,5000.00,M,M,M,M,M,M,M,M,M,M,M,KLGA 012210Z AUTO 27010KT 10SM OVC050 04/M07 A2981 RMK T00401070 MADISHF
LGA,2020-01-01 22:15,-73.8803,40.7794,M,M,M,270.00,11.00,M,29.82,M,10.00,M,OVC,M,M,M,5000.00,M,M,M,M,M,M,M,M,M,M,M,KLGA 012215Z AUTO 27011KT 10SM OVC050 04/M07 A2981 RMK T00401070 MADISHF
LGA,2020-01-01 22:20,-73.8803,40.7794,M,M,M,270.00,10.00,M,29.82,M,10.00,M,OVC,M,M,M,5000.00,M,M,M,M,M,M,M,M,M,M,M,KLGA 012220Z AUTO 27010KT 10SM OVC050 03/M07 A2981 RMK T00301070 MADISHF
LGA,2020-01-01 22:25,-73.8803,40.7794,M,M,M,260.00,11.00,M,29.83,M,10.00,20.00,OVC,M,M,M,5000.00,M,M,M,M,M,M,M,M,M,M,M,KLGA 012225Z AUTO 26011G20KT 10SM OVC050 04/M07 A2982 RMK T00401070 MADISHF
LGA,2020-01-01 22:30,-73.8803,40.7794,M,M,M,270.00,10.00,M,29.83,M,10.00,M,OVC,M,M,M,5000.00,M,M,M,M,M,M,M,M,M,M,M,KLGA 012230Z AUTO 27010KT 10SM OVC050 03/M07 A2982 RMK T00301070 MADISHF
LGA,2020-01-01 22:35,-73.8803,40.7794,M,M,M,270.00,11.00,M,29.83,M,10.00,M,OVC,M,M,M,5000.00,M,M,M,M,M,M,M,M,M,M,M,KLGA 012235Z AUTO 27011KT 10SM OVC050 03/M07 A2982 RMK T00301070 MADISHF
LGA,2020-01-01 22:40,-73.8803,40.7794,M,M,M,270.00,13.00,M,29.83,M,10.00,M,OVC,M,M,M,5000.00,M,M,M,M,M,M,M,M,M,M,M,KLGA 012240Z AUTO 27013KT 10SM OVC050 03/M07 A2982 RMK T00301070 MADISHF
LGA,2020-01-01 22:45,-73.8803,40.7794,M,M,M,270.00,16.00,M,29.83,M,10.00,M,OVC,M,M,M,5000.00,M,M,M,M,M,M,M,M,M,M,M,KLGA 012245Z AUTO 27016KT 10SM OVC050 03/M07 A2982 RMK T00301070 MADISHF
LGA,2020-01-01 22:50,-73.8803,40.7794,M,M,M,260.00,11.00,M,29.83,M,10.00,M,BKN,M,M,M,5000.00,M,M,M,M,M,M,M,M,M,M,M,KLGA 012250Z AUTO 26011KT 10SM BKN050 03/M07 A2982 RMK T00301070 MADISHF
LGA,2020-01-01 22:51,-73.8803,40.7794,37.90,19.00,46.08,260.00,14.00,0.00,29.83,1010.20,10.00,M,BKN,M,M,M,5000.00,M,M,M,M,M,M,M,M,M,M,28.77,KLGA 012251Z 26014KT 10SM BKN050 03/M07 A2983 RMK AO2 SLP102 T00331072
LGA,2020-01-01 22:55,-73.8803,40.7794,M,M,M,260.00,11.00,M,29.83,M,10.00,M,OVC,M,M,M,5000.00,M,M,M,M,M,M,M,M,M,M,M,KLGA 012255Z AUTO 26011KT 10SM OVC050 03/M07 A2982 RMK T00301070 MADISHF
LGA,2020-01-01 23:00,-73.8803,40.7794,M,M,M,260.00,14.00,M,29.84,M,10.00,M,OVC,M,M,M,5000.00,M,M,M,M,M,M,M,M,M,M,M,KLGA 012300Z AUTO 26014KT 10SM OVC050 03/M07 A2984 RMK T00301070 MADISHF
LGA,2020-01-01 23:05,-73.8803,40.7794,M,M,M,270.00,13.00,M,29.84,M,10.00,M,OVC,M,M,M,5000.00,M,M,M,M,M,M,M,M,M,M,M,KLGA 012305Z AUTO 27013KT 10SM OVC050 03/M07 A2984 RMK T00301070 MADISHF
LGA,2020-01-01 23:10,-73.8803,40.7794,M,M,M,260.00,17.00,M,29.84,M,10.00,M,OVC,M,M,M,5000.00,M,M,M,M,M,M,M,M,M,M,M,KLGA 012310Z AUTO 26017KT 10SM OVC050 03/M07 A2984 RMK T00301070 MADISHF
LGA,2020-01-01 23:15,-73.8803,40.7794,M,M,M,270.00,15.00,M,29.84,M,10.00,20.00,OVC,M,M,M,5000.00,M,M,M,M,M,M,M,M,M,M,M,KLGA 012315Z AUTO 27015G20KT 10SM OVC050 03/M07 A2984 RMK T00301070 MADISHF
LGA,2020-01-01 23:20,-73.8803,40.7794,M,M,M,260.00,11.00,M,29.85,M,10.00,M,OVC,M,M,M,5000.00,M,M,M,M,M,M,M,M,M,M,M,KLGA 012320Z AUTO 26011KT 10SM OVC050 03/M07 A2985 RMK T00301070 MADISHF
LGA,2020-01-01 23:25,-73.8803,40.7794,M,M,M,260.00,16.00,M,29.85,M,10.00,M,OVC,M,M,M,5000.00,M,M,M,M,M,M,M,M,M,M,M,KLGA 012325Z AUTO 26016KT 10SM OVC050 03/M07 A2985 RMK T00301070 MADISHF
LGA,2020-01-01 23:30,-73.8803,40.7794,M,M,M,260.00,11.00,M,29.85,M,10.00,M,OVC,M,M,M,5000.00,M,M,M,M,M,M,M,M,M,M,M,KLGA 012330Z AUTO 26011KT 10SM OVC050 03/M07 A2985 RMK T00301070 MADISHF
LGA,2020-01-01 23:35,-73.8803,40.7794,M,M,M,270.00,14.00,M,29.85,M,10.00,M,OVC,M,M,M,5000.00,M,M,M,M,M,M,M,M,M,M,M,KLGA 012335Z AUTO 27014KT 10SM OVC050 03/M07 A2985 RMK T00301070 MADISHF
LGA,2020-01-01 23:40,-73.8803,40.7794,M,M,M,270.00,13.00,M,29.85,M,10.00,M,OVC,M,M,M,5000.00,M,M,M,M,M,M,M,M,M,M,M,KLGA 012340Z AUTO 27013KT 10SM OVC050 03/M07 A2985 RMK T00301070 MADISHF
LGA,2020-01-01 23:45,-73.8803,40.7794,M,M,M,260.00,11.00,M,29.85,M,10.00,M,OVC,M,M,M,5000.00,M,M,M,M,M,M,M,M,M,M,M,KLGA 012345Z AUTO 26011KT 10SM OVC050 03/M07 A2985 RMK T00301070 MADISHF
LGA,2020-01-01 23:50,-73.8803,40.7794,M,M,M,270.00,19.00,M,29.85,M,10.00,M,BKN,M,M,M,5000.00,M,M,M,M,M,M,M,M,M,M,M,KLGA 012350Z AUTO 27019KT 10SM BKN050 03/M07 A2985 RMK T00301070 MADISHF
LGA,2020-01-01 23:51,-73.8803,40.7794,37.90,19.00,46.08,270.00,16.00,0.00,29.85,1010.90,10.00,24.00,BKN,M,M,M,5000.00,M,M,M,M,M,M,M,M,M,M,28.11,KLGA 012351Z 27016G24KT 10SM BKN050 03/M07 A2985 RMK AO2 SLP109 T00331072 10039 20033 51024
LGA,2020-01-01 23:55,-73.8803,40.7794,M,M,M,260.00,17.00,M,29.85,M,10.00,M,OVC,M,M,M,5000.00,M,M,M,M,M,M,M,M,M,M,M,KLGA 012355Z AUTO 26017KT 10SM OVC050 03/M07 A2985 RMK T00301070 MADISHF
LGA,2020-01-02 00:00,-73.8803,40.7794,M,M,M,260.00,13.00,M,29.86,M,10.00,M,OVC,M,M,M,5000.00,M,M,M,M,M,M,M,M,M,M,M,KLGA 020000Z AUTO 26013KT 10SM OVC050 03/M07 A2986 RMK T00301070 MADISHF
LGA,2020-01-02 00:05,-73.8803,40.7794,M,M,M,260.00,15.00,M,29.86,M,10.00,M,OVC,M,M,M,4900.00,M,M,M,M,M,M,M,M,M,M,M,KLGA 020005Z AUTO 26015KT 10SM OVC049 03/M07 A2986 RMK T00301070 MADISHF
LGA,2020-01-02 00:10,-73.8803,40.7794,M,M,M,260.00,15.00,M,29.86,M,10.00,M,OVC,M,M,M,4900.00,M,M,M,M,M,M,M,M,M,M,M,KLGA 020010Z AUTO 26015KT 10SM OVC049 03/M07 A2986 RMK T00301070 MADISHF
LGA,2020-01-02 00:15,-73.8803,40.7794,M,M,M,260.00,11.00,M,29.86,M,10.00,M,OVC,M,M,M,4900.00,M,M,M,M,M,M,M,M,M,M,M,KLGA 020015Z AUTO 26011KT 10SM OVC049 03/M07 A2986 RMK T00301070 MADISHF
LGA,2020-01-02 00:20,-73.8803,40.7794,M,M,M,260.00,11.00,M,29.87,M,10.00,M,OVC,M,M,M,4900.00,M,M,M,M,M,M,M,M,M,M,M,KLGA 020020Z AUTO 26011KT 10SM OVC049 03/M07 A2987 RMK T00301070 MADISHF
LGA,2020-01-02 00:25,-73.8803,40.7794,M,M,M,280.00,14.00,M,29.87,M,10.00,M,OVC,M,M,M,4900.00,M,M,M,M,M,M,M,M,M,M,M,KLGA 020025Z AUTO 28014KT 10SM OVC049 03/M07 A2987 RMK T00301070 MADISHF
LGA,2020-01-02 00:30,-73.8803,40.7794,M,M,M,260.00,13.00,M,29.87,M,10.00,M,OVC,M,M,M,4900.00,M,M,M,M,M,M,M,M,M,M,M,KLGA 020030Z AUTO 26013KT 10SM OVC049 03/M07 A2987 RMK T00301070 MADISHF
LGA,2020-01-02 00:35,-73.8803,40.7794,M,M,M,250.00,11.00,M,29.87,M,10.00,M,OVC,M,M,M,4900.00,M,M,M,M,M,M,M,M,M,M,M,KLGA 020035Z AUTO 25011KT 10SM OVC049 03/M07 A2987 RMK T00301070 MADISHF
LGA,2020-01-02 00:40,-73.8803,40.7794,M,M,M,260.00,17.00,M,29.87,M,10.00,M,OVC,M,M,M,4800.00,M,M,M,M,M,M,M,M,M,M,M,KLGA 020040Z AUTO 26017KT 10SM OVC048 03/M07 A2987 RMK T00301070 MADISHF
LGA,2020-01-02 00:45,-73.8803,40.7794,M,M,M,270.00,9.00,M,29.87,M,10.00,M,OVC,M,M,M,4800.00,M,M,M,M,M,M,M,M,M,M,M,KLGA 020045Z AUTO 27009KT 10SM OVC048 03/M07 A2987 RMK T00301070 MADISHF
LGA,2020-01-02 00:50,-73.8803,40.7794,M,M,M,250.00,11.00,M,29.87,M,10.00,M,BKN,M,M,M,4800.00,M,M,M,M,M,M,M,M,M,M,M,KLGA 020050Z AUTO 25011KT 10SM BKN048 03/M07 A2987 RMK T00301070 MADISHF
LGA,2020-01-02 00:51,-73.8803,40.7794,37.00,19.00,47.74,260.00,11.00,0.00,29.87,1011.40,10.00,M,BKN,M,M,M,4800.00,M,M,M,M,M,M,M,M,M,M,28.79,KLGA 020051Z 26011KT 10SM BKN048 03/M07 A2987 RMK AO2 SLP114 T00281072
LGA,2020-01-02 00:55,-73.8803,40.7794,M,M,M,260.00,9.00,M,29.87,M,10.00,17.00,OVC,M,M,M,4800.00,M,M,M,M,M,M,M,M,M,M,M,KLGA 020055Z AUTO 26009G17KT 10SM OVC048 03/M07 A2987 RMK T00301070 MADISHF
LGA,2020-01-02 01:00,-73.8803,40.7794,M,M,M,260.00,9.00,M,29.87,M,10.00,M,BKN,M,M,M,4800.00,M,M,M,M,M,M,M,M,M,M,M,KLGA 020100Z AUTO 26009KT 10SM BKN048 03/M07 A2987 RMK T00301070 MADISHF
LGA,2020-01-02 01:05,-73.8803,40.7794,M,M,M,270.00,13.00,M,29.88,M,10.00,M,BKN,M,M,M,4700.00,M,M,M,M,M,M,M,M,M,M,M,KLGA 020105Z AUTO 27013KT 10SM BKN047 03/M07 A2987 RMK T00301070 MADISHF
LGA,2020-01-02 01:10,-73.8803,40.7794,M,M,M,270.00,11.00,M,29.88,M,10.00,M,BKN,M,M,M,4700.00,M,M,M,M,M,M,M,M,M,M,M,KLGA 020110Z AUTO 27011KT 10SM BKN047 03/M07 A2987 RMK T00301070 MADISHF
LGA,2020-01-02 01:15,-73.8803,40.7794,M,M,M,260.00,13.00,M,29.88,M,10.00,M,BKN,M,M,M,4700.00,M,M,M,M,M,M,M,M,M,M,M,KLGA 020115Z AUTO 26013KT 10SM BKN047 03/M07 A2987 RMK T00301070 MADISHF
LGA,2020-01-02 01:20,-73.8803,40.7794,M,M,M,260.00,14.00,M,29.88,M,10.00,M,BKN,M,M,M,4500.00,M,M,M,M,M,M,M,M,M,M,M,KLGA 020120Z AUTO 26014KT 10SM BKN045 03/M07 A2987 RMK T00301070 MADISHF
LGA,2020-01-02 01:25,-73.8803,40.7794,M,M,M,260.00,16.00,M,29.88,M,10.00,M,BKN,M,M,M,4500.00,M,M,M,M,M,M,M,M,M,M,M,KLGA 020125Z AUTO 26016KT 10SM BKN045 03/M08 A2987 RMK T00301080 MADISHF
LGA,2020-01-02 01:30,-73.8803,40.7794,M,M,M,260.00,13.00,M,29.88,M,10.00,M,BKN,M,M,M,4500.00,M,M,M,M,M,M,M,M,M,M,M,KLGA 020130Z AUTO 26013KT 10SM BKN045 03/M08 A2987 RMK T00301080 MADISHF
LGA,2020-01-02 01:35,-73.8803,40.7794,M,M,M,260.00,14.00,M,29.88,M,10.00,M,BKN,M,M,M,4500.00,M,M,M,M,M,M,M,M,M,M,M,KLGA 020135Z AUTO 26014KT 10SM BKN045 03/M08 A2987 RMK T00301080 MADISHF
LGA,2020-01-02 01:40,-73.8803,40.7794,M,M,M,270.00,14.00,M,29.88,M,10.00,M,SCT,M,M,M,4500.00,M,M,M,M,M,M,M,M,M,M,M,KLGA 020140Z AUTO 27014KT 10SM SCT045 03/M08 A2987 RMK T00301080 MADISHF
LGA,2020-01-02 01:45,-73.8803,40.7794,M,M,M,270.00,17.00,M,29.88,M,10.00,M,FEW,M,M,M,4500.00,M,M,M,M,M,M,M,M,M,M,M,KLGA 020145Z AUTO 27017KT 10SM FEW045 03/M08 A2987 RMK T00301080 MADISHF
LGA,2020-01-02 01:50,-73.8803,40.7794,M,M,M,260.00,14.00,M,29.89,M,10.00,M,FEW,M,M,M,4500.00,M,M,M,M,M,M,M,M,M,M,M,KLGA 020150Z AUTO 26014KT 10SM FEW045 03/M08 A2988 RMK T00301080 MADISHF
LGA,2020-01-02 01:51,-73.8803,40.7794,36.00,18.00,47.58,260.00,15.00,0.00,29.89,1012.00,10.00,22.00,FEW,M,M,M,4500.00,M,M,M,M,M,M,M,M,M,M,25.97,KLGA 020151Z 26015G22KT 10SM FEW045 02/M08 A2989 RMK AO2 SLP120 T00221078
LGA,2020-01-02 01:55,-73.8803,40.7794,M,M,M,270.00,14.00,M,29.89,M,10.00,M,CLR,M,M,M,M,M,M,M,M,M,M,M,M,M,M,M,KLGA 020155Z AUTO 27014KT 10SM CLR 02/M08 A2988 RMK T00201080 MADISHF
LGA,2020-01-02 02:00,-73.8803,40.7794,M,M,M,290.00,13.00,M,29.89,M,10.00,M,CLR,M,M,M,M,M,M,M,M,M,M,M,M,M,M,M,KLGA 020200Z AUTO 29013KT 10SM CLR 02/M07 A2988 RMK T00201070 MADISHF
LGA,2020-01-02 02:05,-73.8803,40.7794,M,M,M,290.00,10.00,M,29.89,M,10.00,M,CLR,M,M,M,M,M,M,M,M,M,M,M,M,M,M,M,KLGA 020205Z AUTO 29010KT 10SM CLR 02/M07 A2988 RMK T00201070 MADISHF
LGA,2020-01-02 02:10,-73.8803,40.7794,M,M,M,280.00,9.00,M,29.89,M,10.00,M,CLR,M,M,M,M,M,M,M,M,M,M,M,M,M,M,M,KLGA 020210Z AUTO 28009KT 10SM CLR 02/M07 A2988 RMK T00201070 MADISHF
LGA,2020-01-02 02:15,-73.8803,40.7794,M,M,M,290.00,11.00,M,29.89,M,10.00,M,CLR,M,M,M,M,M,M,M,M,M,M,M,M,M,M,M,KLGA 020215Z AUTO 29011KT 10SM CLR 02/M07 A2988 RMK T00201070 MADISHF
LGA,2020-01-02 02:20,-73.8803,40.7794,M,M,M,270.00,13.00,M,29.89,M,10.00,M,CLR,M,M,M,M,M,M,M,M,M,M,M,M,M,M,M,KLGA 020220Z AUTO 27013KT 10SM CLR 02/M07 A2988 RMK T00201070 MADISHF
LGA,2020-01-02 02:25,-73.8803,40.7794,M,M,M,290.00,10.00,M,29.89,M,10.00,M,CLR,M,M,M,M,M,M,M,M,M,M,M,M,M,M,M,KLGA 020225Z AUTO 29010KT 10SM CLR 02/M08 A2988 RMK T00201080 MADISHF
LGA,2020-01-02 02:30,-73.8803,40.7794,M,M,M,270.00,11.00,M,29.89,M,10.00,M,CLR,M,M,M,M,M,M,M,M,M,M,M,M,M,M,M,KLGA 020230Z AUTO 27011KT 10SM CLR 02/M07 A2988 RMK T00201070 MADISHF
LGA,2020-01-02 02:35,-73.8803,40.7794,M,M,M,290.00,9.00,M,29.89,M,10.00,M,CLR,M,M,M,M,M,M,M,M,M,M,M,M,M,M,M,KLGA 020235Z AUTO 29009KT 10SM CLR 02/M07 A2988 RMK T00201070 MADISHF
LGA,2020-01-02 02:40,-73.8803,40.7794,M,M,M,290.00,11.00,M,29.89,M,10.00,M,CLR,M,M,M,M,M,M,M,M,M,M,M,M,M,M,M,KLGA 020240Z AUTO 29011KT 10SM CLR 02/M07 A2988 RMK T00201070 MADISHF
LGA,2020-01-02 02:45,-73.8803,40.7794,M,M,M,290.00,11.00,M,29.90,M,10.00,M,CLR,M,M,M,M,M,M,M,M,M,M,M,M,M,M,M,KLGA 020245Z AUTO 29011KT 10SM CLR 02/M07 A2989 RMK T00201070 MADISHF
LGA,2020-01-02 02:50,-73.8803,40.7794,M,M,M,280.00,9.00,M,29.90,M,10.00,M,CLR,M,M,M,M,M,M,M,M,M,M,M,M,M,M,M,KLGA 020250Z AUTO 28009KT 10SM CLR 02/M08 A2989 RMK T00201080 MADISHF
LGA,2020-01-02 02:51,-73.8803,40.7794,36.00,18.00,47.58,290.00,10.00,0.00,29.90,1012.40,10.00,M,CLR,M,M,M,M,M,M,M,M,M,M,M,M,M,M,27.98,KLGA 020251Z 29010KT 10SM CLR 02/M08 A2990 RMK AO2 SLP124 T00221078 51016
LGA,2020-01-02 02:55,-73.8803,40.7794,M,M,M,290.00,10.00,M,29.90,M,10.00,16.00,CLR,M,M,M,M,M,M,M,M,M,M,M,M,M,M,M,KLGA 020255Z AUTO 29010G16KT 10SM CLR 02/M07 A2989 RMK T00201070 MADISHF
LGA,2020-01-02 03:00,-73.8803,40.7794,M,M,M,290.00,10.00,M,29.90,M,10.00,M,CLR,M,M,M,M,M,M,M,M,M,M,M,M,M,M,M,KLGA 020300Z AUTO 29010KT 10SM CLR 02/M07 A2989 RMK T00201070 MADISHF
LGA,2020-01-02 03:05,-73.8803,40.7794,M,M,M,280.00,9.00,M,29.90,M,10.00,M,CLR,M,M,M,M,M,M,M,M,M,M,M,M,M,M,M,KLGA 020305Z AUTO 28009KT 10SM CLR 02/M07 A2989 RMK T00201070 MADISHF
LGA,2020-01-02 03:10,-73.8803,40.7794,M,M,M,270.00,9.00,M,29.90,M,10.00,M,CLR,M,M,M,M,M,M,M,M,M,M,M,M,M,M,M,KLGA 020310Z AUTO 27009KT 10SM CLR 02/M08 A2989 RMK T00201080 MADISHF
LGA,2020-01-02 03:15,-73.8803,40.7794,M,M,M,280.00,9.00,M,29.90,M,10.00,M,CLR,M,M,M,M,M,M,M,M,M,M,M,M,M,M,M,KLGA 020315Z AUTO 28009KT 10SM CLR 02/M08 A2989 RMK T00201080 MADISHF
LGA,2020-01-02 03:20,-73.8803,40.7794,M,M,M,300.00,11.00,M,29.90,M,10.00,M,CLR,M,M,M,M,M,M,M,M,M,M,M,M,M,M,M,KLGA 020320Z AUTO 30011KT 10SM CLR 02/M08 A2989 RMK T00201080 MADISHF
LGA,2020-01-02 03:25,-73.8803,40.7794,M,M,M,300.00,11.00,M,29.90,M,10.00,M,CLR,M,M,M,M,M,M,M,M,M,M,M,M,M,M,M,KLGA 020325Z AUTO 30011KT 10SM CLR 02/M07 A2989 RMK T00201070 MADISHF
LGA,2020-01-02 03:30,-73.8803,40.7794,M,M,M,290.00,9.00,M,29.90,M,10.00,M,CLR,M,M,M,M,M,M,M,M,M,M,M,M,M,M,M,KLGA 020330Z AUTO 29009KT 10SM CLR 02/M07 A2989 RMK T00201070 MADISHF
LGA,2020-01-02 03:35,-73.8803,40.7794,M,M,M,300.00,11.00,M,29.90,M,10.00,M,CLR,M,M,M,M,M,M,M,M,M,M,M,M,M,M,M,KLGA 020335Z AUTO 30011KT 10SM CLR 02/M08 A2989 RMK T00201080 MADISHF
LGA,2020-01-02 03:40,-73.8803,40.7794,M,M,M,300.00,11.00,M,29.90,M,10.00,M,CLR,M,M,M,M,M,M,M,M,M,M,M,M,M,M,M,KLGA 020340Z AUTO 30011KT 10SM CLR 02/M08 A2989 RMK T00201080 MADISHF
LGA,2020-01-02 03:45,-73.8803,40.7794,M,M,M,300.00,11.00,M,29.90,M,10.00,M,CLR,M,M,M,M,M,M,M,M,M,M,M,M,M,M,M,KLGA 020345Z AUTO 30011KT 10SM CLR 02/M07 A2989 RMK T00201070 MADISHF
LGA,2020-01-02 03:50,-73.8803,40.7794,M,M,M,290.00,9.00,M,29.90,M,10.00,14.00,CLR,M,M,M,M,M,M,M,M,M,M,M,M,M,M,M,KLGA 020350Z AUTO 29009G14KT 10SM CLR 02/M08 A2989 RMK T00201080 MADISHF
LGA,2020-01-02 03:51,-73.8803,40.7794,36.00,18.00,47.58,290.00,10.00,0.00,29.90,1012.40,10.00,M,CLR,M,M,M,M,M,M,M,M,M,M,M,M,M,M,27.98,KLGA 020351Z 29010KT 10SM CLR 02/M08 A2990 RMK AO2 SLP124 T00221078
LGA,2020-01-02 03:55,-73.8803,40.7794,M,M,M,290.00,11.00,M,29.90,M,10.00,M,CLR,M,M,M,M,M,M,M,M,M,M,M,M,M,M,M,KLGA 020355Z AUTO 29011KT 10SM CLR 02/M08 A2989 RMK T00201080 MADISHF
LGA,2020-01-02 04:00,-73.8803,40.7794,M,M,M,290.00,8.00,M,29.90,M,10.00,M,CLR,M,M,M,M,M,M,M,M,M,M,M,M,M,M,M,KLGA 020400Z AUTO 29008KT 10SM CLR 02/M08 A2989 RMK T00201080 MADISHF
LGA,2020-01-02 04:05,-73.8803,40.7794,M,M,M,280.00,5.00,M,29.90,M,10.00,M,CLR,M,M,M,M,M,M,M,M,M,M,M,M,M,M,M,KLGA 020405Z AUTO 28005KT 10SM CLR 02/M07 A2989 RMK T00201070 MADISHF
LGA,2020-01-02 04:10,-73.8803,40.7794,M,M,M,280.00,7.00,M,29.90,M,10.00,M,CLR,M,M,M,M,M,M,M,M,M,M,M,M,M,M,M,KLGA 020410Z AUTO 28007KT 10SM CLR 02/M08 A2989 RMK T00201080 MADISHF
LGA,2020-01-02 04:15,-73.8803,40.7794,M,M,M,270.00,9.00,M,29.91,M,10.00,M,CLR,M,M,M,M,M,M,M,M,M,M,M,M,M,M,M,KLGA 020415Z AUTO 27009KT 10SM CLR 02/M08 A2990 RMK T00201080 MADISHF
LGA,2020-01-02 04:20,-73.8803,40.7794,M,M,M,280.00,9.00,M,29.91,M,10.00,M,CLR,M,M,M,M,M,M,M,M,M,M,M,M,M,M,M,KLGA 020420Z AUTO 28009KT 10SM CLR 02/M08 A2990 RMK T00201080 MADISHF
LGA,2020-01-02 04:25,-73.8803,40.7794,M,M,M,270.00,9.00,M,29.91,M,10.00,M,CLR,M,M,M,M,M,M,M,M,M,M,M,M,M,M,M,KLGA 020425Z AUTO 27009KT 10SM CLR 02/M08 A2990 RMK T00201080 MADISHF
LGA,2020-01-02 04:30,-73.8803,40.7794,M,M,M,270.00,9.00,M,29.91,M,10.00,M,CLR,M,M,M,M,M,M,M,M,M,M,M,M,M,M,M,KLGA 020430Z AUTO 27009KT 10SM CLR 02/M08 A2990 RMK T00201080 MADISHF
LGA,2020-01-02 04:35,-73.8803,40.7794,M,M,M,270.00,10.00,M,29.91,M,10.00,M,CLR,M,M,M,M,M,M,M,M,M,M,M,M,M,M,M,KLGA 020435Z AUTO 27010KT 10SM CLR 02/M08 A2990 RMK T00201080 MADISHF
LGA,2020-01-02 04:40,-73.8803,40.7794,M,M,M,260.00,10.00,M,29.91,M,10.00,M,CLR,M,M,M,M,M,M,M,M,M,M,M,M,M,M,M,KLGA 020440Z AUTO 26010KT 10SM CLR 02/M08 A2990 RMK T00201080 MADISHF
LGA,2020-01-02 04:45,-73.8803,40.7794,M,M,M,260.00,11.00,M,29.91,M,10.00,M,CLR,M,M,M,M,M,M,M,M,M,M,M,M,M,M,M,KLGA 020445Z AUTO 26011KT 10SM CLR 02/M08 A2990 RMK T00201080 MADISHF
LGA,2020-01-02 04:50,-73.8803,40.7794,M,M,M,250.00,7.00,M,29.91,M,10.00,M,CLR,M,M,M,M,M,M,M,M,M,M,M,M,M,M,M,KLGA 020450Z AUTO 25007KT 10SM CLR 02/M08 A2990 RMK T00201080 MADISHF
LGA,2020-01-02 04:51,-73.8803,40.7794,36.00,17.10,45.77,250.00,7.00,0.00,29.91,1012.80,10.00,15.00,CLR,M,M,M,M,M,M,M,M,M,M,M,M,M,M,29.65,KLGA 020451Z 25007G15KT 10SM CLR 02/M08 A2991 RMK AO2 SLP128 T00221083 400560022
LGA,2020-01-02 04:55,-73.8803,40.7794,M,M,M,270.00,10.00,M,29.91,M,10.00,M,CLR,M,M,M,M,M,M,M,M,M,M,M,M,M,M,M,KLGA 020455Z AUTO 27010KT 10SM CLR 02/M08 A2990 RMK T00201080 MADISHF
LGA,2020-01-02 05:00,-73.8803,40.7794,M,M,M,270.00,8.00,M,29.91,M,10.00,M,CLR,M,M,M,M,M,M,M,M,M,M,M,M,M,M,M,KLGA 020500Z AUTO 27008KT 10SM CLR 02/M08 A2990 RMK T00201080 MADISHF
LGA,2020-01-02 05:05,-73.8803,40.7794,M,M,M,270.00,10.00,M,29.91,M,10.00,M,CLR,M,M,M,M,M,M,M,M,M,M,M,M,M,M,M,KLGA 020505Z AUTO 27010KT 10SM CLR 02/M08 A2990 RMK T00201080 MADISHF
LGA,2020-01-02 05:10,-73.8803,40.7794,M,M,M,250.00,7.00,M,29.91,M,10.00,M,CLR,M,M,M,M,M,M,M,M,M,M,M,M,M,M,M,KLGA 020510Z AUTO 25007KT 10SM CLR 02/M08 A2990 RMK T00201080 MADISHF
LGA,2020-01-02 05:15,-73.8803,40.7794,M,M,M,250.00,8.00,M,29.90,M,10.00,M,CLR,M,M,M,M,M,M,M,M,M,M,M,M,M,M,M,KLGA 020515Z AUTO 25008KT 10SM CLR 02/M08 A2989 RMK T00201080 MADISHF
LGA,2020-01-02 05:20,-73.8803,40.7794,M,M,M,250.00,7.00,M,29.91,M,10.00,M,CLR,M,M,M,M,M,M,M,M,M,M,M,M,M,M,M,KLGA 020520Z AUTO 25007KT 10SM CLR 02/M08 A2990 RMK T00201080 MADISHF
LGA,2020-01-02 05:25,-73.8803,40.7794,M,M,M,260.00,7.00,M,29.91,M,10.00,M,CLR,M,M,M,M,M,M,M,M,M,M,M,M,M,M,M,KLGA 020525Z AUTO 26007KT 10SM CLR 02/M08 A2990 RMK T00201080 MADISHF
LGA,2020-01-02 05:30,-73.8803,40.7794,M,M,M,260.00,10.00,M,29.90,M,10.00,M,CLR,M,M,M,M,M,M,M,M,M,M,M,M,M,M,M,KLGA 020530Z AUTO 26010KT 10SM CLR 02/M08 A2989 RMK T00201080 MADISHF
LGA,2020-01-02 05:35,-73.8803,40.7794,M,M,M,260.00,8.00,M,29.90,M,10.00,M,CLR,M,M,M,M,M,M,M,M,M,M,M,M,M,M,M,KLGA 020535Z AUTO 26008KT 10SM CLR 02/M08 A2989 RMK T00201080 MADISHF
LGA,2020-01-02 05:40,-73.8803,40.7794,M,M,M,250.00,9.00,M,29.91,M,10.00,M,CLR,M,M,M,M,M,M,M,M,M,M,M,M,M,M,M,KLGA 020540Z AUTO 25009KT 10SM CLR 02/M08 A2990 RMK T00201080 MADISHF
LGA,2020-01-02 05:45,-73.8803,40.7794,M,M,M,250.00,10.00,M,29.91,M,10.00,M,CLR,M,M,M,M,M,M,M,M,M,M,M,M,M,M,M,KLGA 020545Z AUTO 25010KT 10SM CLR 02/M08 A2990 RMK T00201080 MADISHF
LGA,2020-01-02 05:50,-73.8803,40.7794,M,M,M,250.00,7.00,M,29.90,M,10.00,M,CLR,M,M,M,M,M,M,M,M,M,M,M,M,M,M,M,KLGA 020550Z AUTO 25007KT 10SM CLR 02/M08 A2989 RMK T00201080 MADISHF
LGA,2020-01-02 05:51,-73.8803,40.7794,36.00,18.00,47.58,250.00,8.00,0.00,29.90,1012.60,10.00,M,CLR,M,M,M,M,M,M,M,M,M,M,M,M,M,M,29.04,KLGA 020551Z 25008KT 10SM CLR 02/M08 A2990 RMK AO2 SLP126 T00221078 10033 20017 50002
LGA,2020-01-02 05:55,-73.8803,40.7794,M,M,M,250.00,10.00,M,29.91,M,10.00,M,CLR,M,M,M,M,M,M,M,M,M,M,M,M,M,M,M,KLGA 020555Z AUTO 25010KT 10SM CLR 02/M08 A2990 RMK T00201080 MADISHF
LGA,2020-01-02 06:00,-73.8803,40.7794,M,M,M,250.00,9.00,M,29.91,M,10.00,M,CLR,M,M,M,M,M,M,M,M,M,M,M,M,M,M,M,KLGA 020600Z AUTO 25009KT 10SM CLR 02/M08 A2990 RMK T00201080 MADISHF
LGA,2020-01-02 06:05,-73.8803,40.7794,M,M,M,250.00,10.00,M,29.91,M,10.00,M,CLR,M,M,M,M,M,M,M,M,M,M,M,M,M,M,M,KLGA 020605Z AUTO 25010KT 10SM CLR 02/M08 A2990 RMK T00201080 MADISHF
LGA,2020-01-02 06:10,-73.8803,40.7794,M,M,M,250.00,9.00,M,29.91,M,10.00,M,CLR,M,M,M,M,M,M,M,M,M,M,M,M,M,M,M,KLGA 020610Z AUTO 25009KT 10SM CLR 02/M08 A2990 RMK T00201080 MADISHF
LGA,2020-01-02 06:15,-73.8803,40.7794,M,M,M,250.00,11.00,M,29.91,M,10.00,M,CLR,M,M,M,M,M,M,M,M,M,M,M,M,M,M,M,KLGA 020615Z AUTO 25011KT 10SM CLR 02/M08 A2990 RMK T00201080 MADISHF
LGA,2020-01-02 06:20,-73.8803,40.7794,M,M,M,250.00,9.00,M,29.91,M,10.00,M,CLR,M,M,M,M,M,M,M,M,M,M,M,M,M,M,M,KLGA 020620Z AUTO 25009KT 10SM CLR 02/M08 A2990 RMK T00201080 MADISHF
LGA,2020-01-02 06:25,-73.8803,40.7794,M,M,M,260.00,11.00,M,29.91,M,10.00,M,CLR,M,M,M,M,M,M,M,M,M,M,M,M,M,M,M,KLGA 020625Z AUTO 26011KT 10SM CLR 02/M07 A2990 RMK T00201070 MADISHF
LGA,2020-01-02 06:30,-73.8803,40.7794,M,M,M,260.00,11.00,M,29.92,M,10.00,M,CLR,M,M,M,M,M,M,M,M,M,M,M,M,M,M,M,KLGA 020630Z AUTO 26011KT 10SM CLR 02/M07 A2992 RMK T00201070 MADISHF
LGA,2020-01-02 06:35,-73.8803,40.7794,M,M,M,250.00,11.00,M,29.92,M,10.00,M,CLR,M,M,M,M,M,M,M,M,M,M,M,M,M,M,M,KLGA 020635Z AUTO 25011KT 10SM CLR 02/M07 A2992 RMK T00201070 MADISHF
LGA,2020-01-02 06:40,-73.8803,40.7794,M,M,M,250.00,9.00,M,29.92,M,10.00,M,CLR,M,M,M,M,M,M,M,M,M,M,M,M,M,M,M,KLGA 020640Z AUTO 25009KT 10SM CLR 02/M07 A2992 RMK T00201070 MADISHF
LGA,2020-01-02 06:45,-73.8803,40.7794,M,M,M,260.00,10.00,M,29.92,M,10.00,M,CLR,M,M,M,M,M,M,M,M,M,M,M,M,M,M,M,KLGA 020645Z AUTO 26010KT 10SM CLR 02/M07 A2992 RMK T00201070 MADISHF
LGA,2020-01-02 06:50,-73.8803,40.7794,M,M,M,250.00,9.00,M,29.92,M,10.00,M,CLR,M,M,M,M,M,M,M,M,M,M,M,M,M,M,M,KLGA 020650Z AUTO 25009KT 10SM CLR 02/M07 A2992 RMK T00201070 MADISHF
LGA,2020-01-02 06:51,-73.8803,40.7794,36.00,19.00,49.66,260.00,10.00,0.00,29.93,1013.30,10.00,M,CLR,M,M,M,M,M,M,M,M,M,M,M,M,M,M,27.98,KLGA 020651Z 26010KT 10SM CLR 02/M07 A2993 RMK AO2 SLP133 T00221072
LGA,2020-01-02 06:55,-73.8803,40.7794,M,M,M,250.00,9.00,M,29.93,M,10.00,M,CLR,M,M,M,M,M,M,M,M,M,M,M,M,M,M,M,KLGA 020655Z AUTO 25009KT 10SM CLR 02/M07 A2993 RMK T00201070 MADISHF
LGA,2020-01-02 07:00,-73.8803,40.7794,M,M,M,240.00,5.00,M,29.93,M,10.00,M,CLR,M,M,M,M,M,M,M,M,M,M,M,M,M,M,M,KLGA 020700Z AUTO 24005KT 10SM CLR 02/M07 A2993 RMK T00201070 MADISHF
LGA,2020-01-02 07:05,-73.8803,40.7794,M,M,M,240.00,7.00,M,29.93,M,10.00,M,CLR,M,M,M,M,M,M,M,M,M,M,M,M,M,M,M,KLGA 020705Z AUTO 24007KT 10SM CLR 02/M07 A2993 RMK T00201070 MADISHF
LGA,2020-01-02 07:10,-73.8803,40.7794,M,M,M,260.00,7.00,M,29.93,M,10.00,M,CLR,M,M,M,M,M,M,M,M,M,M,M,M,M,M,M,KLGA 020710Z AUTO 26007KT 10SM CLR 02/M07 A2993 RMK T00201070 MADISHF
LGA,2020-01-02 07:15,-73.8803,40.7794,M,M,M,240.00,7.00,M,29.93,M,10.00,M,CLR,M,M,M,M,M,M,M,M,M,M,M,M,M,M,M,KLGA 020715Z AUTO 24007KT 10SM CLR 02/M07 A2993 RMK T00201070 MADISHF
LGA,2020-01-02 07:20,-73.8803,40.7794,M,M,M,220.00,5.00,M,29.93,M,10.00,M,CLR,M,M,M,M,M,M,M,M,M,M,M,M,M,M,M,KLGA 020720Z AUTO 22005KT 10SM CLR 02/M07 A2993 RMK T00201070 MADISHF
LGA,2020-01-02 07:25,-73.8803,40.7794,M,M,M,220.00,5.00,M,29.93,M,10.00,M,CLR,M,M,M,M,M,M,M,M,M,M,M,M,M,M,M,KLGA 020725Z AUTO 22005KT 10SM CLR 01/M07 A2993 RMK T00101070 MADISHF
LGA,2020-01-02 07:30,-73.8803,40.7794,M,M,M,220.00,7.00,M,29.93,M,10.00,M,CLR,M,M,M,M,M,M,M,M,M,M,M,M,M,M,M,KLGA 020730Z AUTO 22007KT 10SM CLR 01/M07 A2993 RMK T00101070 MADISHF
LGA,2020-01-02 07:35,-73.8803,40.7794,M,M,M,210.00,5.00,M,29.93,M,10.00,M,CLR,M,M,M,M,M,M,M,M,M,M,M,M,M,M,M,KLGA 020735Z AUTO 21005KT 10SM CLR 01/M07 A2993 RMK T00101070 MADISHF
LGA,2020-01-02 07:40,-73.8803,40.7794,M,M,M,220.00,5.00,M,29.93,M,10.00,M,CLR,M,M,M,M,M,M,M,M,M,M,M,M,M,M,M,KLGA 020740Z AUTO 22005KT 10SM CLR 01/M07 A2993 RMK T00101070 MADISHF
LGA,2020-01-02 07:45,-73.8803,40.7794,M,M,M,220.00,5.00,M,29.93,M,10.00,M,CLR,M,M,M,M,M,M,M,M,M,M,M,M,M,M,M,KLGA 020745Z AUTO 22005KT 10SM CLR 01/M07 A2993 RMK T00101070 MADISHF
LGA,2020-01-02 07:50,-73.8803,40.7794,M,M,M,230.00,5.00,M,29.93,M,10.00,M,CLR,M,M,M,M,M,M,M,M,M,M,M,M,M,M,M,KLGA 020750Z AUTO 23005KT 10SM CLR 01/M07 A2993 RMK T00101070 MADISHF
LGA,2020-01-02 07:51,-73.8803,40.7794,34.00,19.90,55.88,230.00,7.00,0.00,29.93,1013.60,10.00,M,CLR,M,M,M,M,M,M,M,M,M,M,M,M,M,M,27.22,KLGA 020751Z 23007KT 10SM CLR 01/M07 A2993 RMK AO2 SLP136 T00111067
LGA,2020-01-02 07:55,-73.8803,40.7794,M,M,M,230.00,5.00,M,29.94,M,10.00,M,CLR,M,M,M,M,M,M,M,M,M,M,M,M,M,M,M,KLGA 020755Z AUTO 23005KT 10SM CLR 01/M07 A2994 RMK T00101070 MADISHF
LGA,2020-01-02 08:00,-73.8803,40.7794,M,M,M,220.00,5.00,M,29.93,M,10.00,M,CLR,M,M,M,M,M,M,M,M,M,M,M,M,M,M,M,KLGA 020800Z AUTO 22005KT 10SM CLR 01/M07 A2993 RMK T00101070 MADISHF
LGA,2020-01-02 08:05,-73.8803,40.7794,M,M,M,220.00,5.00,M,29.93,M,10.00,M,CLR,M,M,M,M,M,M,M,M,M,M,M,M,M,M,M,KLGA 020805Z AUTO 22005KT 10SM CLR 01/M07 A2993 RMK T00101070 MADISHF
LGA,2020-01-02 08:10,-73.8803,40.7794,M,M,M,230.00,5.00,M,29.93,M,10.00,M,CLR,M,M,M,M,M,M,M,M,M,M,M,M,M,M,M,KLGA 020810Z AUTO 23005KT 10SM CLR 01/M07 A2993 RMK T00101070 MADISHF
LGA,2020-01-02 08:15,-73.8803,40.7794,M,M,M,220.00,7.00,M,29.93,M,10.00,M,CLR,M,M,M,M,M,M,M,M,M,M,M,M,M,M,M,KLGA 020815Z AUTO 22007KT 10SM CLR 01/M07 A2993 RMK T00101070 MADISHF
LGA,2020-01-02 08:20,-73.8803,40.7794,M,M,M,240.00,7.00,M,29.94,M,10.00,M,CLR,M,M,M,M,M,M,M,M,M,M,M,M,M,M,M,KLGA 020820Z AUTO 24007KT 10SM CLR 02/M07 A2994 RMK T00201070 MADISHF
LGA,2020-01-02 08:25,-73.8803,40.7794,M,M,M,240.00,7.00,M,29.94,M,10.00,M,CLR,M,M,M,M,M,M,M,M,M,M,M,M,M,M,M,KLGA 020825Z AUTO 24007KT 10SM CLR 02/M06 A2994 RMK T00201060 MADISHF
LGA,2020-01-02 08:30,-73.8803,40.7794,M,M,M,220.00,7.00,M,29.93,M,10.00,M,CLR,M,M,M,M,M,M,M,M,M,M,M,M,M,M,M,KLGA 020830Z AUTO 22007KT 10SM CLR 02/M07 A2993 RMK T00201070 MADISHF
LGA,2020-01-02 08:35,-73.8803,40.7794,M,M,M,220.00,5.00,M,29.94,M,10.00,M,CLR,M,M,M,M,M,M,M,M,M,M,M,M,M,M,M,KLGA 020835Z AUTO 22005KT 10SM CLR 02/M07 A2994 RMK T00201070 MADISHF
LGA,2020-01-02 08:40,-73.8803,40.7794,M,M,M,220.00,7.00,M,29.94,M,10.00,M,CLR,M,M,M,M,M,M,M,M,M,M,M,M,M,M,M,KLGA 020840Z AUTO 22007KT 10SM CLR 01/M07 A2994 RMK T00101070 MADISHF
LGA,2020-01-02 08:45,-73.8803,40.7794,M,M,M,220.00,7.00,M,29.94,M,10.00,M,CLR,M,M,M,M,M,M,M,M,M,M,M,M,M,M,M,KLGA 020845Z AUTO 22007KT 10SM CLR 01/M07 A2994 RMK T00101070 MADISHF
LGA,2020-01-02 08:50,-73.8803,40.7794,M,M,M,220.00,8.00,M,29.94,M,10.00,M,M,M,M,M,M,M,M,M,M,M,M,M,M,M,M,M,KLGA 020850Z AUTO 22008KT 10SM 02/M07 A2994 RMK T00201070 MADISHF
LGA,2020-01-02 08:51,-73.8803,40.7794,35.10,19.90,53.49,220.00,8.00,0.00,29.94,1013.70,10.00,M,FEW,M,M,M,20000.00,M,M,M,M,M,M,M,M,M,M,27.93,KLGA 020851Z 22008KT 10SM FEW200 02/M07 A2994 RMK AO2 SLP137 T00171067 51010
LGA,2020-01-02 08:55,-73.8803,40.7794,M,M,M,220.00,8.00,M,29.93,M,10.00,M,CLR,M,M,M,M,M,M,M,M,M,M,M,M,M,M,M,KLGA 020855Z AUTO 22008KT 10SM CLR 01/M07 A2993 RMK T00101070 MADISHF
LGA,2020-01-02 09:00,-73.8803,40.7794,M,M,M,220.00,8.00,M,29.93,M,10.00,M,CLR,M,M,M,M,M,M,M,M,M,M,M,M,M,M,M,KLGA 020900Z AUTO 22008KT 10SM CLR 01/M07 A2993 RMK T00101070 MADISHF
LGA,2020-01-02 09:05,-73.8803,40.7794,M,M,M,220.00,7.00,M,29.93,M,10.00,M,CLR,M,M,M,M,M,M,M,M,M,M,M,M,M,M,M,KLGA 020905Z AUTO 22007KT 10SM CLR 01/M06 A2993 RMK T00101060 MADISHF
LGA,2020-01-02 09:10,-73.8803,40.7794,M,M,M,230.00,7.00,M,29.93,M,10.00,M,CLR,M,M,M,M,M,M,M,M,M,M,M,M,M,M,M,KLGA 020910Z AUTO 23007KT 10SM CLR 01/M06 A2993 RMK T00101060 MADISHF
LGA,2020-01-02 09:15,-73.8803,40.7794,M,M,M,230.00,8.00,M,29.93,M,10.00,M,CLR,M,M,M,M,M,M,M,M,M,M,M,M,M,M,M,KLGA 020915Z AUTO 23008KT 10SM CLR 01/M06 A2993 RMK T00101060 MADISHF
LGA,2020-01-02 09:20,-73.8803,40.7794,M,M,M,230.00,9.00,M,29.94,M,10.00,M,CLR,M,M,M,M,M,M,M,M,M,M,M,M,M,M,M,KLGA 020920Z AUTO 23009KT 10SM CLR 01/M06 A2994 RMK T00101060 MADISHF
LGA,2020-01-02 09:25,-73.8803,40.7794,M,M,M,230.00,8.00,M,29.94,M,10.00,M,CLR,M,M,M,M,M,M,M,M,M,M,M,M,M,M,M,KLGA 020925Z AUTO 23008KT 10SM CLR 01/M06 A2994 RMK T00101060 MADISHF
LGA,2020-01-02 09:30,-73.8803,40.7794,M,M,M,230.00,8.00,M,29.94,M,10.00,M,CLR,M,M,M,M,M,M,M,M,M,M,M,M,M,M,M,KLGA 020930Z AUTO 23008KT 10SM CLR 02/M06 A2994 RMK T00201060 MADISHF
LGA,2020-01-02 09:35,-73.8803,40.7794,M,M,M,230.00,8.00,M,29.94,M,10.00,M,CLR,M,M,M,M,M,M,M,M,M,M,M,M,M,M,M,KLGA 020935Z AUTO 23008KT 10SM CLR 02/M06 A2994 RMK T00201060 MADISHF
LGA,2020-01-02 09:40,-73.8803,40.7794,M,M,M,230.00,7.00,M,29.94,M,10.00,M,CLR,M,M,M,M,M,M,M,M,M,M,M,M,M,M,M,KLGA 020940Z AUTO 23007KT 10SM CLR 02/M06 A2994 RMK T00201060 MADISHF
LGA,2020-01-02 09:45,-73.8803,40.7794,M,M,M,230.00,7.00,M,29.94,M,10.00,M,CLR,M,M,M,M,M,M,M,M,M,M,M,M,M,M,M,KLGA 020945Z AUTO 23007KT 10SM CLR 02/M06 A2994 RMK T00201060 MADISHF
LGA,2020-01-02 09:50,-73.8803,40.7794,M,M,M,230.00,8.00,M,29.95,M,10.00,M,M,M,M,M,M,M,M,M,M,M,M,M,M,M,M,M,KLGA 020950Z AUTO 23008KT 10SM 02/M06 A2995 RMK T00201060 MADISHF
LGA,2020-01-02 09:51,-73.8803,40.7794,35.10,21.00,56.05,220.00,7.00,0.00,29.95,1014.10,10.00,M,FEW,M,M,M,25000.00,M,M,M,M,M,M,M,M,M,M,28.56,KLGA 020951Z 22007KT 10SM FEW250 02/M06 A2995 RMK AO2 SLP141 T00171061
LGA,2020-01-02 09:55,-73.8803,40.7794,M,M,M,230.00,8.00,M,29.95,M,10.00,M,CLR,M,M,M,M,M,M,M,M,M,M,M,M,M,M,M,KLGA 020955Z AUTO 23008KT 10SM CLR 02/M06 A2995 RMK T00201060 MADISHF
LGA,2020-01-02 10:00,-73.8803,40.7794,M,M,M,230.00,9.00,M,29.95,M,10.00,M,CLR,M,M,M,M,M,M,M,M,M,M,M,M,M,M,M,KLGA 021000Z AUTO 23009KT 10SM CLR 02/M06 A2995 RMK T00201060 MADISHF
LGA,2020-01-02 10:05,-73.8803,40.7794,M,M,M,230.00,9.00,M,29.95,M,10.00,M,CLR,M,M,M,M,M,M,M,M,M,M,M,M,M,M,M,KLGA 021005Z AUTO 23009KT 10SM CLR 02/M06 A2995 RMK T00201060 MADISHF
LGA,2020-01-02 10:10,-73.8803,40.7794,M,M,M,230.00,7.00,M,29.96,M,10.00,M,CLR,M,M,M,M,M,M,M,M,M,M,M,M,M,M,M,KLGA 021010Z AUTO 23007KT 10SM CLR 02/M06 A2995 RMK T00201060 MADISHF
LGA,2020-01-02 10:15,-73.8803,40.7794,M,M,M,230.00,7.00,M,29.95,M,10.00,M,CLR,M,M,M,M,M,M,M,M,M,M,M,M,M,M,M,KLGA 021015Z AUTO 23007KT 10SM CLR 02/M06 A2995 RMK T00201060 MADISHF
LGA,2020-01-02 10:20,-73.8803,40.7794,M,M,M,230.00,7.00,M,29.95,M,10.00,M,CLR,M,M,M,M,M,M,M,M,M,M,M,M,M,M,M,KLGA 021020Z AUTO 23007KT 10SM CLR 01/M06 A2995 RMK T00101060 MADISHF
LGA,2020-01-02 10:25,-73.8803,40.7794,M,M,M,230.00,8.00,M,29.96,M,10.00,M,CLR,M,M,M,M,M,M,M,M,M,M,M,M,M,M,M,KLGA 021025Z AUTO 23008KT 10SM CLR 02/M06 A2995 RMK T00201060 MADISHF
LGA,2020-01-02 10:30,-73.8803,40.7794,M,M,M,230.00,8.00,M,29.95,M,10.00,M,CLR,M,M,M,M,M,M,M,M,M,M,M,M,M,M,M,KLGA 021030Z AUTO 23008KT 10SM CLR 02/M06 A2995 RMK T00201060 MADISHF
LGA,2020-01-02 10:35,-73.8803,40.7794,M,M,M,230.00,7.00,M,29.95,M,10.00,M,CLR,M,M,M,M,M,M,M,M,M,M,M,M,M,M,M,KLGA 021035Z AUTO 23007KT 10SM CLR 02/M06 A2995 RMK T00201060 MADISHF
LGA,2020-01-02 10:40,-73.8803,40.7794,M,M,M,230.00,5.00,M,29.95,M,10.00,M,CLR,M,M,M,M,M,M,M,M,M,M,M,M,M,M,M,KLGA 021040Z AUTO 23005KT 10SM CLR 02/M06 A2995 RMK T00201060 MADISHF
LGA,2020-01-02 10:45,-73.8803,40.7794,M,M,M,240.00,7.00,M,29.96,M,10.00,M,M,M,M,M,M,M,M,M,M,M,M,M,M,M,M,M,KLGA 021045Z AUTO 24007KT 10SM 02/M06 A2995 RMK T00201060 MADISHF
LGA,2020-01-02 10:50,-73.8803,40.7794,M,M,M,240.00,5.00,M,29.96,M,10.00,M,M,M,M,M,M,M,M,M,M,M,M,M,M,M,M,M,KLGA 021050Z AUTO 24005KT 10SM 02/M06 A2995 RMK T00201060 MADISHF
LGA,2020-01-02 10:51,-73.8803,40.7794,35.10,21.00,56.05,240.00,7.00,0.00,29.96,1014.40,10.00,M,FEW,M,M,M,25000.00,M,M,M,M,M,M,M,M,M,M,28.56,KLGA 021051Z 24007KT 10SM FEW250 02/M06 A2996 RMK AO2 SLP144 T00171061
LGA,2020-01-02 10:55,-73.8803,40.7794,M,M,M,240.00,7.00,M,29.96,M,10.00,M,CLR,M,M,M,M,M,M,M,M,M,M,M,M,M,M,M,KLGA 021055Z AUTO 24007KT 10SM CLR 02/M06 A2995 RMK T00201060 MADISHF
LGA,2020-01-02 11:00,-73.8803,40.7794,M,M,M,230.00,5.00,M,29.96,M,10.00,M,CLR,M,M,M,M,M,M,M,M,M,M,M,M,M,M,M,KLGA 021100Z AUTO 23005KT 10SM CLR 02/M06 A2995 RMK T00201060 MADISHF
LGA,2020-01-02 11:05,-73.8803,40.7794,M,M,M,230.00,8.00,M,29.96,M,10.00,M,CLR,M,M,M,M,M,M,M,M,M,M,M,M,M,M,M,KLGA 021105Z AUTO 23008KT 10SM CLR 02/M06 A2995 RMK T00201060 MADISHF
LGA,2020-01-02 11:10,-73.8803,40.7794,M,M,M,230.00,7.00,M,29.96,M,10.00,M,CLR,M,M,M,M,M,M,M,M,M,M,M,M,M,M,M,KLGA 021110Z AUTO 23007KT 10SM CLR 02/M06 A2995 RMK T00201060 MADISHF
LGA,2020-01-02 11:15,-73.8803,40.7794,M,M,M,230.00,7.00,M,29.97,M,10.00,M,CLR,M,M,M,M,M,M,M,M,M,M,M,M,M,M,M,KLGA 021115Z AUTO 23007KT 10SM CLR 02/M06 A2996 RMK T00201060 MADISHF
LGA,2020-01-02 11:20,-73.8803,40.7794,M,M,M,230.00,7.00,M,29.97,M,10.00,M,CLR,M,M,M,M,M,M,M,M,M,M,M,M,M,M,M,KLGA 021120Z AUTO 23007KT 10SM CLR 02/M06 A2996 RMK T00201060 MADISHF
LGA,2020-01-02 11:25,-73.8803,40.7794,M,M,M,220.00,8.00,M,29.96,M,10.00,M,CLR,M,M,M,M,M,M,M,M,M,M,M,M,M,M,M,KLGA 021125Z AUTO 22008KT 10SM CLR 02/M06 A2995 RMK T00201060 MADISHF
LGA,2020-01-02 11:30,-73.8803,40.7794,M,M,M,220.00,8.00,M,29.97,M,10.00,M,CLR,M,M,M,M,M,M,M,M,M,M,M,M,M,M,M,KLGA 021130Z AUTO 22008KT 10SM CLR 02/M06 A2996 RMK T00201060 MADISHF
LGA,2020-01-02 11:35,-73.8803,40.7794,M,M,M,230.00,8.00,M,29.97,M,10.00,M,CLR,M,M,M,M,M,M,M,M,M,M,M,M,M,M,M,KLGA 021135Z AUTO 23008KT 10SM CLR 02/M06 A2996 RMK T00201060 MADISHF
LGA,2020-01-02 11:40,-73.8803,40.7794,M,M,M,230.00,8.00,M,29.97,M,10.00,M,CLR,M,M,M,M,M,M,M,M,M,M,M,M,M,M,M,KLGA 021140Z AUTO 23008KT 10SM CLR 02/M06 A2996 RMK T00201060 MADISHF
LGA,2020-01-02 11:45,-73.8803,40.7794,M,M,M,230.00,7.00,M,29.97,M,10.00,M,CLR,M,M,M,M,M,M,M,M,M,M,M,M,M,M,M,KLGA 021145Z AUTO 23007KT 10SM CLR 02/M06 A2996 RMK T00201060 MADISHF
LGA,2020-01-02 11:50,-73.8803,40.7794,M,M,M,230.00,8.00,M,29.98,M,10.00,M,M,M,M,M,M,M,M,M,M,M,M,M,M,M,M,M,KLGA 021150Z AUTO 23008KT 10SM 02/M06 A2997 RMK T00201060 MADISHF
LGA,2020-01-02 11:51,-73.8803,40.7794,35.10,21.00,56.05,230.00,8.00,0.00,29.98,1015.10,10.00,M,FEW,M,M,M,25000.00,M,M,M,M,M,M,M,M,M,M,27.93,KLGA 021151Z 23008KT 10SM FEW250 02/M06 A2998 RMK AO2 SLP151 T00171061 10028 20011 53014
LGA,2020-01-02 11:55,-73.8803,40.7794,M,M,M,230.00,8.00,M,29.97,M,10.00,M,CLR,M,M,M,M,M,M,M,M,M,M,M,M,M,M,M,KLGA 021155Z AUTO 23008KT 10SM CLR 02/M06 A2996 RMK T00201060 MADISHF
LGA,2020-01-02 12:00,-73.8803,40.7794,M,M,M,200.00,7.00,M,29.98,M,10.00,M,M,M,M,M,M,M,M,M,M,M,M,M,M,M,M,M,KLGA 021200Z AUTO 20007KT 10SM 02/M06 A2997 RMK T00201060 MADISHF
LGA,2020-01-02 12:05,-73.8803,40.7794,M,M,M,210.00,7.00,M,29.98,M,10.00,M,M,M,M,M,M,M,M,M,M,M,M,M,M,M,M,M,KLGA 021205Z AUTO 21007KT 10SM 01/M06 A2997 RMK T00101060 MADISHF
LGA,2020-01-02 12:10,-73.8803,40.7794,M,M,M,220.00,7.00,M,29.97,M,10.00,M,M,M,M,M,M,M,M,M,M,M,M,M,M,M,M,M,KLGA 021210Z AUTO 22007KT 10SM 02/M06 A2996 RMK T00201060 MADISHF
LGA,2020-01-02 12:15,-73.8803,40.7794,M,M,M,210.00,5.00,M,29.98,M,10.00,M,M,M,M,M,M,M,M,M,M,M,M,M,M,M,M,M,KLGA 021215Z AUTO 21005KT 10SM 02/M06 A2997 RMK T00201060 MADISHF
LGA,2020-01-02 12:20,-73.8803,40.7794,M,M,M,210.00,5.00,M,29.98,M,10.00,M,M,M,M,M,M,M,M,M,M,M,M,M,M,M,M,M,KLGA 021220Z AUTO 21005KT 10SM 02/M06 A2997 RMK T00201060 MADISHF
LGA,2020-01-02 12:25,-73.8803,40.7794,M,M,M,220.00,5.00,M,29.98,M,10.00,M,M,M,M,M,M,M,M,M,M,M,M,M,M,M,M,M,KLGA 021225Z AUTO 22005KT 10SM 01/M06 A2997 RMK T00101060 MADISHF
LGA,2020-01-02 12:30,-73.8803,40.7794,M,M,M,230.00,5.00,M,29.98,M,10.00,M,M,M,M,M,M,M,M,M,M,M,M,M,M,M,M,M,KLGA 021230Z AUTO 23005KT 10SM 02/M06 A2997 RMK T00201060 MADISHF
LGA,2020-01-02 12:35,-73.8803,40.7794,M,M,M,230.00,5.00,M,29.98,M,10.00,M,M,M,M,M,M,M,M,M,M,M,M,M,M,M,M,M,KLGA 021235Z AUTO 23005KT 10SM 02/M06 A2997 RMK T00201060 MADISHF
LGA,2020-01-02 12:40,-73.8803,40.7794,M,M,M,240.00,4.00,M,29.98,M,10.00,M,M,M,M,M,M,M,M,M,M,M,M,M,M,M,M,M,KLGA 021240Z AUTO 24004KT 10SM 02/M06 A2997 RMK T00201060 MADISHF
LGA,2020-01-02 12:45,-73.8803,40.7794,M,M,M,230.00,4.00,M,29.97,M,10.00,M,M,M,M,M,M,M,M,M,M,M,M,M,M,M,M,M,KLGA 021245Z AUTO 23004KT 10SM 02/M06 A2996 RMK T00201060 MADISHF
LGA,2020-01-02 12:50,-73.8803,40.7794,M,M,M,230.00,4.00,M,29.97,M,10.00,M,M,M,M,M,M,M,M,M,M,M,M,M,M,M,M,M,KLGA 021250Z AUTO 23004KT 10SM 02/M06 A2996 RMK T00201060 MADISHF
LGA,2020-01-02 12:51,-73.8803,40.7794,36.00,21.90,56.18,230.00,3.00,0.00,29.97,1015.00,10.00,M,FEW,FEW,M,M,15000.00,25000.00,M,M,M,M,M,M,M,M,M,33.26,KLGA 021251Z 23003KT 10SM FEW150 FEW250 02/M06 A2997 RMK AO2 SLP150 T00221056
LGA,2020-01-02 12:55,-73.8803,40.7794,M,M,M,240.00,4.00,M,29.98,M,10.00,M,CLR,M,M,M,M,M,M,M,M,M,M,M,M,M,M,M,KLGA 021255Z AUTO 24004KT 10SM CLR 02/M06 A2997 RMK T00201060 MADISHF
LGA,2020-01-02 13:00,-73.8803,40.7794,M,M,M,280.00,2.00,M,29.98,M,10.00,M,CLR,M,M,M,M,M,M,M,M,M,M,M,M,M,M,M,KLGA 021300Z AUTO 28002KT 10SM CLR 02/M06 A2997 RMK T00201060 MADISHF
LGA,2020-01-02 13:05,-73.8803,40.7794,M,M,M,0.00,0.00,M,29.98,M,10.00,M,CLR,M,M,M,M,M,M,M,M,M,M,M,M,M,M,M,KLGA 021305Z AUTO 00000KT 10SM CLR 03/M06 A2997 RMK T00301060 MADISHF
LGA,2020-01-02 13:10,-73.8803,40.7794,M,M,M,0.00,0.00,M,29.98,M,10.00,M,CLR,M,M,M,M,M,M,M,M,M,M,M,M,M,M,M,KLGA 021310Z AUTO 00000KT 10SM CLR 03/M05 A2997 RMK T00301050 MADISHF
LGA,2020-01-02 13:15,-73.8803,40.7794,M,M,M,0.00,0.00,M,29.98,M,10.00,M,M,M,M,M,M,M,M,M,M,M,M,M,M,M,M,M,KLGA 021315Z AUTO 00000KT 10SM 03/M06 A2997 RMK T00301060 MADISHF
LGA,2020-01-02 13:20,-73.8803,40.7794,M,M,M,0.00,0.00,M,29.98,M,10.00,M,M,M,M,M,M,M,M,M,M,M,M,M,M,M,M,M,KLGA 021320Z AUTO 00000KT 10SM 03/M05 A2997 RMK T00301050 MADISHF
LGA,2020-01-02 13:25,-73.8803,40.7794,M,M,M,0.00,0.00,M,29.98,M,10.00,M,M,M,M,M,M,M,M,M,M,M,M,M,M,M,M,M,KLGA 021325Z AUTO 00000KT 10SM 03/M06 A2997 RMK T00301060 MADISHF
LGA,2020-01-02 13:30,-73.8803,40.7794,M,M,M,0.00,0.00,M,29.98,M,10.00,M,M,M,M,M,M,M,M,M,M,M,M,M,M,M,M,M,KLGA 021330Z AUTO 00000KT 10SM 03/M06 A2997 RMK T00301060 MADISHF
LGA,2020-01-02 13:35,-73.8803,40.7794,M,M,M,0.00,0.00,M,29.98,M,10.00,M,M,M,M,M,M,M,M,M,M,M,M,M,M,M,M,M,KLGA 021335Z AUTO 00000KT 10SM 03/M05 A2997 RMK T00301050 MADISHF
LGA,2020-01-02 13:40,-73.8803,40.7794,M,M,M,0.00,0.00,M,29.98,M,10.00,M,M,M,M,M,M,M,M,M,M,M,M,M,M,M,M,M,KLGA 021340Z AUTO 00000KT 10SM 03/M05 A2997 RMK T00301050 MADISHF
LGA,2020-01-02 13:45,-73.8803,40.7794,M,M,M,0.00,0.00,M,29.98,M,10.00,M,M,M,M,M,M,M,M,M,M,M,M,M,M,M,M,M,KLGA 021345Z AUTO 00000KT 10SM 03/M05 A2997 RMK T00301050 MADISHF
LGA,2020-01-02 13:50,-73.8803,40.7794,M,M,M,200.00,5.00,M,29.98,M,10.00,M,M,M,M,M,M,M,M,M,M,M,M,M,M,M,M,M,KLGA 021350Z AUTO 20005KT 10SM 03/M06 A2997 RMK T00301060 MADISHF
LGA,2020-01-02 13:51,-73.8803,40.7794,37.90,21.90,52.13,200.00,5.00,0.00,29.98,1015.20,10.00,M,FEW,SCT,M,M,15000.00,25000.00,M,M,M,M,M,M,M,M,M,33.40,KLGA 021351Z 20005KT 10SM FEW150 SCT250 03/M06 A2998 RMK AO2 SLP152 T00331056
LGA,2020-01-02 13:55,-73.8803,40.7794,M,M,M,230.00,4.00,M,29.99,M,10.00,M,CLR,M,M,M,M,M,M,M,M,M,M,M,M,M,M,M,KLGA 021355Z AUTO 23004KT 10SM CLR 03/M06 A2998 RMK T00301060 MADISHF
LGA,2020-01-02 14:00,-73.8803,40.7794,M,M,M,230.00,5.00,M,29.99,M,10.00,M,CLR,M,M,M,M,M,M,M,M,M,M,M,M,M,M,M,KLGA 021400Z AUTO 23005KT 10SM CLR 04/M06 A2998 RMK T00401060 MADISHF
LGA,2020-01-02 14:05,-73.8803,40.7794,M,M,M,230.00,4.00,M,29.99,M,10.00,M,CLR,M,M,M,M,M,M,M,M,M,M,M,M,M,M,M,KLGA 021405Z AUTO 23004KT 10SM CLR 04/M06 A2998 RMK T00401060 MADISHF
LGA,2020-01-02 14:10,-73.8803,40.7794,M,M,M,230.00,2.00,M,29.99,M,10.00,M,CLR,M,M,M,M,M,M,M,M,M,M,M,M,M,M,M,KLGA 021410Z AUTO 23002KT 10SM CLR 04/M05 A2998 RMK T00401050 MADISHF
LGA,2020-01-02 14:15,-73.8803,40.7794,M,M,M,220.00,2.00,M,29.99,M,10.00,M,CLR,M,M,M,M,M,M,M,M,M,M,M,M,M,M,M,KLGA 021415Z AUTO 22002KT 10SM CLR 04/M05 A2998 RMK T00401050 MADISHF
LGA,2020-01-02 14:20,-73.8803,40.7794,M,M,M,210.00,4.00,M,29.99,M,10.00,M,CLR,M,M,M,M,M,M,M,M,M,M,M,M,M,M,M,KLGA 021420Z AUTO 21004KT 10SM CLR 04/M06 A2998 RMK T00401060 MADISHF
LGA,2020-01-02 14:25,-73.8803,40.7794,M,M,M,210.00,4.00,M,29.99,M,10.00,M,CLR,M,M,M,M,M,M,M,M,M,M,M,M,M,M,M,KLGA 021425Z AUTO 21004KT 10SM CLR 04/M05 A2998 RMK T00401050 MADISHF
LGA,2020-01-02 14:30,-73.8803,40.7794,M,M,M,200.00,5.00,M,29.99,M,10.00,M,CLR,M,M,M,M,M,M,M,M,M,M,M,M,M,M,M,KLGA 021430Z AUTO 20005KT 10SM CLR 04/M06 A2998 RMK T00401060 MADISHF
LGA,2020-01-02 14:35,-73.8803,40.7794,M,M,M,190.00,5.00,M,29.99,M,10.00,M,CLR,M,M,M,M,M,M,M,M,M,M,M,M,M,M,M,KLGA 021435Z AUTO 19005KT 10SM CLR 05/M06 A2998 RMK T00501060 MADISHF
LGA,2020-01-02 14:40,-73.8803,40.7794,M,M,M,210.00,7.00,M,29.99,M,10.00,M,CLR,M,M,M,M,M,M,M,M,M,M,M,M,M,M,M,KLGA 021440Z AUTO 21007KT 10SM CLR 05/M06 A2998 RMK T00501060 MADISHF
LGA,2020-01-02 14:45,-73.8803,40.7794,M,M,M,200.00,7.00,M,29.99,M,10.00,M,CLR,M,M,M,M,M,M,M,M,M,M,M,M,M,M,M,KLGA 021445Z AUTO 20007KT 10SM CLR 05/M06 A2998 RMK T00501060 MADISHF
LGA,2020-01-02 14:50,-73.8803,40.7794,M,M,M,200.00,9.00,M,29.99,M,10.00,M,CLR,M,M,M,M,M,M,M,M,M,M,M,M,M,M,M,KLGA 021450Z AUTO 20009KT 10SM CLR 06/M06 A2998 RMK T00601060 MADISHF
LGA,2020-01-02 14:51,-73.8803,40.7794,42.10,23.00,46.37,200.00,9.00,0.00,29.99,1015.70,10.00,M,FEW,SCT,M,M,15000.00,25000.00,M,M,M,M,M,M,M,M,M,36.07,KLGA 021451Z 20009KT 10SM FEW150 SCT250 06/M05 A2999 RMK AO2 SLP157 T00561050 53006
LGA,2020-01-02 14:55,-73.8803,40.7794,M,M,M,190.00,8.00,M,29.99,M,10.00,M,CLR,M,M,M,M,M,M,M,M,M,M,M,M,M,M,M,KLGA 021455Z AUTO 19008KT 10SM CLR 06/M05 A2998 RMK T00601050 MADISHF
LGA,2020-01-02 15:00,-73.8803,40.7794,M,M,M,200.00,7.00,M,29.99,M,10.00,M,CLR,M,M,M,M,M,M,M,M,M,M,M,M,M,M,M,KLGA 021500Z AUTO 20007KT 10SM CLR 06/M05 A2998 RMK T00601050 MADISHF
LGA,2020-01-02 15:05,-73.8803,40.7794,M,M,M,210.00,8.00,M,29.99,M,10.00,M,CLR,M,M,M,M,M,M,M,M,M,M,M,M,M,M,M,KLGA 021505Z AUTO 21008KT 10SM CLR 06/M06 A2998 RMK T00601060 MADISHF
LGA,2020-01-02 15:10,-73.8803,40.7794,M,M,M,220.00,5.00,M,29.98,M,10.00,M,CLR,M,M,M,M,M,M,M,M,M,M,M,M,M,M,M,KLGA 021510Z AUTO 22005KT 10SM CLR 06/M05 A2997 RMK T00601050 MADISHF
LGA,2020-01-02 15:15,-73.8803,40.7794,M,M,M,230.00,7.00,M,29.98,M,10.00,M,CLR,M,M,M,M,M,M,M,M,M,M,M,M,M,M,M,KLGA 021515Z AUTO 23007KT 10SM CLR 06/M05 A2997 RMK T00601050 MADISHF
LGA,2020-01-02 15:20,-73.8803,40.7794,M,M,M,230.00,10.00,M,29.98,M,10.00,M,M,M,M,M,M,M,M,M,M,M,M,M,M,M,M,M,KLGA 021520Z AUTO 23010KT 10SM 06/M05 A2997 RMK T00601050 MADISHF
LGA,2020-01-02 15:25,-73.8803,40.7794,M,M,M,220.00,8.00,M,29.98,M,10.00,M,M,M,M,M,M,M,M,M,M,M,M,M,M,M,M,M,KLGA 021525Z AUTO 22008KT 10SM 06/M05 A2997 RMK T00601050 MADISHF
LGA,2020-01-02 15:30,-73.8803,40.7794,M,M,M,210.00,10.00,M,29.98,M,10.00,M,M,M,M,M,M,M,M,M,M,M,M,M,M,M,M,M,KLGA 021530Z AUTO 21010KT 10SM 06/M05 A2997 RMK T00601050 MADISHF
LGA,2020-01-02 15:35,-73.8803,40.7794,M,M,M,220.00,11.00,M,29.98,M,10.00,M,M,M,M,M,M,M,M,M,M,M,M,M,M,M,M,M,KLGA 021535Z AUTO 22011KT 10SM 06/M05 A2997 RMK T00601050 MADISHF
LGA,2020-01-02 15:40,-73.8803,40.7794,M,M,M,220.00,10.00,M,29.97,M,10.00,M,M,M,M,M,M,M,M,M,M,M,M,M,M,M,M,M,KLGA 021540Z AUTO 22010KT 10SM 06/M05 A2996 RMK T00601050 MADISHF
LGA,2020-01-02 15:45,-73.8803,40.7794,M,M,M,220.00,10.00,M,29.97,M,10.00,M,M,M,M,M,M,M,M,M,M,M,M,M,M,M,M,M,KLGA 021545Z AUTO 22010KT 10SM 06/M05 A2996 RMK T00601050 MADISHF
LGA,2020-01-02 15:50,-73.8803,40.7794,M,M,M,230.00,9.00,M,29.97,M,10.00,M,M,M,M,M,M,M,M,M,M,M,M,M,M,M,M,M,KLGA 021550Z AUTO 23009KT 10SM 06/M05 A2996 RMK T00601050 MADISHF
LGA,2020-01-02 15:51,-73.8803,40.7794,43.00,23.00,44.80,230.00,8.00,0.00,29.97,1014.80,10.00,M,FEW,FEW,M,M,15000.00,25000.00,M,M,M,M,M,M,M,M,M,37.66,KLGA 021551Z 23008KT 10SM FEW150 FEW250 06/M05 A2997 RMK AO2 SLP148 T00611050
LGA,2020-01-02 15:55,-73.8803,40.7794,M,M,M,230.00,10.00,M,29.97,M,10.00,M,CLR,M,M,M,M,M,M,M,M,M,M,M,M,M,M,M,KLGA 021555Z AUTO 23010KT 10SM CLR 07/M04 A2996 RMK T00701040 MADISHF
LGA,2020-01-02 16:00,-73.8803,40.7794,M,M,M,230.00,11.00,M,29.97,M,10.00,M,CLR,M,M,M,M,M,M,M,M,M,M,M,M,M,M,M,KLGA 021600Z AUTO 23011KT 10SM CLR 07/M05 A2996 RMK T00701050 MADISHF
LGA,2020-01-02 16:05,-73.8803,40.7794,M,M,M,240.00,11.00,M,29.97,M,10.00,M,CLR,M,M,M,M,M,M,M,M,M,M,M,M,M,M,M,KLGA 021605Z AUTO 24011KT 10SM CLR 06/M05 A2996 RMK T00601050 MADISHF
LGA,2020-01-02 16:10,-73.8803,40.7794,M,M,M,240.00,9.00,M,29.97,M,10.00,M,CLR,M,M,M,M,M,M,M,M,M,M,M,M,M,M,M,KLGA 021610Z AUTO 24009KT 10SM CLR 06/M05 A2996 RMK T00601050 MADISHF
LGA,2020-01-02 16:15,-73.8803,40.7794,M,M,M,230.00,10.00,M,29.97,M,10.00,M,CLR,M,M,M,M,M,M,M,M,M,M,M,M,M,M,M,KLGA 021615Z AUTO 23010KT 10SM CLR 07/M05 A2996 RMK T00701050 MADISHF
LGA,2020-01-02 16:20,-73.8803,40.7794,M,M,M,220.00,11.00,M,29.97,M,10.00,M,CLR,M,M,M,M,M,M,M,M,M,M,M,M,M,M,M,KLGA 021620Z AUTO 22011KT 10SM CLR 07/M05 A2996 RMK T00701050 MADISHF
LGA,2020-01-02 16:25,-73.8803,40.7794,M,M,M,230.00,11.00,M,29.96,M,10.00,M,CLR,M,M,M,M,M,M,M,M,M,M,M,M,M,M,M,KLGA 021625Z AUTO 23011KT 10SM CLR 07/M05 A2995 RMK T00701050 MADISHF
LGA,2020-01-02 16:30,-73.8803,40.7794,M,M,M,220.00,11.00,M,29.96,M,10.00,M,CLR,M,M,M,M,M,M,M,M,M,M,M,M,M,M,M,KLGA 021630Z AUTO 22011KT 10SM CLR 07/M05 A2995 RMK T00701050 MADISHF
LGA,2020-01-02 16:35,-73.8803,40.7794,M,M,M,230.00,10.00,M,29.96,M,10.00,M,CLR,M,M,M,M,M,M,M,M,M,M,M,M,M,M,M,KLGA 021635Z AUTO 23010KT 10SM CLR 07/M05 A2995 RMK T00701050 MADISHF
LGA,2020-01-02 16:40,-73.8803,40.7794,M,M,M,230.00,10.00,M,29.96,M,10.00,M,CLR,M,M,M,M,M,M,M,M,M,M,M,M,M,M,M,KLGA 021640Z AUTO 23010KT 10SM CLR 07/M05 A2995 RMK T00701050 MADISHF
LGA,2020-01-02 16:45,-73.8803,40.7794,M,M,M,230.00,10.00,M,29.95,M,10.00,M,CLR,M,M,M,M,M,M,M,M,M,M,M,M,M,M,M,KLGA 021645Z AUTO 23010KT 10SM CLR 07/M05 A2995 RMK T00701050 MADISHF
LGA,2020-01-02 16:50,-73.8803,40.7794,M,M,M,230.00,10.00,M,29.95,M,10.00,M,M,M,M,M,M,M,M,M,M,M,M,M,M,M,M,M,KLGA 021650Z AUTO 23010KT 10SM 07/M05 A2995 RMK T00701050 MADISHF
LGA,2020-01-02 16:51,-73.8803,40.7794,45.00,23.00,41.50,240.00,10.00,0.00,29.95,1014.10,10.00,M,FEW,FEW,M,M,15000.00,25000.00,M,M,M,M,M,M,M,M,M,39.27,KLGA 021651Z 24010KT 10SM FEW150 FEW250 07/M05 A2995 RMK AO2 SLP141 T00721050
LGA,2020-01-02 16:55,-73.8803,40.7794,M,M,M,230.00,8.00,M,29.95,M,10.00,M,CLR,M,M,M,M,M,M,M,M,M,M,M,M,M,M,M,KLGA 021655Z AUTO 23008KT 10SM CLR 07/M05 A2995 RMK T00701050 MADISHF
LGA,2020-01-02 17:00,-73.8803,40.7794,M,M,M,220.00,9.00,M,29.95,M,10.00,M,CLR,M,M,M,M,M,M,M,M,M,M,M,M,M,M,M,KLGA 021700Z AUTO 22009KT 10SM CLR 07/M05 A2995 RMK T00701050 MADISHF
LGA,2020-01-02 17:05,-73.8803,40.7794,M,M,M,220.00,10.00,M,29.94,M,10.00,M,M,M,M,M,M,M,M,M,M,M,M,M,M,M,M,M,KLGA 021705Z AUTO 22010KT 10SM 07/M05 A2994 RMK T00701050 MADISHF
LGA,2020-01-02 17:10,-73.8803,40.7794,M,M,M,230.00,9.00,M,29.94,M,10.00,M,M,M,M,M,M,M,M,M,M,M,M,M,M,M,M,M,KLGA 021710Z AUTO 23009KT 10SM 08/M05 A2994 RMK T00801050 MADISHF
LGA,2020-01-02 17:15,-73.8803,40.7794,M,M,M,210.00,9.00,M,29.94,M,10.00,M,M,M,M,M,M,M,M,M,M,M,M,M,M,M,M,M,KLGA 021715Z AUTO 21009KT 10SM 08/M05 A2994 RMK T00801050 MADISHF
LGA,2020-01-02 17:20,-73.8803,40.7794,M,M,M,220.00,9.00,M,29.94,M,10.00,M,M,M,M,M,M,M,M,M,M,M,M,M,M,M,M,M,KLGA 021720Z AUTO 22009KT 10SM 08/M05 A2994 RMK T00801050 MADISHF
LGA,2020-01-02 17:25,-73.8803,40.7794,M,M,M,230.00,10.00,M,29.93,M,10.00,M,M,M,M,M,M,M,M,M,M,M,M,M,M,M,M,M,KLGA 021725Z AUTO 23010KT 10SM 08/M05 A2993 RMK T00801050 MADISHF
LGA,2020-01-02 17:30,-73.8803,40.7794,M,M,M,240.00,13.00,M,29.94,M,10.00,M,M,M,M,M,M,M,M,M,M,M,M,M,M,M,M,M,KLGA 021730Z AUTO 24013KT 10SM 08/M05 A2994 RMK T00801050 MADISHF
LGA,2020-01-02 17:35,-73.8803,40.7794,M,M,M,220.00,14.00,M,29.93,M,10.00,M,M,M,M,M,M,M,M,M,M,M,M,M,M,M,M,M,KLGA 021735Z AUTO 22014KT 10SM 08/M06 A2993 RMK T00801060 MADISHF
LGA,2020-01-02 17:40,-73.8803,40.7794,M,M,M,220.00,11.00,M,29.93,M,10.00,M,M,M,M,M,M,M,M,M,M,M,M,M,M,M,M,M,KLGA 021740Z AUTO 22011KT 10SM 08/M06 A2993 RMK T00801060 MADISHF
LGA,2020-01-02 17:45,-73.8803,40.7794,M,M,M,210.00,11.00,M,29.93,M,10.00,M,M,M,M,M,M,M,M,M,M,M,M,M,M,M,M,M,KLGA 021745Z AUTO 21011KT 10SM 08/M06 A2993 RMK T00801060 MADISHF
LGA,2020-01-02 17:50,-73.8803,40.7794,M,M,M,230.00,11.00,M,29.92,M,10.00,M,M,M,M,M,M,M,M,M,M,M,M,M,M,M,M,M,KLGA 021750Z AUTO 23011KT 10SM 08/M05 A2992 RMK T00801050 MADISHF
LGA,2020-01-02 17:51,-73.8803,40.7794,46.00,23.00,39.96,230.00,10.00,0.00,29.92,1013.20,10.00,16.00,FEW,BKN,M,M,15000.00,25000.00,M,M,M,M,M,M,M,M,M,40.52,KLGA 021751Z 23010G16KT 10SM FEW150 BKN250 08/M05 A2992 RMK AO2 SLP132 T00781050 10083 20011 58024
LGA,2020-01-02 17:55,-73.8803,40.7794,M,M,M,230.00,10.00,M,29.92,M,10.00,M,CLR,M,M,M,M,M,M,M,M,M,M,M,M,M,M,M,KLGA 021755Z AUTO 23010KT 10SM CLR 08/M05 A2992 RMK T00801050 MADISHF
LGA,2020-01-02 18:00,-73.8803,40.7794,M,M,M,220.00,8.00,M,29.92,M,10.00,M,CLR,M,M,M,M,M,M,M,M,M,M,M,M,M,M,M,KLGA 021800Z AUTO 22008KT 10SM CLR 08/M05 A2992 RMK T00801050 MADISHF
LGA,2020-01-02 18:05,-73.8803,40.7794,M,M,M,220.00,7.00,M,29.92,M,10.00,M,CLR,M,M,M,M,M,M,M,M,M,M,M,M,M,M,M,KLGA 021805Z AUTO 22007KT 10SM CLR 08/M05 A2992 RMK T00801050 MADISHF
LGA,2020-01-02 18:10,-73.8803,40.7794,M,M,M,200.00,7.00,M,29.91,M,10.00,M,CLR,M,M,M,M,M,M,M,M,M,M,M,M,M,M,M,KLGA 021810Z AUTO 20007KT 10SM CLR 08/M05 A2990 RMK T00801050 MADISHF
LGA,2020-01-02 18:15,-73.8803,40.7794,M,M,M,220.00,7.00,M,29.91,M,10.00,M,CLR,M,M,M,M,M,M,M,M,M,M,M,M,M,M,M,KLGA 021815Z AUTO 22007KT 10SM CLR 08/M05 A2990 RMK T00801050 MADISHF
LGA,2020-01-02 18:20,-73.8803,40.7794,M,M,M,220.00,5.00,M,29.91,M,10.00,M,CLR,M,M,M,M,M,M,M,M,M,M,M,M,M,M,M,KLGA 021820Z AUTO 22005KT 10SM CLR 09/M05 A2990 RMK T00901050 MADISHF
LGA,2020-01-02 18:25,-73.8803,40.7794,M,M,M,230.00,5.00,M,29.91,M,10.00,M,CLR,M,M,M,M,M,M,M,M,M,M,M,M,M,M,M,KLGA 021825Z AUTO 23005KT 10SM CLR 09/M05 A2990 RMK T00901050 MADISHF
LGA,2020-01-02 18:30,-73.8803,40.7794,M,M,M,210.00,8.00,M,29.91,M,10.00,M,CLR,M,M,M,M,M,M,M,M,M,M,M,M,M,M,M,KLGA 021830Z AUTO 21008KT 10SM CLR 09/M05 A2990 RMK T00901050 MADISHF
LGA,2020-01-02 18:35,-73.8803,40.7794,M,M,M,220.00,7.00,M,29.91,M,10.00,M,CLR,M,M,M,M,M,M,M,M,M,M,M,M,M,M,M,KLGA 021835Z AUTO 22007KT 10SM CLR 09/M05 A2990 RMK T00901050 MADISHF
LGA,2020-01-02 18:40,-73.8803,40.7794,M,M,M,230.00,9.00,M,29.91,M,10.00,M,CLR,M,M,M,M,M,M,M,M,M,M,M,M,M,M,M,KLGA 021840Z AUTO 23009KT 10SM CLR 09/M05 A2990 RMK T00901050 MADISHF
LGA,2020-01-02 18:45,-73.8803,40.7794,M,M,M,230.00,9.00,M,29.92,M,10.00,M,M,M,M,M,M,M,M,M,M,M,M,M,M,M,M,M,KLGA 021845Z AUTO 23009KT 10SM 09/M05 A2992 RMK T00901050 MADISHF
LGA,2020-01-02 18:50,-73.8803,40.7794,M,M,M,220.00,9.00,M,29.92,M,10.00,M,M,M,M,M,M,M,M,M,M,M,M,M,M,M,M,M,KLGA 021850Z AUTO 22009KT 10SM 09/M05 A2992 RMK T00901050 MADISHF
LGA,2020-01-02 18:51,-73.8803,40.7794,48.00,23.00,37.06,220.00,10.00,0.00,29.92,1013.00,10.00,M,FEW,BKN,M,M,15000.00,25000.00,M,M,M,M,M,M,M,M,M,43.03,KLGA 021851Z 22010KT 10SM FEW150 BKN250 09/M05 A2992 RMK AO2 SLP130 T00891050
LGA,2020-01-02 18:55,-73.8803,40.7794,M,M,M,230.00,5.00,M,29.91,M,10.00,M,CLR,M,M,M,M,M,M,M,M,M,M,M,M,M,M,M,KLGA 021855Z AUTO 23005KT 10SM CLR 09/M05 A2990 RMK T00901050 MADISHF
LGA,2020-01-02 19:00,-73.8803,40.7794,M,M,M,220.00,9.00,M,29.91,M,10.00,M,CLR,M,M,M,M,M,M,M,M,M,M,M,M,M,M,M,KLGA 021900Z AUTO 22009KT 10SM CLR 09/M05 A2990 RMK T00901050 MADISHF
LGA,2020-01-02 19:05,-73.8803,40.7794,M,M,M,230.00,8.00,M,29.91,M,10.00,M,CLR,M,M,M,M,M,M,M,M,M,M,M,M,M,M,M,KLGA 021905Z AUTO 23008KT 10SM CLR 09/M05 A2990 RMK T00901050 MADISHF
LGA,2020-01-02 19:10,-73.8803,40.7794,M,M,M,210.00,9.00,M,29.91,M,10.00,M,CLR,M,M,M,M,M,M,M,M,M,M,M,M,M,M,M,KLGA 021910Z AUTO 21009KT 10SM CLR 09/M05 A2990 RMK T00901050 MADISHF
LGA,2020-01-02 19:15,-73.8803,40.7794,M,M,M,210.00,10.00,M,29.91,M,10.00,M,CLR,M,M,M,M,M,M,M,M,M,M,M,M,M,M,M,KLGA 021915Z AUTO 21010KT 10SM CLR 09/M06 A2990 RMK T00901060 MADISHF
LGA,2020-01-02 19:20,-73.8803,40.7794,M,M,M,200.00,11.00,M,29.91,M,10.00,M,CLR,M,M,M,M,M,M,M,M,M,M,M,M,M,M,M,KLGA 021920Z AUTO 20011KT 10SM CLR 09/M06 A2990 RMK T00901060 MADISHF
LGA,2020-01-02 19:25,-73.8803,40.7794,M,M,M,200.00,10.00,M,29.91,M,10.00,M,CLR,M,M,M,M,M,M,M,M,M,M,M,M,M,M,M,KLGA 021925Z AUTO 20010KT 10SM CLR 09/M06 A2990 RMK T00901060 MADISHF
LGA,2020-01-02 19:30,-73.8803,40.7794,M,M,M,200.00,11.00,M,29.91,M,10.00,M,CLR,M,M,M,M,M,M,M,M,M,M,M,M,M,M,M,KLGA 021930Z AUTO 20011KT 10SM CLR 09/M06 A2990 RMK T00901060 MADISHF
LGA,2020-01-02 19:35,-73.8803,40.7794,M,M,M,210.00,10.00,M,29.91,M,10.00,M,CLR,M,M,M,M,M,M,M,M,M,M,M,M,M,M,M,KLGA 021935Z AUTO 21010KT 10SM CLR 09/M06 A2990 RMK T00901060 MADISHF
LGA,2020-01-02 19:40,-73.8803,40.7794,M,M,M,200.00,11.00,M,29.91,M,10.00,M,CLR,M,M,M,M,M,M,M,M,M,M,M,M,M,M,M,KLGA 021940Z AUTO 20011KT 10SM CLR 09/M05 A2990 RMK T00901050 MADISHF
LGA,2020-01-02 19:45,-73.8803,40.7794,M,M,M,200.00,10.00,M,29.91,M,10.00,M,CLR,M,M,M,M,M,M,M,M,M,M,M,M,M,M,M,KLGA 021945Z AUTO 20010KT 10SM CLR 09/M05 A2990 RMK T00901050 MADISHF
LGA,2020-01-02 19:50,-73.8803,40.7794,M,M,M,200.00,10.00,M,29.91,M,10.00,M,M,M,M,M,M,M,M,M,M,M,M,M,M,M,M,M,KLGA 021950Z AUTO 20010KT 10SM 09/M05 A2990 RMK T00901050 MADISHF
LGA,2020-01-02 19:51,-73.8803,40.7794,48.90,23.00,35.83,200.00,10.00,0.00,29.91,1012.60,10.00,M,BKN,M,M,M,25000.00,M,M,M,M,M,M,M,M,M,M,44.16,KLGA 021951Z 20010KT 10SM BKN250 09/M05 A2991 RMK AO2 SLP126 T00941050
LGA,2020-01-02 19:55,-73.8803,40.7794,M,M,M,180.00,8.00,M,29.90,M,10.00,M,CLR,M,M,M,M,M,M,M,M,M,M,M,M,M,M,M,KLGA 021955Z AUTO 18008KT 10SM CLR 09/M04 A2989 RMK T00901040 MADISHF
LGA,2020-01-02 20:00,-73.8803,40.7794,M,M,M,180.00,8.00,M,29.90,M,10.00,M,CLR,M,M,M,M,M,M,M,M,M,M,M,M,M,M,M,KLGA 022000Z AUTO 18008KT 10SM CLR 09/M03 A2989 RMK T00901030 MADISHF
LGA,2020-01-02 20:05,-73.8803,40.7794,M,M,M,170.00,8.00,M,29.90,M,10.00,M,CLR,M,M,M,M,M,M,M,M,M,M,M,M,M,M,M,KLGA 022005Z AUTO 17008KT 10SM CLR 09/M03 A2989 RMK T00901030 MADISHF
LGA,2020-01-02 20:10,-73.8803,40.7794,M,M,M,170.00,9.00,M,29.90,M,10.00,M,CLR,M,M,M,M,M,M,M,M,M,M,M,M,M,M,M,KLGA 022010Z AUTO 17009KT 10SM CLR 09/M03 A2989 RMK T00901030 MADISHF
LGA,2020-01-02 20:15,-73.8803,40.7794,M,M,M,170.00,8.00,M,29.90,M,10.00,M,CLR,M,M,M,M,M,M,M,M,M,M,M,M,M,M,M,KLGA 022015Z AUTO 17008KT 10SM CLR 09/M03 A2989 RMK T00901030 MADISHF
LGA,2020-01-02 20:20,-73.8803,40.7794,M,M,M,170.00,8.00,M,29.90,M,10.00,M,CLR,M,M,M,M,M,M,M,M,M,M,M,M,M,M,M,KLGA 022020Z AUTO 17008KT 10SM CLR 09/M03 A2989 RMK T00901030 MADISHF
LGA,2020-01-02 20:25,-73.8803,40.7794,M,M,M,170.00,8.00,M,29.89,M,10.00,M,CLR,M,M,M,M,M,M,M,M,M,M,M,M,M,M,M,KLGA 022025Z AUTO 17008KT 10SM CLR 09/M03 A2988 RMK T00901030 MADISHF
LGA,2020-01-02 20:30,-73.8803,40.7794,M,M,M,170.00,8.00,M,29.90,M,10.00,M,CLR,M,M,M,M,M,M,M,M,M,M,M,M,M,M,M,KLGA 022030Z AUTO 17008KT 10SM CLR 09/M03 A2989 RMK T00901030 MADISHF
LGA,2020-01-02 20:35,-73.8803,40.7794,M,M,M,170.00,7.00,M,29.90,M,10.00,M,CLR,M,M,M,M,M,M,M,M,M,M,M,M,M,M,M,KLGA 022035Z AUTO 17007KT 10SM CLR 09/M02 A2989 RMK T00901020 MADISHF
LGA,2020-01-02 20:40,-73.8803,40.7794,M,M,M,170.00,7.00,M,29.89,M,10.00,M,CLR,M,M,M,M,M,M,M,M,M,M,M,M,M,M,M,KLGA 022040Z AUTO 17007KT 10SM CLR 09/M02 A2988 RMK T00901020 MADISHF
LGA,2020-01-02 20:45,-73.8803,40.7794,M,M,M,180.00,7.00,M,29.89,M,10.00,M,CLR,M,M,M,M,M,M,M,M,M,M,M,M,M,M,M,KLGA 022045Z AUTO 18007KT 10SM CLR 09/M02 A2988 RMK T00901020 MADISHF
LGA,2020-01-02 20:50,-73.8803,40.7794,M,M,M,170.00,5.00,M,29.89,M,10.00,M,M,M,M,M,M,M,M,M,M,M,M,M,M,M,M,M,KLGA 022050Z AUTO 17005KT 10SM 09/M02 A2988 RMK T00901020 MADISHF
LGA,2020-01-02 20:51,-73.8803,40.7794,48.00,28.00,45.61,170.00,6.00,0.00,29.89,1012.30,10.00,M,OVC,M,M,M,25000.00,M,M,M,M,M,M,M,M,M,M,44.80,KLGA 022051Z 17006KT 10SM OVC250 09/M02 A2989 RMK AO2 SLP123 T00891022 58010
LGA,2020-01-02 20:55,-73.8803,40.7794,M,M,M,170.00,7.00,M,29.89,M,10.00,M,M,M,M,M,M,M,M,M,M,M,M,M,M,M,M,M,KLGA 022055Z AUTO 17007KT 10SM 09/M02 A2988 RMK T00901020 MADISHF
LGA,2020-01-02 21:00,-73.8803,40.7794,M,M,M,170.00,7.00,M,29.89,M,10.00,M,M,M,M,M,M,M,M,M,M,M,M,M,M,M,M,M,KLGA 022100Z AUTO 17007KT 10SM 09/M02 A2988 RMK T00901020 MADISHF
LGA,2020-01-02 21:05,-73.8803,40.7794,M,M,M,170.00,7.00,M,29.89,M,10.00,M,M,M,M,M,M,M,M,M,M,M,M,M,M,M,M,M,KLGA 022105Z AUTO 17007KT 10SM 09/M02 A2988 RMK T00901020 MADISHF
LGA,2020-01-02 21:10,-73.8803,40.7794,M,M,M,160.00,7.00,M,29.89,M,10.00,M,M,M,M,M,M,M,M,M,M,M,M,M,M,M,M,M,KLGA 022110Z AUTO 16007KT 10SM 09/M02 A2988 RMK T00901020 MADISHF
LGA,2020-01-02 21:15,-73.8803,40.7794,M,M,M,160.00,8.00,M,29.89,M,10.00,M,M,M,M,M,M,M,M,M,M,M,M,M,M,M,M,M,KLGA 022115Z AUTO 16008KT 10SM 09/M01 A2988 RMK T00901010 MADISHF
LGA,2020-01-02 21:20,-73.8803,40.7794,M,M,M,170.00,5.00,M,29.89,M,10.00,M,M,M,M,M,M,M,M,M,M,M,M,M,M,M,M,M,KLGA 022120Z AUTO 17005KT 10SM 08/M01 A2988 RMK T00801010 MADISHF
LGA,2020-01-02 21:25,-73.8803,40.7794,M,M,M,180.00,5.00,M,29.89,M,10.00,M,M,M,M,M,M,M,M,M,M,M,M,M,M,M,M,M,KLGA 022125Z AUTO 18005KT 10SM 09/M01 A2988 RMK T00901010 MADISHF
LGA,2020-01-02 21:30,-73.8803,40.7794,M,M,M,160.00,7.00,M,29.88,M,10.00,M,M,M,M,M,M,M,M,M,M,M,M,M,M,M,M,M,KLGA 022130Z AUTO 16007KT 10SM 08/M01 A2987 RMK T00801010 MADISHF
LGA,2020-01-02 21:35,-73.8803,40.7794,M,M,M,160.00,7.00,M,29.88,M,10.00,M,M,M,M,M,M,M,M,M,M,M,M,M,M,M,M,M,KLGA 022135Z AUTO 16007KT 10SM 08/M01 A2987 RMK T00801010 MADISHF
LGA,2020-01-02 21:40,-73.8803,40.7794,M,M,M,160.00,7.00,M,29.89,M,10.00,M,M,M,M,M,M,M,M,M,M,M,M,M,M,M,M,M,KLGA 022140Z AUTO 16007KT 10SM 08/00 A2988 RMK T00800000 MADISHF
LGA,2020-01-02 21:45,-73.8803,40.7794,M,M,M,180.00,5.00,M,29.88,M,10.00,M,M,M,M,M,M,M,M,M,M,M,M,M,M,M,M,M,KLGA 022145Z AUTO 18005KT 10SM 08/00 A2987 RMK T00800000 MADISHF
LGA,2020-01-02 21:50,-73.8803,40.7794,M,M,M,180.00,5.00,M,29.88,M,10.00,M,M,M,M,M,M,M,M,M,M,M,M,M,M,M,M,M,KLGA 022150Z AUTO 18005KT 10SM 08/00 A2987 RMK T00800000 MADISHF
LGA,2020-01-02 21:51,-73.8803,40.7794,46.90,32.00,55.94,180.00,5.00,0.00,29.89,1012.00,10.00,M,BKN,M,M,M,24000.00,M,M,M,M,M,M,M,M,M,M,44.09,KLGA 022151Z 18005KT 10SM BKN240 08/00 A2989 RMK AO2 SLP120 T00830000
LGA,2020-01-02 21:55,-73.8803,40.7794,M,M,M,190.00,5.00,M,29.89,M,10.00,M,M,M,M,M,M,M,M,M,M,M,M,M,M,M,M,M,KLGA 022155Z AUTO 19005KT 10SM 08/00 A2988 RMK T00800000 MADISHF
LGA,2020-01-02 22:00,-73.8803,40.7794,M,M,M,190.00,5.00,M,29.89,M,10.00,M,M,M,M,M,M,M,M,M,M,M,M,M,M,M,M,M,KLGA 022200Z AUTO 19005KT 10SM 09/M01 A2988 RMK T00901010 MADISHF
LGA,2020-01-02 22:05,-73.8803,40.7794,M,M,M,210.00,8.00,M,29.89,M,10.00,M,M,M,M,M,M,M,M,M,M,M,M,M,M,M,M,M,KLGA 022205Z AUTO 21008KT 10SM 09/M02 A2988 RMK T00901020 MADISHF
LGA,2020-01-02 22:10,-73.8803,40.7794,M,M,M,210.00,8.00,M,29.89,M,10.00,M,M,M,M,M,M,M,M,M,M,M,M,M,M,M,M,M,KLGA 022210Z AUTO 21008KT 10SM 09/M02 A2988 RMK T00901020 MADISHF
LGA,2020-01-02 22:15,-73.8803,40.7794,M,M,M,200.00,8.00,M,29.89,M,10.00,M,M,M,M,M,M,M,M,M,M,M,M,M,M,M,M,M,KLGA 022215Z AUTO 20008KT 10SM 09/M02 A2988 RMK T00901020 MADISHF
LGA,2020-01-02 22:20,-73.8803,40.7794,M,M,M,200.00,10.00,M,29.89,M,10.00,M,M,M,M,M,M,M,M,M,M,M,M,M,M,M,M,M,KLGA 022220Z AUTO 20010KT 10SM 09/M02 A2988 RMK T00901020 MADISHF
LGA,2020-01-02 22:25,-73.8803,40.7794,M,M,M,210.00,10.00,M,29.89,M,10.00,M,M,M,M,M,M,M,M,M,M,M,M,M,M,M,M,M,KLGA 022225Z AUTO 21010KT 10SM 09/M02 A2988 RMK T00901020 MADISHF
LGA,2020-01-02 22:30,-73.8803,40.7794,M,M,M,210.00,8.00,M,29.88,M,10.00,M,M,M,M,M,M,M,M,M,M,M,M,M,M,M,M,M,KLGA 022230Z AUTO 21008KT 10SM 09/M02 A2987 RMK T00901020 MADISHF
LGA,2020-01-02 22:35,-73.8803,40.7794,M,M,M,200.00,8.00,M,29.88,M,10.00,M,M,M,M,M,M,M,M,M,M,M,M,M,M,M,M,M,KLGA 022235Z AUTO 20008KT 10SM 09/M02 A2987 RMK T00901020 MADISHF
LGA,2020-01-02 22:40,-73.8803,40.7794,M,M,M,200.00,9.00,M,29.88,M,10.00,M,M,M,M,M,M,M,M,M,M,M,M,M,M,M,M,M,KLGA 022240Z AUTO 20009KT 10SM 09/M02 A2987 RMK T00901020 MADISHF
LGA,2020-01-02 22:45,-73.8803,40.7794,M,M,M,200.00,9.00,M,29.88,M,10.00,M,M,M,M,M,M,M,M,M,M,M,M,M,M,M,M,M,KLGA 022245Z AUTO 20009KT 10SM 09/M02 A2987 RMK T00901020 MADISHF
LGA,2020-01-02 22:50,-73.8803,40.7794,M,M,M,210.00,8.00,M,29.88,M,10.00,M,M,M,M,M,M,M,M,M,M,M,M,M,M,M,M,M,KLGA 022250Z AUTO 21008KT 10SM 09/M02 A2987 RMK T00901020 MADISHF
LGA,2020-01-02 22:51,-73.8803,40.7794,48.00,28.90,47.32,210.00,8.00,0.00,29.89,1012.00,10.00,M,FEW,BKN,M,M,18000.00,25000.00,M,M,M,M,M,M,M,M,M,43.82,KLGA 022251Z 21008KT 10SM FEW180 BKN250 09/M02 A2989 RMK AO2 SLP120 T00891017
LGA,2020-01-02 22:55,-73.8803,40.7794,M,M,M,200.00,7.00,M,29.89,M,10.00,M,M,M,M,M,M,M,M,M,M,M,M,M,M,M,M,M,KLGA 022255Z AUTO 20007KT 10SM 09/M02 A2988 RMK T00901020 MADISHF
LGA,2020-01-02 23:00,-73.8803,40.7794,M,M,M,190.00,7.00,M,29.89,M,10.00,M,M,M,M,M,M,M,M,M,M,M,M,M,M,M,M,M,KLGA 022300Z AUTO 19007KT 10SM 08/M02 A2988 RMK T00801020 MADISHF
LGA,2020-01-02 23:05,-73.8803,40.7794,M,M,M,200.00,8.00,M,29.89,M,10.00,M,M,M,M,M,M,M,M,M,M,M,M,M,M,M,M,M,KLGA 022305Z AUTO 20008KT 10SM 08/M01 A2988 RMK T00801010 MADISHF
LGA,2020-01-02 23:10,-73.8803,40.7794,M,M,M,190.00,8.00,M,29.88,M,10.00,M,M,M,M,M,M,M,M,M,M,M,M,M,M,M,M,M,KLGA 022310Z AUTO 19008KT 10SM 08/M01 A2987 RMK T00801010 MADISHF
LGA,2020-01-02 23:15,-73.8803,40.7794,M,M,M,190.00,7.00,M,29.89,M,10.00,M,M,M,M,M,M,M,M,M,M,M,M,M,M,M,M,M,KLGA 022315Z AUTO 19007KT 10SM 08/00 A2988 RMK T00800000 MADISHF
LGA,2020-01-02 23:20,-73.8803,40.7794,M,M,M,190.00,7.00,M,29.88,M,10.00,M,M,M,M,M,M,M,M,M,M,M,M,M,M,M,M,M,KLGA 022320Z AUTO 19007KT 10SM 08/00 A2987 RMK T00800000 MADISHF
LGA,2020-01-02 23:25,-73.8803,40.7794,M,M,M,190.00,8.00,M,29.88,M,10.00,M,M,M,M,M,M,M,M,M,M,M,M,M,M,M,M,M,KLGA 022325Z AUTO 19008KT 10SM 08/00 A2987 RMK T00800000 MADISHF
LGA,2020-01-02 23:30,-73.8803,40.7794,M,M,M,190.00,5.00,M,29.88,M,10.00,M,M,M,M,M,M,M,M,M,M,M,M,M,M,M,M,M,KLGA 022330Z AUTO 19005KT 10SM 08/00 A2987 RMK T00800000 MADISHF
LGA,2020-01-02 23:35,-73.8803,40.7794,M,M,M,190.00,5.00,M,29.88,M,10.00,M,M,M,M,M,M,M,M,M,M,M,M,M,M,M,M,M,KLGA 022335Z AUTO 19005KT 10SM 08/00 A2987 RMK T00800000 MADISHF
LGA,2020-01-02 23:40,-73.8803,40.7794,M,M,M,190.00,5.00,M,29.88,M,10.00,M,M,M,M,M,M,M,M,M,M,M,M,M,M,M,M,M,KLGA 022340Z AUTO 19005KT 10SM 08/00 A2987 RMK T00800000 MADISHF
LGA,2020-01-02 23:45,-73.8803,40.7794,M,M,M,180.00,5.00,M,29.88,M,10.00,M,M,M,M,M,M,M,M,M,M,M,M,M,M,M,M,M,KLGA 022345Z AUTO 18005KT 10SM 08/01 A2987 RMK T00800010 MADISHF
LGA,2020-01-02 23:50,-73.8803,40.7794,M,M,M,180.00,5.00,M,29.88,M,10.00,M,M,M,M,M,M,M,M,M,M,M,M,M,M,M,M,M,KLGA 022350Z AUTO 18005KT 10SM 08/01 A2987 RMK T00800010 MADISHF
LGA,2020-01-02 23:51,-73.8803,40.7794,46.00,33.10,60.49,180.00,6.00,0.00,29.88,1011.60,10.00,M,FEW,OVC,M,M,18000.00,25000.00,M,M,M,M,M,M,M,M,M,42.39,KLGA 022351Z 18006KT 10SM FEW180 OVC250 08/01 A2988 RMK AO2 SLP116 T00780006 10094 20078 58006
LGA,2020-01-02 23:55,-73.8803,40.7794,M,M,M,180.00,5.00,M,29.88,M,10.00,M,M,M,M,M,M,M,M,M,M,M,M,M,M,M,M,M,KLGA 022355Z AUTO 18005KT 10SM 08/01 A2987 RMK T00800010 MADISHF
